{"type":"FeatureCollection","features":[{"type":"Feature","properties":{"code":"06140","nom":"Tignet","app":17.66,"app_bas":14.48,"app_haut":21.55,"app_ech":"maille","app_obs":38,"mai":18.46,"mai_bas":13.61,"mai_haut":25.04,"mai_ech":"maille","mai_obs":72},"geometry":{"type":"Polygon","coordinates":[[[6.8387,43.6138],[6.8349,43.6199],[6.8246,43.6232],[6.8268,43.6279],[6.8452,43.6483],[6.8604,43.6369],[6.8678,43.6284],[6.883,43.6064],[6.8634,43.6051],[6.8593,43.6089],[6.8474,43.6099],[6.8387,43.6138]]]}},{"type":"Feature","properties":{"code":"06097","nom":"Pierrefeu","app":11.3,"app_bas":8.9,"app_haut":14.35,"app_ech":"maille","app_obs":5,"mai":9.46,"mai_bas":6.43,"mai_haut":13.94,"mai_ech":"maille","mai_obs":10},"geometry":{"type":"Polygon","coordinates":[[[7.1011,43.8607],[7.0721,43.8552],[7.0494,43.8551],[7.053,43.861],[7.0498,43.8672],[7.0493,43.8794],[7.0513,43.8898],[7.0475,43.8951],[7.0498,43.91],[7.0591,43.9221],[7.0661,43.9202],[7.083,43.9201],[7.0825,43.9174],[7.0845,43.9041],[7.0782,43.8949],[7.0787,43.8904],[7.094,43.8842],[7.0992,43.8771],[7.1011,43.8607]]]}},{"type":"Feature","properties":{"code":"06128","nom":"Saint-Paul-de-Vence","app":17.36,"app_bas":13.63,"app_haut":22.12,"app_ech":"maille","app_obs":40,"mai":21.59,"mai_bas":14.38,"mai_haut":32.41,"mai_ech":"maille","mai_obs":24},"geometry":{"type":"Polygon","coordinates":[[[7.0957,43.7045],[7.1105,43.7119],[7.1203,43.7118],[7.1302,43.7041],[7.1352,43.6944],[7.1432,43.6916],[7.134,43.6843],[7.1318,43.6792],[7.1237,43.6733],[7.1151,43.6916],[7.1111,43.6958],[7.0957,43.7045]]]}},{"type":"Feature","properties":{"code":"06152","nom":"Valbonne","app":20.69,"app_bas":16.08,"app_haut":26.63,"app_ech":"commune","app_obs":703,"mai":22.76,"mai_bas":15.11,"mai_haut":34.27,"mai_ech":"commune","mai_obs":211},"geometry":{"type":"Polygon","coordinates":[[[7.0702,43.6122],[7.0676,43.6066],[7.0544,43.6011],[7.0366,43.6112],[7.0129,43.6146],[7.0029,43.6175],[6.9909,43.6303],[6.9885,43.6411],[7.0165,43.644],[7.0283,43.6507],[7.0434,43.6515],[7.0516,43.6444],[7.0523,43.6413],[7.0491,43.6356],[7.0578,43.6189],[7.0702,43.6122]]]}},{"type":"Feature","properties":{"code":"06044","nom":"Colle-sur-Loup","app":17.56,"app_bas":13.77,"app_haut":22.39,"app_ech":"commune","app_obs":468,"mai":20.9,"mai_bas":13.94,"mai_haut":31.34,"mai_ech":"commune","mai_obs":111},"geometry":{"type":"Polygon","coordinates":[[[7.0796,43.7053],[7.0889,43.702],[7.0957,43.7045],[7.1111,43.6958],[7.1151,43.6916],[7.1237,43.6733],[7.1206,43.6706],[7.1031,43.67],[7.0896,43.6795],[7.082,43.6793],[7.0728,43.6854],[7.0727,43.6889],[7.0796,43.7053]]]}},{"type":"Feature","properties":{"code":"06120","nom":"Saint-Étienne-de-Tinée","app":10,"app_bas":7.05,"app_haut":14.19,"app_ech":"maille","app_obs":57,"mai":9.46,"mai_bas":6.43,"mai_haut":13.94,"mai_ech":"maille","mai_obs":0},"geometry":{"type":"Polygon","coordinates":[[[6.8715,44.3528],[6.8874,44.3611],[6.9039,44.3584],[6.9224,44.3483],[6.9224,44.3417],[6.9265,44.3347],[6.9402,44.3245],[6.953,44.3176],[6.9606,44.3083],[6.9565,44.2986],[6.9678,44.2922],[6.9747,44.2849],[6.9818,44.2864],[6.9934,44.2809],[6.9961,44.2749],[6.9971,44.252],[7.0081,44.2364],[7.0193,44.2322],[7.023,44.2198],[7.028,44.2188],[7.0119,44.1999],[7.001,44.1983],[6.994,44.2008],[6.9806,44.1912],[6.9749,44.1698],[6.9752,44.1583],[6.9617,44.1629],[6.9633,44.1737],[6.9574,44.1865],[6.9504,44.1954],[6.9315,44.1891],[6.9042,44.1902],[6.8966,44.188],[6.8831,44.1787],[6.8778,44.172],[6.8736,44.1829],[6.8665,44.187],[6.8399,44.1957],[6.828,44.206],[6.8229,44.2154],[6.8359,44.2236],[6.8437,44.2502],[6.8505,44.257],[6.8634,44.2592],[6.8691,44.2675],[6.901,44.2784],[6.903,44.3014],[6.9,44.3143],[6.8869,44.3204],[6.8753,44.3399],[6.863,44.3466],[6.8715,44.3528]]]}},{"type":"Feature","properties":{"code":"06071","nom":"Guillaumes","app":11.63,"app_bas":8.41,"app_haut":16.08,"app_ech":"maille","app_obs":23,"mai":9.46,"mai_bas":6.43,"mai_haut":13.94,"mai_ech":"maille","mai_obs":2},"geometry":{"type":"Polygon","coordinates":[[[6.8201,44.1115],[6.8323,44.1128],[6.8432,44.1316],[6.8493,44.1365],[6.8476,44.1517],[6.8519,44.1612],[6.8617,44.1697],[6.8778,44.172],[6.8947,44.1655],[6.8905,44.1482],[6.8803,44.1349],[6.8866,44.1276],[6.887,44.1218],[6.882,44.1137],[6.8819,44.1072],[6.8925,44.1014],[6.9171,44.0999],[6.9291,44.0951],[6.929,44.0831],[6.9369,44.0764],[6.9341,44.0645],[6.9429,44.054],[6.9401,44.0412],[6.9173,44.044],[6.9038,44.0327],[6.8946,44.033],[6.8748,44.029],[6.8578,44.041],[6.8492,44.0432],[6.8365,44.0391],[6.8283,44.0485],[6.8201,44.0541],[6.8108,44.0555],[6.7916,44.0625],[6.7955,44.0626],[6.8113,44.0712],[6.8227,44.0722],[6.8404,44.0636],[6.8453,44.0634],[6.8474,44.0783],[6.8392,44.0991],[6.8306,44.1005],[6.8181,44.1058],[6.8102,44.1059],[6.8201,44.1115]]]}},{"type":"Feature","properties":{"code":"06163","nom":"Tende","app":12.19,"app_bas":9.63,"app_haut":15.43,"app_ech":"maille","app_obs":22,"mai":9.46,"mai_bas":6.43,"mai_haut":13.94,"mai_ech":"maille","mai_obs":9},"geometry":{"type":"Polygon","coordinates":[[[7.6766,44.1421],[7.6666,44.1308],[7.6745,44.1179],[7.6631,44.1147],[7.6515,44.1154],[7.6422,44.1078],[7.6387,44.1019],[7.6221,44.0913],[7.6147,44.0845],[7.6094,44.0743],[7.5953,44.0669],[7.5901,44.0593],[7.5819,44.0307],[7.5769,44.03],[7.5621,44.035],[7.5566,44.0426],[7.5475,44.0468],[7.5298,44.0516],[7.4984,44.0513],[7.4849,44.0475],[7.4724,44.0507],[7.4534,44.0455],[7.4359,44.0443],[7.423,44.0491],[7.4253,44.0504],[7.4276,44.0754],[7.4295,44.0814],[7.4285,44.0934],[7.4297,44.1071],[7.427,44.1129],[7.4299,44.1278],[7.4354,44.1294],[7.4576,44.1264],[7.4877,44.1358],[7.4952,44.1411],[7.5057,44.1436],[7.5202,44.1377],[7.5373,44.146],[7.5568,44.1469],[7.5731,44.1529],[7.6146,44.1497],[7.6213,44.1513],[7.6273,44.1587],[7.6278,44.1642],[7.6366,44.1619],[7.6501,44.1529],[7.6766,44.1421]]]}},{"type":"Feature","properties":{"code":"06022","nom":"Bouyon","app":13.35,"app_bas":10.8,"app_haut":16.49,"app_ech":"maille","app_obs":23,"mai":9.46,"mai_bas":6.43,"mai_haut":13.94,"mai_ech":"maille","mai_obs":14},"geometry":{"type":"Polygon","coordinates":[[[7.1286,43.8486],[7.1413,43.8415],[7.1448,43.8374],[7.1402,43.8303],[7.1451,43.8192],[7.1598,43.8178],[7.1396,43.8066],[7.1326,43.8056],[7.1326,43.8077],[7.1065,43.8155],[7.0887,43.8227],[7.1087,43.8326],[7.1192,43.8427],[7.1286,43.8486]]]}},{"type":"Feature","properties":{"code":"06050","nom":"Coursegoules","app":11.3,"app_bas":8.9,"app_haut":14.35,"app_ech":"maille","app_obs":14,"mai":13.66,"mai_bas":9.79,"mai_haut":19.05,"mai_ech":"maille","mai_obs":5},"geometry":{"type":"Polygon","coordinates":[[[7.0237,43.8283],[7.0489,43.825],[7.0498,43.813],[7.0635,43.8031],[7.0751,43.8008],[7.0761,43.7916],[7.0886,43.7811],[7.0776,43.7705],[7.072,43.7595],[7.0555,43.7512],[7.0364,43.7651],[7.0144,43.7732],[6.9986,43.7675],[6.9879,43.7712],[6.994,43.7788],[6.9974,43.7873],[6.9967,43.7938],[7.001,43.8138],[6.9911,43.8229],[7.0053,43.8271],[7.0237,43.8283]]]}},{"type":"Feature","properties":{"code":"06029","nom":"Cannes","app":20.27,"app_bas":14.97,"app_haut":27.44,"app_ech":"commune","app_obs":16391,"mai":22.33,"mai_bas":14.45,"mai_haut":34.52,"mai_ech":"commune","mai_obs":279},"geometry":{"type":"MultiPolygon","coordinates":[[[[6.97,43.5679],[6.9679,43.561],[6.9863,43.5665],[7.0071,43.5669],[7.0196,43.5649],[7.0352,43.5689],[7.0578,43.5503],[7.0404,43.5416],[7.0266,43.5486],[7.0148,43.5509],[7.004,43.5486],[6.9872,43.5484],[6.9633,43.5422],[6.9516,43.5341],[6.9504,43.548],[6.9562,43.5534],[6.9542,43.5618],[6.9446,43.5711],[6.9562,43.5746],[6.9632,43.5737],[6.97,43.5679]]],[[[7.0671,43.5136],[7.0428,43.5158],[7.0361,43.5175],[7.0322,43.5234],[7.0501,43.5225],[7.0709,43.5174],[7.0671,43.5136]]]]}},{"type":"Feature","properties":{"code":"06098","nom":"Puget-Rostang","app":11.75,"app_bas":9.59,"app_haut":14.4,"app_ech":"maille","app_obs":0,"mai":9.9,"mai_bas":7.21,"mai_haut":13.58,"mai_ech":"maille","mai_obs":0},"geometry":{"type":"Polygon","coordinates":[[[6.95,44.0383],[6.941,44.0286],[6.9441,44.0116],[6.9506,44.0002],[6.9613,43.987],[6.9735,43.9805],[6.975,43.9761],[6.955,43.9589],[6.9331,43.9625],[6.9192,43.96],[6.9026,43.9665],[6.893,43.9667],[6.8935,43.9719],[6.9073,43.9796],[6.9237,43.985],[6.9368,43.9872],[6.9407,43.9919],[6.9419,44.0063],[6.9288,44.0055],[6.921,43.9969],[6.9158,44.0031],[6.9209,44.0161],[6.9166,44.0186],[6.9186,44.0257],[6.9337,44.0261],[6.9425,44.0405],[6.95,44.0383]]]}},{"type":"Feature","properties":{"code":"06129","nom":"Saint-Sauveur-sur-Tinée","app":10.7,"app_bas":7.68,"app_haut":14.92,"app_ech":"commune","app_obs":108,"mai":9.46,"mai_bas":6.43,"mai_haut":13.94,"mai_ech":"maille","mai_obs":0},"geometry":{"type":"Polygon","coordinates":[[[7.1351,44.1641],[7.1359,44.1612],[7.1562,44.159],[7.1628,44.154],[7.1484,44.1398],[7.1374,44.1318],[7.1359,44.1192],[7.1252,44.0982],[7.1266,44.0917],[7.1246,44.0772],[7.1138,44.0642],[7.1099,44.0701],[7.0982,44.0689],[7.0854,44.0636],[7.0833,44.0707],[7.0991,44.0855],[7.1069,44.0895],[7.099,44.1094],[7.0912,44.1172],[7.0916,44.1238],[7.1012,44.1328],[7.0966,44.1474],[7.1077,44.1499],[7.1054,44.1578],[7.111,44.1626],[7.1235,44.1673],[7.1351,44.1641]]]}},{"type":"Feature","properties":{"code":"06134","nom":"Séranon","app":11.63,"app_bas":9.35,"app_haut":14.48,"app_ech":"maille","app_obs":27,"mai":11,"mai_bas":8,"mai_haut":15.12,"mai_ech":"maille","mai_obs":2},"geometry":{"type":"Polygon","coordinates":[[[6.6378,43.781],[6.636,43.7902],[6.6542,43.7834],[6.6775,43.778],[6.6889,43.78],[6.7065,43.7798],[6.7209,43.7813],[6.7311,43.7627],[6.7431,43.7534],[6.7325,43.7448],[6.7125,43.7404],[6.7111,43.7471],[6.7008,43.7543],[6.6827,43.7579],[6.6707,43.7515],[6.6574,43.7487],[6.6515,43.7659],[6.6419,43.7682],[6.6452,43.7746],[6.6378,43.781]]]}},{"type":"Feature","properties":{"code":"06058","nom":"Escragnolles","app":11.63,"app_bas":9.35,"app_haut":14.48,"app_ech":"maille","app_obs":15,"mai":11,"mai_bas":8,"mai_haut":15.12,"mai_ech":"maille","mai_obs":10},"geometry":{"type":"Polygon","coordinates":[[[6.7431,43.7534],[6.7637,43.7484],[6.795,43.7466],[6.8068,43.7487],[6.8252,43.7375],[6.8404,43.7309],[6.8403,43.728],[6.825,43.7243],[6.8116,43.7242],[6.806,43.721],[6.8014,43.7116],[6.7872,43.6946],[6.7747,43.6938],[6.7742,43.7036],[6.7676,43.7118],[6.7666,43.7202],[6.7565,43.7296],[6.7535,43.7382],[6.7194,43.7381],[6.7125,43.7404],[6.7325,43.7448],[6.7431,43.7534]]]}},{"type":"Feature","properties":{"code":"06072","nom":"Ilonse","app":11.75,"app_bas":9.59,"app_haut":14.4,"app_ech":"maille","app_obs":1,"mai":9.46,"mai_bas":6.43,"mai_haut":13.94,"mai_ech":"maille","mai_obs":1},"geometry":{"type":"Polygon","coordinates":[[[7.0833,44.0707],[7.0854,44.0636],[7.0982,44.0689],[7.1099,44.0701],[7.117,44.0588],[7.1269,44.0501],[7.1281,44.0454],[7.1276,44.0373],[7.1322,44.0247],[7.1315,44.0138],[7.1129,44.0098],[7.1004,44.0055],[7.0936,43.998],[7.0931,43.9916],[7.0798,43.9939],[7.0701,44.0029],[7.0709,44.0053],[7.0527,44.0222],[7.058,44.0334],[7.0587,44.0412],[7.0477,44.0606],[7.0662,44.0721],[7.073,44.0691],[7.0833,44.0707]]]}},{"type":"Feature","properties":{"code":"06124","nom":"Saint-Léger","app":11.3,"app_bas":8.9,"app_haut":14.35,"app_ech":"maille","app_obs":0,"mai":9.9,"mai_bas":7.21,"mai_haut":13.58,"mai_ech":"maille","mai_obs":0},"geometry":{"type":"Polygon","coordinates":[[[6.8387,43.9897],[6.798,44.0053],[6.7956,44.0081],[6.806,44.0107],[6.8264,44.0057],[6.8357,44.0108],[6.8412,44.003],[6.8387,43.9897]]]}},{"type":"Feature","properties":{"code":"06012","nom":"Beausoleil","app":31.24,"app_bas":21.12,"app_haut":46.22,"app_ech":"commune","app_obs":2023,"mai":19.11,"mai_bas":11.52,"mai_haut":31.69,"mai_ech":"maille","mai_obs":19},"geometry":{"type":"Polygon","coordinates":[[[7.4151,43.7561],[7.4266,43.7593],[7.4374,43.7516],[7.4126,43.7347],[7.4075,43.7388],[7.4201,43.749],[7.4151,43.7561]]]}},{"type":"Feature","properties":{"code":"06065","nom":"Gaude","app":19.22,"app_bas":14.83,"app_haut":24.9,"app_ech":"commune","app_obs":162,"mai":18.7,"mai_bas":12.97,"mai_haut":26.98,"mai_ech":"maille","mai_obs":83},"geometry":{"type":"Polygon","coordinates":[[[7.1828,43.7414],[7.1821,43.7333],[7.1844,43.7187],[7.1746,43.7179],[7.1697,43.714],[7.1679,43.7027],[7.164,43.693],[7.1583,43.6932],[7.1419,43.7001],[7.1436,43.7171],[7.1471,43.7247],[7.1371,43.7263],[7.1369,43.7337],[7.1494,43.74],[7.1828,43.7414]]]}},{"type":"Feature","properties":{"code":"06118","nom":"Saint-Cézaire-sur-Siagne","app":13.58,"app_bas":10.9,"app_haut":16.92,"app_ech":"commune","app_obs":181,"mai":18.46,"mai_bas":13.61,"mai_haut":25.04,"mai_ech":"maille","mai_obs":39},"geometry":{"type":"Polygon","coordinates":[[[6.7611,43.6659],[6.762,43.679],[6.7646,43.6874],[6.7747,43.6938],[6.7872,43.6946],[6.7986,43.6834],[6.8082,43.6803],[6.8324,43.6654],[6.8499,43.6615],[6.8452,43.6483],[6.8268,43.6279],[6.8246,43.6232],[6.8173,43.6287],[6.7987,43.6282],[6.7897,43.6434],[6.7774,43.6583],[6.7611,43.6659]]]}},{"type":"Feature","properties":{"code":"06149","nom":"Trinité","app":16.46,"app_bas":13.41,"app_haut":20.19,"app_ech":"commune","app_obs":590,"mai":19.11,"mai_bas":11.52,"mai_haut":31.69,"mai_ech":"maille","mai_obs":48},"geometry":{"type":"Polygon","coordinates":[[[7.3853,43.7617],[7.3903,43.7575],[7.3861,43.7501],[7.3757,43.7443],[7.3681,43.7385],[7.3582,43.7411],[7.3491,43.7383],[7.333,43.7281],[7.3241,43.7273],[7.3209,43.7234],[7.3077,43.7243],[7.3022,43.7216],[7.2923,43.7336],[7.3076,43.7371],[7.3103,43.7464],[7.3072,43.7534],[7.3096,43.7584],[7.3181,43.7592],[7.3196,43.7518],[7.3302,43.7487],[7.3398,43.752],[7.3532,43.7516],[7.36,43.756],[7.3716,43.7607],[7.3853,43.7617]]]}},{"type":"Feature","properties":{"code":"06131","nom":"Sallagriffon","app":11.63,"app_bas":9.35,"app_haut":14.48,"app_ech":"maille","app_obs":0,"mai":18.76,"mai_bas":11.71,"mai_haut":30.05,"mai_ech":"maille","mai_obs":0},"geometry":{"type":"Polygon","coordinates":[[[6.9376,43.8963],[6.9363,43.8799],[6.9311,43.8788],[6.9198,43.8658],[6.9074,43.8652],[6.905,43.8703],[6.8909,43.8667],[6.8884,43.8726],[6.8949,43.8792],[6.8926,43.89],[6.8982,43.8921],[6.9187,43.8936],[6.9376,43.8963]]]}},{"type":"Feature","properties":{"code":"06137","nom":"Spéracèdes","app":17.66,"app_bas":14.48,"app_haut":21.55,"app_ech":"maille","app_obs":63,"mai":18.46,"mai_bas":13.61,"mai_haut":25.04,"mai_ech":"maille","mai_obs":50},"geometry":{"type":"Polygon","coordinates":[[[6.8604,43.6369],[6.8452,43.6483],[6.8499,43.6615],[6.8608,43.6671],[6.8657,43.6585],[6.869,43.6463],[6.8599,43.6415],[6.8604,43.6369]]]}},{"type":"Feature","properties":{"code":"06122","nom":"Saint-Jeannet","app":18.85,"app_bas":14.53,"app_haut":24.45,"app_ech":"commune","app_obs":204,"mai":18.7,"mai_bas":12.97,"mai_haut":26.98,"mai_ech":"maille","mai_obs":69},"geometry":{"type":"Polygon","coordinates":[[[7.111,43.7794],[7.1241,43.7841],[7.1311,43.7902],[7.138,43.7766],[7.154,43.7586],[7.1602,43.7543],[7.1722,43.7521],[7.1852,43.7467],[7.1828,43.7414],[7.1494,43.74],[7.1369,43.7337],[7.1347,43.7438],[7.1292,43.7509],[7.1157,43.7617],[7.1106,43.7726],[7.111,43.7794]]]}},{"type":"Feature","properties":{"code":"06003","nom":"Andon","app":13.28,"app_bas":10.63,"app_haut":16.59,"app_ech":"maille","app_obs":27,"mai":11,"mai_bas":8,"mai_haut":15.12,"mai_ech":"maille","mai_obs":1},"geometry":{"type":"Polygon","coordinates":[[[6.77,43.7834],[6.7717,43.7892],[6.7706,43.8059],[6.7886,43.8082],[6.8023,43.8121],[6.8226,43.8154],[6.8339,43.8154],[6.859,43.8199],[6.8602,43.7987],[6.8594,43.7831],[6.8565,43.7742],[6.8578,43.7646],[6.8676,43.7511],[6.8732,43.7373],[6.8719,43.7342],[6.8663,43.7368],[6.8404,43.7309],[6.8252,43.7375],[6.8068,43.7487],[6.795,43.7466],[6.7844,43.7478],[6.7857,43.7675],[6.7831,43.7767],[6.7771,43.7821],[6.77,43.7834]]]}},{"type":"Feature","properties":{"code":"06157","nom":"Vence","app":18.35,"app_bas":14.68,"app_haut":22.93,"app_ech":"commune","app_obs":2093,"mai":21.3,"mai_bas":13.26,"mai_haut":34.22,"mai_ech":"commune","mai_obs":104},"geometry":{"type":"Polygon","coordinates":[[[7.0796,43.7053],[7.0791,43.7244],[7.0684,43.7347],[7.052,43.7467],[7.0555,43.7512],[7.072,43.7595],[7.0776,43.7705],[7.0886,43.7811],[7.1006,43.7823],[7.111,43.7794],[7.1106,43.7726],[7.1157,43.7617],[7.1292,43.7509],[7.1347,43.7438],[7.1369,43.7337],[7.1371,43.7263],[7.1471,43.7247],[7.1436,43.7171],[7.1419,43.7001],[7.1432,43.6916],[7.1352,43.6944],[7.1302,43.7041],[7.1203,43.7118],[7.1105,43.7119],[7.0889,43.702],[7.0796,43.7053]]]}},{"type":"Feature","properties":{"code":"06014","nom":"Bendejun","app":13.76,"app_bas":11.24,"app_haut":16.85,"app_ech":"maille","app_obs":35,"mai":18.7,"mai_bas":12.97,"mai_haut":26.98,"mai_ech":"maille","mai_obs":8},"geometry":{"type":"Polygon","coordinates":[[[7.2727,43.8475],[7.2792,43.8476],[7.2957,43.842],[7.3012,43.8236],[7.2945,43.8232],[7.2882,43.8158],[7.2724,43.816],[7.267,43.8223],[7.2743,43.8307],[7.2727,43.8475]]]}},{"type":"Feature","properties":{"code":"06095","nom":"Peymeinade","app":17.36,"app_bas":14.23,"app_haut":21.18,"app_ech":"commune","app_obs":694,"mai":20.08,"mai_bas":14.79,"mai_haut":27.26,"mai_ech":"commune","mai_obs":154},"geometry":{"type":"Polygon","coordinates":[[[6.869,43.6463],[6.8809,43.6501],[6.8936,43.6472],[6.8938,43.6315],[6.9025,43.6234],[6.9014,43.6184],[6.8945,43.611],[6.883,43.6064],[6.8678,43.6284],[6.8604,43.6369],[6.8599,43.6415],[6.869,43.6463]]]}},{"type":"Feature","properties":{"code":"06139","nom":"Thiéry","app":11.75,"app_bas":9.59,"app_haut":14.4,"app_ech":"maille","app_obs":0,"mai":9.9,"mai_bas":7.21,"mai_haut":13.58,"mai_ech":"maille","mai_obs":0},"geometry":{"type":"Polygon","coordinates":[[[7.0558,43.9472],[7.0395,43.949],[7.0184,43.9604],[7.0116,43.9602],[7.0042,43.9524],[6.9975,43.9519],[6.9933,43.9572],[7.0078,43.9661],[7.0053,43.978],[7.027,43.9849],[7.0331,43.9914],[7.0412,43.9945],[7.0489,43.994],[7.0628,44.0042],[7.0701,44.0029],[7.0798,43.9939],[7.0756,43.9797],[7.0625,43.97],[7.0558,43.9472]]]}},{"type":"Feature","properties":{"code":"06066","nom":"Gilette","app":13.35,"app_bas":10.8,"app_haut":16.49,"app_ech":"maille","app_obs":70,"mai":9.46,"mai_bas":6.43,"mai_haut":13.94,"mai_ech":"maille","mai_obs":23},"geometry":{"type":"Polygon","coordinates":[[[7.1911,43.8335],[7.185,43.8224],[7.1746,43.8354],[7.1632,43.8436],[7.1483,43.8473],[7.1413,43.8415],[7.1286,43.8486],[7.1254,43.8541],[7.1265,43.8597],[7.1411,43.8629],[7.1594,43.8626],[7.1775,43.8514],[7.1949,43.8442],[7.1911,43.8335]]]}},{"type":"Feature","properties":{"code":"06075","nom":"Levens","app":15.35,"app_bas":12.53,"app_haut":18.79,"app_ech":"commune","app_obs":217,"mai":18.7,"mai_bas":12.97,"mai_haut":26.98,"mai_ech":"maille","mai_obs":54},"geometry":{"type":"Polygon","coordinates":[[[7.267,43.8223],[7.2562,43.8199],[7.2532,43.8273],[7.2426,43.8306],[7.233,43.8263],[7.2274,43.8203],[7.2187,43.8176],[7.2187,43.8316],[7.2062,43.8392],[7.2042,43.8485],[7.1958,43.8494],[7.1969,43.8601],[7.2125,43.8635],[7.2169,43.8717],[7.2287,43.8778],[7.2443,43.8824],[7.2615,43.8703],[7.2727,43.8714],[7.2727,43.8475],[7.2743,43.8307],[7.267,43.8223]]]}},{"type":"Feature","properties":{"code":"06086","nom":"Moulinet","app":11.75,"app_bas":9.59,"app_haut":14.4,"app_ech":"maille","app_obs":4,"mai":19.11,"mai_bas":11.52,"mai_haut":31.69,"mai_ech":"maille","mai_obs":3},"geometry":{"type":"Polygon","coordinates":[[[7.3698,43.9396],[7.38,43.9671],[7.3925,43.9749],[7.3932,43.9822],[7.4095,43.9939],[7.4254,43.9971],[7.4336,43.9924],[7.4398,43.983],[7.449,43.9584],[7.4572,43.9475],[7.4504,43.934],[7.4311,43.9282],[7.4124,43.9181],[7.4083,43.9124],[7.3993,43.9096],[7.3884,43.9224],[7.39,43.9325],[7.3698,43.9396]]]}},{"type":"Feature","properties":{"code":"06107","nom":"Roque-en-Provence","app":11.3,"app_bas":8.9,"app_haut":14.35,"app_ech":"maille","app_obs":1,"mai":18.76,"mai_bas":11.71,"mai_haut":30.05,"mai_ech":"maille","mai_obs":0},"geometry":{"type":"Polygon","coordinates":[[[7.0237,43.8283],[7.0053,43.8271],[6.9911,43.8229],[6.9658,43.834],[6.9597,43.8346],[6.9523,43.8471],[6.9551,43.8565],[6.9608,43.8659],[6.9877,43.8747],[6.9927,43.8754],[7.0023,43.8729],[7.0241,43.8578],[7.0329,43.8563],[7.0291,43.85],[7.0149,43.8498],[7.0083,43.8457],[7.0245,43.8384],[7.0237,43.8283]]]}},{"type":"Feature","properties":{"code":"06056","nom":"Entraunes","app":11.63,"app_bas":8.41,"app_haut":16.08,"app_ech":"maille","app_obs":0,"mai":9.9,"mai_bas":7.21,"mai_haut":13.58,"mai_ech":"maille","mai_obs":0},"geometry":{"type":"Polygon","coordinates":[[[6.828,44.206],[6.8131,44.1925],[6.8032,44.1775],[6.7861,44.1781],[6.7774,44.1673],[6.7512,44.1635],[6.7426,44.1656],[6.7346,44.1711],[6.7098,44.1707],[6.7012,44.1775],[6.6988,44.188],[6.7068,44.2015],[6.7153,44.2052],[6.7183,44.2107],[6.7141,44.2182],[6.725,44.2263],[6.724,44.2498],[6.7283,44.2526],[6.7513,44.2605],[6.7584,44.2651],[6.7583,44.2744],[6.7629,44.279],[6.7723,44.2779],[6.7903,44.2723],[6.7971,44.2595],[6.8108,44.2205],[6.8229,44.2154],[6.828,44.206]]]}},{"type":"Feature","properties":{"code":"06126","nom":"Saint-Martin-du-Var","app":17.43,"app_bas":13.98,"app_haut":21.72,"app_ech":"commune","app_obs":469,"mai":18.7,"mai_bas":12.97,"mai_haut":26.98,"mai_ech":"maille","mai_obs":59},"geometry":{"type":"Polygon","coordinates":[[[7.1911,43.8335],[7.1925,43.8262],[7.2083,43.8272],[7.2121,43.8183],[7.2172,43.8158],[7.2008,43.8],[7.1862,43.8137],[7.185,43.8224],[7.1911,43.8335]]]}},{"type":"Feature","properties":{"code":"06148","nom":"Tourrettes-sur-Loup","app":15.67,"app_bas":12.29,"app_haut":19.97,"app_ech":"commune","app_obs":100,"mai":21.59,"mai_bas":14.38,"mai_haut":32.41,"mai_ech":"maille","mai_obs":45},"geometry":{"type":"Polygon","coordinates":[[[7.052,43.7467],[7.0684,43.7347],[7.0791,43.7244],[7.0796,43.7053],[7.0727,43.6889],[7.0608,43.6972],[7.0502,43.6971],[7.036,43.7003],[7.0211,43.6976],[7.0081,43.6972],[7.001,43.7004],[6.9909,43.7134],[6.9909,43.7178],[6.998,43.732],[7.0061,43.7297],[7.0218,43.7334],[7.0317,43.74],[7.052,43.7467]]]}},{"type":"Feature","properties":{"code":"06031","nom":"Cantaron","app":16.58,"app_bas":13.17,"app_haut":20.85,"app_ech":"maille","app_obs":7,"mai":18.7,"mai_bas":12.97,"mai_haut":26.98,"mai_ech":"maille","mai_obs":16},"geometry":{"type":"Polygon","coordinates":[[[7.3375,43.7807],[7.3322,43.772],[7.3181,43.7592],[7.3096,43.7584],[7.3072,43.7534],[7.2962,43.7587],[7.2922,43.7776],[7.3104,43.7811],[7.3174,43.7852],[7.3305,43.7807],[7.3375,43.7807]]]}},{"type":"Feature","properties":{"code":"06017","nom":"Bézaudun-les-Alpes","app":13.28,"app_bas":10.63,"app_haut":16.59,"app_ech":"maille","app_obs":4,"mai":18.76,"mai_bas":11.71,"mai_haut":30.05,"mai_ech":"maille","mai_obs":3},"geometry":{"type":"Polygon","coordinates":[[[7.111,43.7794],[7.1006,43.7823],[7.0886,43.7811],[7.0761,43.7916],[7.0751,43.8008],[7.0635,43.8031],[7.0498,43.813],[7.0489,43.825],[7.0649,43.8256],[7.0887,43.8227],[7.1065,43.8155],[7.1326,43.8077],[7.133,43.7908],[7.1311,43.7902],[7.1241,43.7841],[7.111,43.7794]]]}},{"type":"Feature","properties":{"code":"06043","nom":"Coaraze","app":13.76,"app_bas":11.24,"app_haut":16.85,"app_ech":"maille","app_obs":17,"mai":18.7,"mai_bas":12.97,"mai_haut":26.98,"mai_ech":"maille","mai_obs":10},"geometry":{"type":"Polygon","coordinates":[[[7.3148,43.8967],[7.3166,43.8891],[7.3227,43.8794],[7.3229,43.8644],[7.3308,43.8583],[7.2957,43.842],[7.2792,43.8476],[7.2727,43.8475],[7.2727,43.8714],[7.2846,43.8781],[7.2939,43.8867],[7.308,43.8869],[7.3148,43.8967]]]}},{"type":"Feature","properties":{"code":"06073","nom":"Isola","app":11.63,"app_bas":8.41,"app_haut":16.08,"app_ech":"maille","app_obs":39,"mai":9.46,"mai_bas":6.43,"mai_haut":13.94,"mai_ech":"maille","mai_obs":1},"geometry":{"type":"Polygon","coordinates":[[[7.1351,44.1641],[7.1235,44.1673],[7.111,44.1626],[7.1054,44.1578],[7.1077,44.1499],[7.0966,44.1474],[7.0914,44.1549],[7.0715,44.1478],[7.0568,44.1479],[7.0434,44.1524],[7.0197,44.158],[7.0136,44.1578],[6.9949,44.1631],[6.9752,44.1583],[6.9749,44.1698],[6.9806,44.1912],[6.994,44.2008],[7.001,44.1983],[7.0119,44.1999],[7.028,44.2188],[7.023,44.2198],[7.0193,44.2322],[7.0236,44.234],[7.031,44.2279],[7.0424,44.2253],[7.071,44.2329],[7.0875,44.2283],[7.0956,44.221],[7.1122,44.2173],[7.1282,44.2093],[7.1411,44.201],[7.1485,44.201],[7.1597,44.2062],[7.172,44.2017],[7.1889,44.1978],[7.1936,44.1871],[7.1924,44.1797],[7.1844,44.1777],[7.1666,44.1697],[7.1487,44.1746],[7.1384,44.1726],[7.1351,44.1641]]]}},{"type":"Feature","properties":{"code":"06059","nom":"Èze","app":27.3,"app_bas":20.63,"app_haut":36.13,"app_ech":"commune","app_obs":158,"mai":19.11,"mai_bas":11.52,"mai_haut":31.69,"mai_ech":"maille","mai_obs":34},"geometry":{"type":"Polygon","coordinates":[[[7.3209,43.7234],[7.3241,43.7273],[7.333,43.7281],[7.3491,43.7383],[7.3582,43.7411],[7.3681,43.7385],[7.3757,43.7443],[7.3767,43.7356],[7.3876,43.7401],[7.3908,43.735],[7.39,43.7263],[7.3833,43.7226],[7.3694,43.7194],[7.3585,43.7219],[7.3483,43.7141],[7.3432,43.7207],[7.3209,43.7234]]]}},{"type":"Feature","properties":{"code":"06062","nom":"Fontan","app":12.19,"app_bas":9.63,"app_haut":15.43,"app_ech":"maille","app_obs":12,"mai":19.11,"mai_bas":11.52,"mai_haut":31.69,"mai_ech":"maille","mai_obs":1},"geometry":{"type":"Polygon","coordinates":[[[7.4642,44.0482],[7.4724,44.0507],[7.4849,44.0475],[7.4984,44.0513],[7.5298,44.0516],[7.5475,44.0468],[7.5566,44.0426],[7.5621,44.035],[7.5769,44.03],[7.5819,44.0307],[7.5936,44.0235],[7.6064,44.0214],[7.62,44.0097],[7.6359,44.0006],[7.6393,43.9946],[7.633,43.9902],[7.6269,43.9937],[7.6241,44.0016],[7.6166,44.0016],[7.5962,43.9953],[7.573,43.9968],[7.5576,43.9928],[7.5434,43.9928],[7.5296,43.9957],[7.5298,44.0051],[7.5148,44.0117],[7.4976,44.0122],[7.4924,44.0148],[7.4746,44.0313],[7.4642,44.0482]]]}},{"type":"Feature","properties":{"code":"06038","nom":"Châteauneuf-Grasse","app":16.71,"app_bas":13.36,"app_haut":20.91,"app_ech":"commune","app_obs":253,"mai":20.47,"mai_bas":14.34,"mai_haut":29.23,"mai_ech":"maille","mai_obs":76},"geometry":{"type":"Polygon","coordinates":[[[6.9602,43.6863],[6.9679,43.6872],[6.9812,43.6825],[6.9876,43.6855],[6.9988,43.6812],[6.9944,43.6767],[6.9935,43.6694],[6.98,43.672],[6.9754,43.6671],[6.9846,43.6612],[7.0007,43.6423],[6.9885,43.6411],[6.9788,43.6447],[6.9708,43.6509],[6.9631,43.6614],[6.9605,43.67],[6.9696,43.6792],[6.9602,43.6863]]]}},{"type":"Feature","properties":{"code":"06078","nom":"Malaussène","app":11.3,"app_bas":8.9,"app_haut":14.35,"app_ech":"maille","app_obs":33,"mai":9.46,"mai_bas":6.43,"mai_haut":13.94,"mai_ech":"maille","mai_obs":3},"geometry":{"type":"Polygon","coordinates":[[[7.1848,43.9117],[7.1935,43.9094],[7.1959,43.9046],[7.188,43.9001],[7.188,43.8942],[7.1729,43.8979],[7.1574,43.897],[7.1415,43.9028],[7.1292,43.9098],[7.0876,43.9177],[7.0825,43.9174],[7.083,43.9201],[7.0898,43.9292],[7.0976,43.928],[7.1081,43.93],[7.1205,43.9338],[7.1405,43.9342],[7.1496,43.926],[7.1848,43.9117]]]}},{"type":"Feature","properties":{"code":"06159","nom":"Villefranche-sur-Mer","app":26.41,"app_bas":18.47,"app_haut":37.76,"app_ech":"commune","app_obs":333,"mai":19.11,"mai_bas":11.52,"mai_haut":31.69,"mai_ech":"maille","mai_obs":6},"geometry":{"type":"Polygon","coordinates":[[[7.3234,43.7229],[7.3432,43.7207],[7.3483,43.7141],[7.3427,43.7136],[7.3382,43.7144],[7.3258,43.7102],[7.3268,43.7015],[7.3247,43.7006],[7.3147,43.7065],[7.3068,43.6979],[7.3087,43.6924],[7.3013,43.7006],[7.3016,43.707],[7.3142,43.7193],[7.3234,43.7229]]]}},{"type":"Feature","properties":{"code":"06009","nom":"Bairols","app":13.65,"app_bas":10.88,"app_haut":17.12,"app_ech":"maille","app_obs":0,"mai":9.46,"mai_bas":6.43,"mai_haut":13.94,"mai_ech":"maille","mai_obs":0},"geometry":{"type":"Polygon","coordinates":[[[7.1315,44.0138],[7.1349,44.008],[7.138,43.9759],[7.1419,43.9721],[7.1337,43.9643],[7.1309,43.9584],[7.1227,43.9582],[7.1136,43.9614],[7.1115,43.9731],[7.0997,43.9889],[7.0931,43.9916],[7.0936,43.998],[7.1004,44.0055],[7.1129,44.0098],[7.1315,44.0138]]]}},{"type":"Feature","properties":{"code":"06076","nom":"Lieuche","app":11.63,"app_bas":8.41,"app_haut":16.08,"app_ech":"maille","app_obs":3,"mai":9.9,"mai_bas":7.21,"mai_haut":13.58,"mai_ech":"maille","mai_obs":0},"geometry":{"type":"Polygon","coordinates":[[[7.0112,43.9797],[7.0029,43.9924],[7.0023,44.0035],[7.0174,44.0081],[7.0386,44.0187],[7.0527,44.0222],[7.0709,44.0053],[7.0701,44.0029],[7.0628,44.0042],[7.0489,43.994],[7.0412,43.9945],[7.0331,43.9914],[7.027,43.9849],[7.0112,43.9797]]]}},{"type":"Feature","properties":{"code":"06020","nom":"Bollène-Vésubie","app":12.19,"app_bas":9.63,"app_haut":15.43,"app_ech":"maille","app_obs":24,"mai":19.11,"mai_bas":11.52,"mai_haut":31.69,"mai_ech":"maille","mai_obs":2},"geometry":{"type":"Polygon","coordinates":[[[7.4123,44.021],[7.4229,44.016],[7.4335,44.001],[7.4254,43.9971],[7.4095,43.9939],[7.3932,43.9822],[7.3925,43.9749],[7.38,43.9671],[7.3662,43.9694],[7.3496,43.9683],[7.319,43.9806],[7.3163,43.995],[7.3545,44.0175],[7.3813,44.016],[7.4016,44.0216],[7.4123,44.021]]]}},{"type":"Feature","properties":{"code":"06123","nom":"Saint-Laurent-du-Var","app":19.63,"app_bas":15.87,"app_haut":24.27,"app_ech":"commune","app_obs":7297,"mai":18.87,"mai_bas":11.75,"mai_haut":30.29,"mai_ech":"commune","mai_obs":176},"geometry":{"type":"Polygon","coordinates":[[[7.1844,43.7187],[7.1871,43.6947],[7.1921,43.6789],[7.2004,43.6588],[7.1993,43.6548],[7.1945,43.6579],[7.1782,43.656],[7.1772,43.6697],[7.1787,43.6848],[7.1757,43.6933],[7.164,43.693],[7.1679,43.7027],[7.1697,43.714],[7.1746,43.7179],[7.1844,43.7187]]]}},{"type":"Feature","properties":{"code":"06105","nom":"Roquefort-les-Pins","app":20.68,"app_bas":16,"app_haut":26.74,"app_ech":"commune","app_obs":167,"mai":21.59,"mai_bas":14.38,"mai_haut":32.41,"mai_ech":"maille","mai_obs":95},"geometry":{"type":"Polygon","coordinates":[[[7.0434,43.6515],[7.0392,43.6589],[7.0282,43.6654],[7.0188,43.6875],[7.0249,43.6941],[7.036,43.7003],[7.0502,43.6971],[7.0608,43.6972],[7.0727,43.6889],[7.0728,43.6854],[7.082,43.6793],[7.0896,43.6795],[7.0951,43.6754],[7.0857,43.6722],[7.0763,43.66],[7.0718,43.6486],[7.0545,43.6473],[7.0516,43.6444],[7.0434,43.6515]]]}},{"type":"Feature","properties":{"code":"06158","nom":"Villars-sur-Var","app":11.3,"app_bas":8.9,"app_haut":14.35,"app_ech":"maille","app_obs":82,"mai":9.46,"mai_bas":6.43,"mai_haut":13.94,"mai_ech":"maille","mai_obs":5},"geometry":{"type":"Polygon","coordinates":[[[7.0558,43.9472],[7.0625,43.97],[7.0756,43.9797],[7.0798,43.9939],[7.0931,43.9916],[7.1026,43.9735],[7.1045,43.9525],[7.1081,43.93],[7.0976,43.928],[7.0898,43.9292],[7.083,43.9201],[7.0661,43.9202],[7.0456,43.9258],[7.0563,43.9411],[7.0558,43.9472]]]}},{"type":"Feature","properties":{"code":"06088","nom":"Nice","app":20.43,"app_bas":15.44,"app_haut":27.04,"app_ech":"commune","app_obs":71615,"mai":21.6,"mai_bas":13.5,"mai_haut":34.55,"mai_ech":"commune","mai_obs":730},"geometry":{"type":"Polygon","coordinates":[[[7.1828,43.7414],[7.1852,43.7467],[7.1994,43.7608],[7.2179,43.7529],[7.2224,43.7415],[7.2425,43.7513],[7.2486,43.7516],[7.2537,43.7412],[7.2704,43.7442],[7.2795,43.743],[7.2813,43.7359],[7.2907,43.7349],[7.2981,43.7391],[7.2952,43.7463],[7.2966,43.755],[7.2962,43.7587],[7.3072,43.7534],[7.3103,43.7464],[7.3076,43.7371],[7.2923,43.7336],[7.3022,43.7216],[7.3077,43.7243],[7.3234,43.7229],[7.3142,43.7193],[7.3016,43.707],[7.3013,43.7006],[7.3087,43.6924],[7.304,43.6848],[7.2972,43.6861],[7.2852,43.6943],[7.2624,43.6943],[7.2419,43.6885],[7.2306,43.6786],[7.2297,43.6675],[7.2259,43.6623],[7.2065,43.6456],[7.1992,43.6474],[7.1993,43.6548],[7.2004,43.6588],[7.1921,43.6789],[7.1871,43.6947],[7.1821,43.7333],[7.1828,43.7414]]]}},{"type":"Feature","properties":{"code":"06008","nom":"Auvare","app":11.75,"app_bas":9.59,"app_haut":14.4,"app_ech":"maille","app_obs":0,"mai":9.9,"mai_bas":7.21,"mai_haut":13.58,"mai_ech":"maille","mai_obs":0},"geometry":{"type":"Polygon","coordinates":[[[6.9401,44.0412],[6.9425,44.0405],[6.9337,44.0261],[6.9186,44.0257],[6.9166,44.0186],[6.9209,44.0161],[6.9158,44.0031],[6.921,43.9969],[6.9288,44.0055],[6.9419,44.0063],[6.9407,43.9919],[6.9368,43.9872],[6.9237,43.985],[6.9073,43.9796],[6.8935,43.9719],[6.893,43.9667],[6.8848,43.9684],[6.8964,43.9971],[6.8949,44.011],[6.9034,44.0176],[6.9072,44.0271],[6.9038,44.0327],[6.9173,44.044],[6.9401,44.0412]]]}},{"type":"Feature","properties":{"code":"06114","nom":"Saint-André-de-la-Roche","app":18.66,"app_bas":15.43,"app_haut":22.56,"app_ech":"commune","app_obs":1571,"mai":18.76,"mai_bas":11.71,"mai_haut":30.05,"mai_ech":"maille","mai_obs":23},"geometry":{"type":"Polygon","coordinates":[[[7.2795,43.743],[7.2839,43.7458],[7.2802,43.7547],[7.2966,43.755],[7.2952,43.7463],[7.2981,43.7391],[7.2907,43.7349],[7.2813,43.7359],[7.2795,43.743]]]}},{"type":"Feature","properties":{"code":"06026","nom":"Cabris","app":17.66,"app_bas":14.48,"app_haut":21.55,"app_ech":"maille","app_obs":85,"mai":18.46,"mai_bas":13.61,"mai_haut":25.04,"mai_ech":"maille","mai_obs":29},"geometry":{"type":"Polygon","coordinates":[[[6.869,43.6463],[6.8657,43.6585],[6.8608,43.6671],[6.8781,43.6729],[6.8886,43.6722],[6.8874,43.6669],[6.8933,43.6548],[6.8936,43.6472],[6.8809,43.6501],[6.869,43.6463]]]}},{"type":"Feature","properties":{"code":"06057","nom":"Escarène","app":14.18,"app_bas":11.59,"app_haut":17.35,"app_ech":"commune","app_obs":288,"mai":19.11,"mai_bas":11.52,"mai_haut":31.69,"mai_ech":"maille","mai_obs":20},"geometry":{"type":"Polygon","coordinates":[[[7.3566,43.8512],[7.3568,43.8406],[7.3654,43.841],[7.3855,43.8507],[7.3959,43.8427],[7.393,43.8332],[7.3702,43.823],[7.3684,43.8129],[7.3566,43.8102],[7.3498,43.8305],[7.3445,43.8411],[7.3367,43.8518],[7.3566,43.8512]]]}},{"type":"Feature","properties":{"code":"06092","nom":"Peillon","app":15.92,"app_bas":12.98,"app_haut":19.54,"app_ech":"maille","app_obs":45,"mai":19.11,"mai_bas":11.52,"mai_haut":31.69,"mai_ech":"maille","mai_obs":14},"geometry":{"type":"Polygon","coordinates":[[[7.3751,43.7894],[7.3931,43.7853],[7.3921,43.7684],[7.3853,43.7617],[7.3716,43.7607],[7.36,43.756],[7.3618,43.7612],[7.3526,43.7646],[7.3374,43.7657],[7.3478,43.7725],[7.3632,43.7795],[7.3751,43.7894]]]}},{"type":"Feature","properties":{"code":"06143","nom":"Touët-sur-Var","app":11.3,"app_bas":8.9,"app_haut":14.35,"app_ech":"maille","app_obs":28,"mai":9.46,"mai_bas":6.43,"mai_haut":13.94,"mai_ech":"maille","mai_obs":10},"geometry":{"type":"Polygon","coordinates":[[[6.9803,43.9354],[6.9706,43.9374],[6.9622,43.943],[6.9619,43.9478],[6.9881,43.9482],[6.9933,43.9572],[6.9975,43.9519],[7.0042,43.9524],[7.0116,43.9602],[7.0184,43.9604],[7.0395,43.949],[7.0558,43.9472],[7.0563,43.9411],[7.0456,43.9258],[7.0209,43.9341],[7.0025,43.9372],[6.9803,43.9354]]]}},{"type":"Feature","properties":{"code":"06046","nom":"Colomars","app":19.67,"app_bas":15.18,"app_haut":25.5,"app_ech":"commune","app_obs":151,"mai":18.7,"mai_bas":12.97,"mai_haut":26.98,"mai_ech":"maille","mai_obs":44},"geometry":{"type":"Polygon","coordinates":[[[7.212,43.7725],[7.2223,43.7717],[7.2393,43.7632],[7.2425,43.7513],[7.2224,43.7415],[7.2179,43.7529],[7.1994,43.7608],[7.212,43.7725]]]}},{"type":"Feature","properties":{"code":"06063","nom":"Gars","app":11.63,"app_bas":9.35,"app_haut":14.48,"app_ech":"maille","app_obs":0,"mai":18.76,"mai_bas":11.71,"mai_haut":30.05,"mai_ech":"maille","mai_obs":0},"geometry":{"type":"Polygon","coordinates":[[[6.7918,43.8762],[6.8129,43.8806],[6.8221,43.881],[6.8274,43.8726],[6.8445,43.8676],[6.8497,43.8605],[6.8519,43.8517],[6.8347,43.8487],[6.8057,43.8413],[6.7945,43.8431],[6.7888,43.8672],[6.7918,43.8762]]]}},{"type":"Feature","properties":{"code":"06099","nom":"Puget-Théniers","app":12.47,"app_bas":9.77,"app_haut":15.91,"app_ech":"commune","app_obs":171,"mai":9.46,"mai_bas":6.43,"mai_haut":13.94,"mai_ech":"maille","mai_obs":12},"geometry":{"type":"Polygon","coordinates":[[[6.955,43.9589],[6.957,43.95],[6.9619,43.9478],[6.9622,43.943],[6.9485,43.938],[6.9315,43.9414],[6.9131,43.9416],[6.8917,43.9302],[6.881,43.9381],[6.8711,43.9539],[6.8519,43.9548],[6.8474,43.9574],[6.8481,43.9652],[6.8848,43.9684],[6.893,43.9667],[6.9026,43.9665],[6.9192,43.96],[6.9331,43.9625],[6.955,43.9589]]]}},{"type":"Feature","properties":{"code":"06155","nom":"Vallauris","app":18.15,"app_bas":14.32,"app_haut":23.02,"app_ech":"commune","app_obs":4950,"mai":20.6,"mai_bas":13.14,"mai_haut":32.28,"mai_ech":"commune","mai_obs":217},"geometry":{"type":"Polygon","coordinates":[[[7.0352,43.5689],[7.0375,43.5811],[7.0441,43.5918],[7.0544,43.6011],[7.0676,43.6066],[7.0651,43.6001],[7.0667,43.588],[7.0801,43.5794],[7.0865,43.5698],[7.0676,43.5616],[7.0578,43.5503],[7.0352,43.5689]]]}},{"type":"Feature","properties":{"code":"06110","nom":"Roubion","app":11.63,"app_bas":8.41,"app_haut":16.08,"app_ech":"maille","app_obs":4,"mai":9.46,"mai_bas":6.43,"mai_haut":13.94,"mai_ech":"maille","mai_obs":1},"geometry":{"type":"Polygon","coordinates":[[[7.0477,44.0606],[7.0276,44.0675],[7.0223,44.0759],[7.0208,44.0971],[7.0258,44.1037],[7.0243,44.1096],[7.0079,44.1178],[6.9942,44.1326],[6.9938,44.1452],[6.9856,44.1561],[6.9798,44.1593],[6.9949,44.1631],[7.0136,44.1578],[7.0163,44.1502],[7.0231,44.1405],[7.0254,44.1291],[7.033,44.1171],[7.0523,44.1019],[7.0634,44.0886],[7.0662,44.0721],[7.0477,44.0606]]]}},{"type":"Feature","properties":{"code":"06145","nom":"Tourette-du-Château","app":13.35,"app_bas":10.8,"app_haut":16.49,"app_ech":"maille","app_obs":0,"mai":9.46,"mai_bas":6.43,"mai_haut":13.94,"mai_ech":"maille","mai_obs":1},"geometry":{"type":"Polygon","coordinates":[[[7.1415,43.9028],[7.1574,43.897],[7.1489,43.887],[7.1516,43.8729],[7.1596,43.8648],[7.1594,43.8626],[7.1411,43.8629],[7.1265,43.8597],[7.1161,43.8634],[7.1197,43.8705],[7.1203,43.8818],[7.1339,43.8934],[7.1415,43.9028]]]}},{"type":"Feature","properties":{"code":"06042","nom":"Clans","app":11.75,"app_bas":9.59,"app_haut":14.4,"app_ech":"maille","app_obs":12,"mai":9.46,"mai_bas":6.43,"mai_haut":13.94,"mai_ech":"maille","mai_obs":26},"geometry":{"type":"Polygon","coordinates":[[[7.1315,44.0138],[7.1401,44.0108],[7.153,44.012],[7.153,44.0202],[7.1708,44.0264],[7.18,44.0366],[7.1941,44.041],[7.2077,44.0409],[7.2132,44.0329],[7.2306,44.0224],[7.2339,44.0161],[7.2251,44.004],[7.2058,44.0024],[7.1987,43.9931],[7.1827,43.9853],[7.18,43.9769],[7.1717,43.9669],[7.1515,43.9639],[7.138,43.9759],[7.1349,44.008],[7.1315,44.0138]]]}},{"type":"Feature","properties":{"code":"06089","nom":"Opio","app":20.17,"app_bas":15.54,"app_haut":26.17,"app_ech":"maille","app_obs":38,"mai":21.59,"mai_bas":14.38,"mai_haut":32.41,"mai_ech":"maille","mai_obs":46},"geometry":{"type":"Polygon","coordinates":[[[7.0007,43.6423],[6.9846,43.6612],[6.9754,43.6671],[6.98,43.672],[7.0125,43.6645],[7.0282,43.6654],[7.0392,43.6589],[7.0434,43.6515],[7.0283,43.6507],[7.0165,43.644],[7.0007,43.6423]]]}},{"type":"Feature","properties":{"code":"06104","nom":"Roquebrune-Cap-Martin","app":24.59,"app_bas":17.7,"app_haut":34.16,"app_ech":"commune","app_obs":1898,"mai":19.11,"mai_bas":11.52,"mai_haut":31.69,"mai_ech":"maille","mai_obs":70},"geometry":{"type":"Polygon","coordinates":[[[7.4718,43.7773],[7.479,43.7683],[7.4883,43.765],[7.4821,43.7569],[7.4868,43.749],[7.4759,43.7508],[7.4597,43.76],[7.4466,43.7519],[7.4374,43.7516],[7.4266,43.7593],[7.4351,43.7604],[7.4362,43.7767],[7.4543,43.7746],[7.4718,43.7773]]]}},{"type":"Feature","properties":{"code":"06054","nom":"Drap","app":16.77,"app_bas":13.36,"app_haut":21.05,"app_ech":"commune","app_obs":415,"mai":19.11,"mai_bas":11.52,"mai_haut":31.69,"mai_ech":"maille","mai_obs":13},"geometry":{"type":"Polygon","coordinates":[[[7.3374,43.7657],[7.3526,43.7646],[7.3618,43.7612],[7.36,43.756],[7.3532,43.7516],[7.3398,43.752],[7.3302,43.7487],[7.3196,43.7518],[7.3181,43.7592],[7.3322,43.772],[7.3374,43.7657]]]}},{"type":"Feature","properties":{"code":"06033","nom":"Carros","app":18.59,"app_bas":15.05,"app_haut":22.98,"app_ech":"commune","app_obs":1125,"mai":20.63,"mai_bas":14.31,"mai_haut":29.75,"mai_ech":"commune","mai_obs":102},"geometry":{"type":"Polygon","coordinates":[[[7.1946,43.8052],[7.2134,43.7888],[7.2161,43.7806],[7.212,43.7725],[7.2038,43.7648],[7.1854,43.7731],[7.1576,43.7747],[7.1436,43.7814],[7.1486,43.7879],[7.1674,43.7975],[7.1899,43.8024],[7.1946,43.8052]]]}},{"type":"Feature","properties":{"code":"06051","nom":"Croix-sur-Roudoule","app":11.3,"app_bas":8.9,"app_haut":14.35,"app_ech":"maille","app_obs":5,"mai":9.46,"mai_bas":6.43,"mai_haut":13.94,"mai_ech":"maille","mai_obs":2},"geometry":{"type":"Polygon","coordinates":[[[6.9038,44.0327],[6.9072,44.0271],[6.9034,44.0176],[6.8949,44.011],[6.8964,43.9971],[6.8848,43.9684],[6.8481,43.9652],[6.8421,43.979],[6.8347,43.9833],[6.8387,43.9897],[6.8412,44.003],[6.8357,44.0108],[6.8471,44.0136],[6.8566,44.0239],[6.8593,44.0299],[6.8578,44.041],[6.8748,44.029],[6.8946,44.033],[6.9038,44.0327]]]}},{"type":"Feature","properties":{"code":"06021","nom":"Bonson","app":13.65,"app_bas":10.88,"app_haut":17.12,"app_ech":"maille","app_obs":24,"mai":18.7,"mai_bas":12.97,"mai_haut":26.98,"mai_ech":"maille","mai_obs":14},"geometry":{"type":"Polygon","coordinates":[[[7.1958,43.8494],[7.1949,43.8442],[7.1775,43.8514],[7.1594,43.8626],[7.1596,43.8648],[7.1871,43.8763],[7.1892,43.8783],[7.1977,43.8693],[7.1958,43.8494]]]}},{"type":"Feature","properties":{"code":"06060","nom":"Falicon","app":21.68,"app_bas":16.38,"app_haut":28.7,"app_ech":"maille","app_obs":20,"mai":18.7,"mai_bas":12.97,"mai_haut":26.98,"mai_ech":"maille","mai_obs":23},"geometry":{"type":"Polygon","coordinates":[[[7.2486,43.7516],[7.255,43.7615],[7.2624,43.767],[7.2735,43.7611],[7.2802,43.7547],[7.2839,43.7458],[7.2795,43.743],[7.2704,43.7442],[7.2537,43.7412],[7.2486,43.7516]]]}},{"type":"Feature","properties":{"code":"06035","nom":"Castellar","app":12.19,"app_bas":9.63,"app_haut":15.43,"app_ech":"maille","app_obs":42,"mai":19.11,"mai_bas":11.52,"mai_haut":31.69,"mai_ech":"maille","mai_obs":0},"geometry":{"type":"Polygon","coordinates":[[[7.4842,43.8234],[7.4857,43.8319],[7.4791,43.8473],[7.4966,43.8509],[7.4986,43.8462],[7.5074,43.8417],[7.5103,43.8282],[7.5187,43.8025],[7.5129,43.7963],[7.5045,43.7944],[7.4955,43.7962],[7.4889,43.8035],[7.4867,43.8191],[7.4842,43.8234]]]}},{"type":"Feature","properties":{"code":"06036","nom":"Castillon","app":19.24,"app_bas":13.82,"app_haut":26.78,"app_ech":"maille","app_obs":13,"mai":19.11,"mai_bas":11.52,"mai_haut":31.69,"mai_ech":"maille","mai_obs":1},"geometry":{"type":"Polygon","coordinates":[[[7.4393,43.8426],[7.471,43.8501],[7.4791,43.8473],[7.4857,43.8319],[7.4842,43.8234],[7.4476,43.8274],[7.4466,43.8329],[7.4393,43.8426]]]}},{"type":"Feature","properties":{"code":"06004","nom":"Antibes","app":20.25,"app_bas":16.11,"app_haut":25.47,"app_ech":"commune","app_obs":15575,"mai":20.4,"mai_bas":13.03,"mai_haut":31.93,"mai_ech":"commune","mai_obs":442},"geometry":{"type":"Polygon","coordinates":[[[7.118,43.6225],[7.1301,43.6178],[7.1265,43.6053],[7.1258,43.5946],[7.1297,43.5826],[7.1255,43.5758],[7.1392,43.5644],[7.1348,43.5557],[7.1442,43.5529],[7.1385,43.5456],[7.1192,43.5445],[7.1172,43.549],[7.1216,43.5542],[7.1146,43.5658],[7.1013,43.5707],[7.0865,43.5698],[7.0801,43.5794],[7.0667,43.588],[7.0651,43.6001],[7.0702,43.6122],[7.0823,43.6079],[7.0906,43.6104],[7.118,43.6225]]]}},{"type":"Feature","properties":{"code":"06015","nom":"Berre-les-Alpes","app":13.61,"app_bas":11.13,"app_haut":16.64,"app_ech":"commune","app_obs":145,"mai":18.7,"mai_bas":12.97,"mai_haut":26.98,"mai_ech":"maille","mai_obs":31},"geometry":{"type":"Polygon","coordinates":[[[7.3308,43.8583],[7.3445,43.8411],[7.3498,43.8305],[7.3566,43.8102],[7.3501,43.8136],[7.3429,43.8231],[7.3248,43.8245],[7.3192,43.8282],[7.3045,43.8463],[7.3308,43.8583]]]}},{"type":"Feature","properties":{"code":"06117","nom":"Saint-Blaise","app":17.15,"app_bas":14.17,"app_haut":20.76,"app_ech":"maille","app_obs":15,"mai":18.7,"mai_bas":12.97,"mai_haut":26.98,"mai_ech":"maille","mai_obs":14},"geometry":{"type":"Polygon","coordinates":[[[7.2508,43.8082],[7.2372,43.8075],[7.2233,43.8036],[7.2059,43.7956],[7.2008,43.8],[7.2187,43.8176],[7.2274,43.8203],[7.233,43.8263],[7.2426,43.8306],[7.2532,43.8273],[7.2562,43.8199],[7.2508,43.8082]]]}},{"type":"Feature","properties":{"code":"06090","nom":"Pégomas","app":18.43,"app_bas":15.3,"app_haut":22.19,"app_ech":"commune","app_obs":842,"mai":20.67,"mai_bas":13.27,"mai_haut":32.18,"mai_ech":"commune","mai_obs":134},"geometry":{"type":"Polygon","coordinates":[[[6.912,43.5983],[6.9294,43.6134],[6.9342,43.6155],[6.9345,43.6058],[6.9438,43.5966],[6.9297,43.583],[6.9417,43.5708],[6.9254,43.5711],[6.9179,43.5649],[6.9066,43.5641],[6.9072,43.573],[6.8984,43.5816],[6.912,43.5983]]]}},{"type":"Feature","properties":{"code":"06151","nom":"Utelle","app":13.65,"app_bas":10.88,"app_haut":17.12,"app_ech":"maille","app_obs":22,"mai":9.46,"mai_bas":6.43,"mai_haut":13.94,"mai_ech":"maille","mai_obs":7},"geometry":{"type":"Polygon","coordinates":[[[7.1848,43.9117],[7.1897,43.9191],[7.1878,43.9248],[7.2005,43.9272],[7.2097,43.9311],[7.2248,43.9435],[7.223,43.9494],[7.2375,43.9529],[7.2406,43.9562],[7.235,43.972],[7.2291,44.0005],[7.2251,44.004],[7.2339,44.0161],[7.25,44.0169],[7.2498,44.01],[7.2442,44.0024],[7.2589,43.9895],[7.2611,43.9847],[7.2616,43.972],[7.2685,43.9531],[7.2747,43.9461],[7.2834,43.9416],[7.293,43.9415],[7.2958,43.9319],[7.3068,43.9184],[7.294,43.9156],[7.2913,43.9097],[7.2822,43.9061],[7.2551,43.9035],[7.2532,43.8948],[7.2443,43.8824],[7.2287,43.8778],[7.2169,43.8717],[7.2125,43.8635],[7.1969,43.8601],[7.1977,43.8693],[7.1892,43.8783],[7.188,43.8942],[7.188,43.9001],[7.1959,43.9046],[7.1935,43.9094],[7.1848,43.9117]]]}},{"type":"Feature","properties":{"code":"06061","nom":"Ferres","app":13.35,"app_bas":10.8,"app_haut":16.49,"app_ech":"maille","app_obs":2,"mai":9.46,"mai_bas":6.43,"mai_haut":13.94,"mai_ech":"maille","mai_obs":1},"geometry":{"type":"Polygon","coordinates":[[[7.1011,43.8607],[7.1254,43.8541],[7.1286,43.8486],[7.1192,43.8427],[7.1087,43.8326],[7.0887,43.8227],[7.0649,43.8256],[7.0718,43.8488],[7.0721,43.8552],[7.1011,43.8607]]]}},{"type":"Feature","properties":{"code":"06142","nom":"Touët-de-l'Escarène","app":13.76,"app_bas":11.24,"app_haut":16.85,"app_ech":"maille","app_obs":40,"mai":19.11,"mai_bas":11.52,"mai_haut":31.69,"mai_ech":"maille","mai_obs":11},"geometry":{"type":"Polygon","coordinates":[[[7.3566,43.8512],[7.3649,43.8533],[7.3802,43.8607],[7.3887,43.8629],[7.3927,43.8595],[7.4012,43.8604],[7.4029,43.8544],[7.3891,43.853],[7.3654,43.841],[7.3568,43.8406],[7.3566,43.8512]]]}},{"type":"Feature","properties":{"code":"06162","nom":"Brigue","app":12.19,"app_bas":9.63,"app_haut":15.43,"app_ech":"maille","app_obs":6,"mai":19.11,"mai_bas":11.52,"mai_haut":31.69,"mai_ech":"maille","mai_obs":1},"geometry":{"type":"MultiPolygon","coordinates":[[[[7.6359,44.0006],[7.62,44.0097],[7.6064,44.0214],[7.5936,44.0235],[7.5819,44.0307],[7.5901,44.0593],[7.5953,44.0669],[7.6094,44.0743],[7.6147,44.0845],[7.6221,44.0913],[7.6387,44.1019],[7.6422,44.1078],[7.6515,44.1154],[7.6631,44.1147],[7.6745,44.1179],[7.688,44.1101],[7.6966,44.0977],[7.712,44.0883],[7.7169,44.0818],[7.7141,44.0654],[7.704,44.0525],[7.7,44.0408],[7.6898,44.0395],[7.6783,44.0333],[7.665,44.0307],[7.662,44.0274],[7.6628,44.0146],[7.6539,44.0059],[7.6359,44.0006]]],[[[7.6278,44.1642],[7.6366,44.1771],[7.6453,44.178],[7.6692,44.1755],[7.6778,44.1768],[7.6846,44.174],[7.6809,44.1643],[7.6718,44.1584],[7.6709,44.1537],[7.678,44.1475],[7.6766,44.1421],[7.6501,44.1529],[7.6366,44.1619],[7.6278,44.1642]]]]}},{"type":"Feature","properties":{"code":"06019","nom":"Blausasc","app":12.19,"app_bas":9.63,"app_haut":15.43,"app_ech":"maille","app_obs":56,"mai":18.7,"mai_bas":12.97,"mai_haut":26.98,"mai_ech":"maille","mai_obs":16},"geometry":{"type":"Polygon","coordinates":[[[7.3375,43.7807],[7.35,43.7893],[7.3546,43.7971],[7.3501,43.8136],[7.3566,43.8102],[7.3684,43.8129],[7.3698,43.8214],[7.3794,43.8178],[7.3813,43.8029],[7.3751,43.7894],[7.3632,43.7795],[7.3478,43.7725],[7.3374,43.7657],[7.3322,43.772],[7.3375,43.7807]]]}},{"type":"Feature","properties":{"code":"06113","nom":"Sainte-Agnès","app":19.24,"app_bas":13.82,"app_haut":26.78,"app_ech":"maille","app_obs":16,"mai":19.11,"mai_bas":11.52,"mai_haut":31.69,"mai_ech":"maille","mai_obs":7},"geometry":{"type":"Polygon","coordinates":[[[7.4433,43.7999],[7.4457,43.805],[7.4476,43.8274],[7.4681,43.8247],[7.4756,43.8051],[7.4797,43.7988],[7.4777,43.7857],[7.473,43.7821],[7.4609,43.7872],[7.4433,43.7999]]]}},{"type":"Feature","properties":{"code":"06032","nom":"Cap-d'Ail","app":31.48,"app_bas":21.29,"app_haut":46.56,"app_ech":"commune","app_obs":261,"mai":19.11,"mai_bas":11.52,"mai_haut":31.69,"mai_ech":"maille","mai_obs":12},"geometry":{"type":"Polygon","coordinates":[[[7.4128,43.7317],[7.4156,43.7259],[7.4065,43.7196],[7.3979,43.7189],[7.3833,43.7226],[7.3962,43.7302],[7.4128,43.7317]]]}},{"type":"Feature","properties":{"code":"06055","nom":"Duranus","app":11.75,"app_bas":9.59,"app_haut":14.4,"app_ech":"maille","app_obs":2,"mai":19.11,"mai_bas":11.52,"mai_haut":31.69,"mai_ech":"maille","mai_obs":0},"geometry":{"type":"Polygon","coordinates":[[[7.3068,43.9184],[7.3071,43.9018],[7.3148,43.8967],[7.308,43.8869],[7.2939,43.8867],[7.2846,43.8781],[7.2727,43.8714],[7.2615,43.8703],[7.2443,43.8824],[7.2532,43.8948],[7.2551,43.9035],[7.2822,43.9061],[7.2913,43.9097],[7.294,43.9156],[7.3068,43.9184]]]}},{"type":"Feature","properties":{"code":"06132","nom":"Saorge","app":12.19,"app_bas":9.63,"app_haut":15.43,"app_ech":"maille","app_obs":3,"mai":19.11,"mai_bas":11.52,"mai_haut":31.69,"mai_ech":"maille","mai_obs":1},"geometry":{"type":"Polygon","coordinates":[[[7.6359,44.0006],[7.6539,44.0059],[7.6628,44.0146],[7.6702,43.9985],[7.6558,43.981],[7.6486,43.9741],[7.6401,43.9712],[7.6155,43.9578],[7.5981,43.957],[7.5718,43.9472],[7.5429,43.9623],[7.5298,43.964],[7.5119,43.972],[7.5053,43.983],[7.4847,43.9855],[7.4602,43.9955],[7.4335,44.001],[7.4229,44.016],[7.4123,44.021],[7.4229,44.0311],[7.4237,44.0373],[7.4196,44.0453],[7.423,44.0491],[7.4359,44.0443],[7.4534,44.0455],[7.4642,44.0482],[7.4746,44.0313],[7.4924,44.0148],[7.4976,44.0122],[7.5148,44.0117],[7.5298,44.0051],[7.5296,43.9957],[7.5434,43.9928],[7.5576,43.9928],[7.573,43.9968],[7.5962,43.9953],[7.6166,44.0016],[7.6241,44.0016],[7.6269,43.9937],[7.633,43.9902],[7.6393,43.9946],[7.6359,44.0006]]]}},{"type":"Feature","properties":{"code":"06138","nom":"Théoule-sur-Mer","app":18.54,"app_bas":14.77,"app_haut":23.28,"app_ech":"commune","app_obs":123,"mai":23.24,"mai_bas":14.96,"mai_haut":36.08,"mai_ech":"maille","mai_obs":7},"geometry":{"type":"Polygon","coordinates":[[[6.9384,43.5164],[6.9384,43.5086],[6.9548,43.5047],[6.9551,43.4982],[6.949,43.4935],[6.9488,43.4855],[6.9327,43.4843],[6.9337,43.4801],[6.9207,43.4821],[6.9039,43.4951],[6.9131,43.5068],[6.9142,43.5113],[6.9319,43.5179],[6.9384,43.5164]]]}},{"type":"Feature","properties":{"code":"06106","nom":"Roquestéron","app":11.3,"app_bas":8.9,"app_haut":14.35,"app_ech":"maille","app_obs":28,"mai":9.46,"mai_bas":6.43,"mai_haut":13.94,"mai_ech":"maille","mai_obs":15},"geometry":{"type":"Polygon","coordinates":[[[7.0329,43.8563],[7.0241,43.8578],[7.0023,43.8729],[6.9927,43.8754],[6.9939,43.8835],[7.0052,43.8838],[7.0124,43.8747],[7.0189,43.8716],[7.0498,43.8672],[7.053,43.861],[7.0494,43.8551],[7.0329,43.8563]]]}},{"type":"Feature","properties":{"code":"06160","nom":"Villeneuve-d'Entraunes","app":11.63,"app_bas":8.41,"app_haut":16.08,"app_ech":"maille","app_obs":0,"mai":9.9,"mai_bas":7.21,"mai_haut":13.58,"mai_ech":"maille","mai_obs":0},"geometry":{"type":"Polygon","coordinates":[[[6.812,44.1739],[6.8164,44.1699],[6.8137,44.1533],[6.8107,44.1469],[6.8154,44.1336],[6.8237,44.1253],[6.8201,44.1115],[6.8051,44.1039],[6.7921,44.1072],[6.7764,44.1045],[6.7634,44.0983],[6.7537,44.0874],[6.7498,44.0866],[6.7366,44.1023],[6.7247,44.111],[6.7361,44.118],[6.7558,44.1265],[6.7656,44.1251],[6.7721,44.1273],[6.7814,44.1365],[6.7826,44.1443],[6.8068,44.1602],[6.812,44.1739]]]}},{"type":"Feature","properties":{"code":"06052","nom":"Cuébris","app":11.63,"app_bas":9.35,"app_haut":14.48,"app_ech":"maille","app_obs":0,"mai":18.76,"mai_bas":11.71,"mai_haut":30.05,"mai_ech":"maille","mai_obs":0},"geometry":{"type":"Polygon","coordinates":[[[6.9939,43.8835],[6.9824,43.8838],[6.9635,43.8804],[6.951,43.8806],[6.937,43.8836],[6.9376,43.8963],[6.9755,43.8994],[6.9868,43.8951],[6.993,43.9014],[7.0075,43.9055],[7.02,43.9061],[7.0355,43.8969],[7.0417,43.9068],[7.0498,43.91],[7.0475,43.8951],[7.0513,43.8898],[7.0493,43.8794],[7.0498,43.8672],[7.0189,43.8716],[7.0124,43.8747],[7.0052,43.8838],[6.9939,43.8835]]]}},{"type":"Feature","properties":{"code":"06064","nom":"Gattières","app":19.15,"app_bas":14.78,"app_haut":24.82,"app_ech":"commune","app_obs":199,"mai":18.7,"mai_bas":12.97,"mai_haut":26.98,"mai_ech":"maille","mai_obs":66},"geometry":{"type":"Polygon","coordinates":[[[7.2038,43.7648],[7.1852,43.7467],[7.1722,43.7521],[7.1602,43.7543],[7.154,43.7586],[7.138,43.7766],[7.1311,43.7902],[7.133,43.7908],[7.1436,43.7814],[7.1576,43.7747],[7.1854,43.7731],[7.2038,43.7648]]]}},{"type":"Feature","properties":{"code":"06041","nom":"Cipières","app":14.95,"app_bas":11.39,"app_haut":19.64,"app_ech":"maille","app_obs":28,"mai":13.66,"mai_bas":9.79,"mai_haut":19.05,"mai_ech":"maille","mai_obs":11},"geometry":{"type":"Polygon","coordinates":[[[6.9563,43.7471],[6.9484,43.7504],[6.9324,43.7517],[6.9217,43.7548],[6.8942,43.7579],[6.8578,43.7646],[6.8565,43.7742],[6.8594,43.7831],[6.8756,43.7869],[6.8886,43.786],[6.901,43.7903],[6.9098,43.7883],[6.9385,43.79],[6.9619,43.7898],[6.9714,43.7877],[6.9905,43.7605],[6.9904,43.7558],[6.9849,43.7541],[6.9822,43.7443],[6.9713,43.7425],[6.9593,43.7441],[6.9563,43.7471]]]}},{"type":"Feature","properties":{"code":"06115","nom":"Saint-Antonin","app":11.3,"app_bas":8.9,"app_haut":14.35,"app_ech":"maille","app_obs":2,"mai":18.76,"mai_bas":11.71,"mai_haut":30.05,"mai_ech":"maille","mai_obs":0},"geometry":{"type":"Polygon","coordinates":[[[6.953,43.8982],[6.9546,43.904],[6.9727,43.9226],[6.9865,43.9201],[6.992,43.9132],[6.993,43.9014],[6.9868,43.8951],[6.9755,43.8994],[6.953,43.8982]]]}},{"type":"Feature","properties":{"code":"06156","nom":"Venanson","app":11.75,"app_bas":9.59,"app_haut":14.4,"app_ech":"maille","app_obs":1,"mai":9.46,"mai_bas":6.43,"mai_haut":13.94,"mai_ech":"maille","mai_obs":1},"geometry":{"type":"Polygon","coordinates":[[[7.2339,44.0161],[7.2306,44.0224],[7.2132,44.0329],[7.2077,44.0409],[7.207,44.0465],[7.2191,44.058],[7.2421,44.0655],[7.256,44.0613],[7.2617,44.0531],[7.2712,44.0462],[7.2615,44.0349],[7.2607,44.0283],[7.2542,44.0176],[7.2339,44.0161]]]}},{"type":"Feature","properties":{"code":"06006","nom":"Aspremont","app":19.34,"app_bas":14.93,"app_haut":25.05,"app_ech":"maille","app_obs":52,"mai":18.7,"mai_bas":12.97,"mai_haut":26.98,"mai_ech":"maille","mai_obs":37},"geometry":{"type":"Polygon","coordinates":[[[7.2425,43.7513],[7.2393,43.7632],[7.2223,43.7717],[7.2417,43.7939],[7.2413,43.7995],[7.2536,43.8006],[7.2523,43.7873],[7.2627,43.7697],[7.2624,43.767],[7.255,43.7615],[7.2486,43.7516],[7.2425,43.7513]]]}},{"type":"Feature","properties":{"code":"06068","nom":"Gourdon","app":14.95,"app_bas":11.39,"app_haut":19.64,"app_ech":"maille","app_obs":9,"mai":13.66,"mai_bas":9.79,"mai_haut":19.05,"mai_ech":"maille","mai_obs":1},"geometry":{"type":"Polygon","coordinates":[[[6.9563,43.7471],[6.9593,43.7441],[6.9713,43.7425],[6.9822,43.7443],[6.9849,43.7541],[6.9904,43.7558],[6.9991,43.7458],[6.998,43.732],[6.9909,43.7178],[6.9909,43.7134],[6.9837,43.7127],[6.9739,43.7035],[6.9549,43.7014],[6.9481,43.705],[6.94,43.7002],[6.9268,43.6975],[6.9242,43.716],[6.93,43.7178],[6.9411,43.7336],[6.9563,43.7471]]]}},{"type":"Feature","properties":{"code":"06077","nom":"Lucéram","app":13.69,"app_bas":11.16,"app_haut":16.77,"app_ech":"commune","app_obs":315,"mai":19.11,"mai_bas":11.52,"mai_haut":31.69,"mai_ech":"maille","mai_obs":14},"geometry":{"type":"Polygon","coordinates":[[[7.3148,43.8967],[7.3071,43.9018],[7.3068,43.9184],[7.2958,43.9319],[7.293,43.9415],[7.3119,43.9407],[7.3275,43.9481],[7.3408,43.9485],[7.3479,43.9449],[7.3698,43.9396],[7.39,43.9325],[7.3884,43.9224],[7.3993,43.9096],[7.3937,43.8906],[7.3942,43.8786],[7.4039,43.8653],[7.4084,43.8537],[7.4029,43.8544],[7.4012,43.8604],[7.3927,43.8595],[7.3887,43.8629],[7.3802,43.8607],[7.3649,43.8533],[7.3566,43.8512],[7.3367,43.8518],[7.3308,43.8583],[7.3229,43.8644],[7.3227,43.8794],[7.3166,43.8891],[7.3148,43.8967]]]}},{"type":"Feature","properties":{"code":"06082","nom":"Massoins","app":13.65,"app_bas":10.88,"app_haut":17.12,"app_ech":"maille","app_obs":2,"mai":9.46,"mai_bas":6.43,"mai_haut":13.94,"mai_ech":"maille","mai_obs":0},"geometry":{"type":"Polygon","coordinates":[[[7.1663,43.9192],[7.1496,43.926],[7.1405,43.9342],[7.1205,43.9338],[7.1081,43.93],[7.1045,43.9525],[7.1026,43.9735],[7.0931,43.9916],[7.0997,43.9889],[7.1115,43.9731],[7.1136,43.9614],[7.1227,43.9582],[7.1309,43.9584],[7.1407,43.9493],[7.1516,43.9338],[7.1647,43.9258],[7.1663,43.9192]]]}},{"type":"Feature","properties":{"code":"06094","nom":"Péone","app":11.63,"app_bas":8.41,"app_haut":16.08,"app_ech":"maille","app_obs":34,"mai":9.9,"mai_bas":7.21,"mai_haut":13.58,"mai_ech":"maille","mai_obs":0},"geometry":{"type":"Polygon","coordinates":[[[6.8778,44.172],[6.8831,44.1787],[6.8966,44.188],[6.9042,44.1902],[6.914,44.1894],[6.9108,44.1642],[6.9232,44.1573],[6.9495,44.1491],[6.9609,44.1382],[6.9724,44.1228],[6.9645,44.1149],[6.9585,44.1041],[6.9512,44.1002],[6.9547,44.0859],[6.9507,44.0809],[6.9369,44.0764],[6.929,44.0831],[6.9291,44.0951],[6.9171,44.0999],[6.8925,44.1014],[6.8819,44.1072],[6.882,44.1137],[6.887,44.1218],[6.8866,44.1276],[6.8803,44.1349],[6.8905,44.1482],[6.8947,44.1655],[6.8778,44.172]]]}},{"type":"Feature","properties":{"code":"06001","nom":"Aiglun","app":13.28,"app_bas":10.63,"app_haut":16.59,"app_ech":"maille","app_obs":0,"mai":11,"mai_bas":8,"mai_haut":15.12,"mai_ech":"maille","mai_obs":3},"geometry":{"type":"Polygon","coordinates":[[[6.9597,43.8346],[6.938,43.831],[6.9239,43.8302],[6.9124,43.8317],[6.9159,43.8363],[6.9166,43.8487],[6.9074,43.8652],[6.9198,43.8658],[6.9311,43.8788],[6.9363,43.8799],[6.9471,43.875],[6.9518,43.8646],[6.9608,43.8659],[6.9551,43.8565],[6.9523,43.8471],[6.9597,43.8346]]]}},{"type":"Feature","properties":{"code":"06127","nom":"Saint-Martin-Vésubie","app":11.63,"app_bas":8.41,"app_haut":16.08,"app_ech":"maille","app_obs":35,"mai":9.46,"mai_bas":6.43,"mai_haut":13.94,"mai_ech":"maille","mai_obs":11},"geometry":{"type":"Polygon","coordinates":[[[7.2904,44.0613],[7.2879,44.051],[7.2907,44.0454],[7.2853,44.041],[7.2712,44.0462],[7.2617,44.0531],[7.256,44.0613],[7.2421,44.0655],[7.2334,44.0624],[7.2382,44.0726],[7.2352,44.0893],[7.2412,44.1124],[7.2381,44.1188],[7.2285,44.1216],[7.2247,44.1262],[7.2264,44.1319],[7.2376,44.1385],[7.2528,44.1398],[7.2628,44.148],[7.2718,44.1476],[7.282,44.1434],[7.3094,44.1458],[7.3197,44.143],[7.3442,44.1452],[7.3487,44.1327],[7.356,44.1209],[7.3679,44.1164],[7.3859,44.1237],[7.3887,44.1073],[7.3856,44.0995],[7.3866,44.087],[7.3781,44.0736],[7.3643,44.0644],[7.3594,44.0649],[7.3542,44.0737],[7.3347,44.0766],[7.323,44.0729],[7.3052,44.0737],[7.29,44.0711],[7.2904,44.0613]]]}},{"type":"Feature","properties":{"code":"06133","nom":"Sauze","app":11.63,"app_bas":8.41,"app_haut":16.08,"app_ech":"maille","app_obs":0,"mai":9.9,"mai_bas":7.21,"mai_haut":13.58,"mai_ech":"maille","mai_obs":0},"geometry":{"type":"Polygon","coordinates":[[[6.7498,44.0866],[6.7537,44.0874],[6.7634,44.0983],[6.7764,44.1045],[6.7921,44.1072],[6.8051,44.1039],[6.8102,44.1059],[6.8181,44.1058],[6.8306,44.1005],[6.8392,44.0991],[6.8474,44.0783],[6.8453,44.0634],[6.8404,44.0636],[6.8227,44.0722],[6.8113,44.0712],[6.7955,44.0626],[6.7807,44.0634],[6.7726,44.068],[6.7646,44.0758],[6.7565,44.0796],[6.7498,44.0866]]]}},{"type":"Feature","properties":{"code":"06040","nom":"Châteauneuf-d'Entraunes","app":11.63,"app_bas":8.41,"app_haut":16.08,"app_ech":"maille","app_obs":0,"mai":9.9,"mai_bas":7.21,"mai_haut":13.58,"mai_ech":"maille","mai_obs":0},"geometry":{"type":"Polygon","coordinates":[[[6.8201,44.1115],[6.8237,44.1253],[6.8154,44.1336],[6.8107,44.1469],[6.8137,44.1533],[6.8164,44.1699],[6.812,44.1739],[6.8032,44.1775],[6.8131,44.1925],[6.828,44.206],[6.8399,44.1957],[6.8665,44.187],[6.8736,44.1829],[6.8778,44.172],[6.8617,44.1697],[6.8519,44.1612],[6.8476,44.1517],[6.8493,44.1365],[6.8432,44.1316],[6.8323,44.1128],[6.8201,44.1115]]]}},{"type":"Feature","properties":{"code":"06079","nom":"Mandelieu-la-Napoule","app":19.58,"app_bas":15.6,"app_haut":24.59,"app_ech":"commune","app_obs":3088,"mai":22.74,"mai_bas":14.53,"mai_haut":35.59,"mai_ech":"commune","mai_obs":137},"geometry":{"type":"Polygon","coordinates":[[[6.9417,43.5708],[6.9446,43.5711],[6.9542,43.5618],[6.9562,43.5534],[6.9504,43.548],[6.9516,43.5341],[6.9384,43.5164],[6.9319,43.5179],[6.9142,43.5113],[6.9131,43.5068],[6.9039,43.4951],[6.8936,43.5006],[6.8842,43.5025],[6.8917,43.513],[6.8964,43.5272],[6.8833,43.5286],[6.8791,43.5324],[6.8878,43.5527],[6.9029,43.5648],[6.9066,43.5641],[6.9179,43.5649],[6.9254,43.5711],[6.9417,43.5708]]]}},{"type":"Feature","properties":{"code":"06011","nom":"Beaulieu-sur-Mer","app":27.68,"app_bas":19.37,"app_haut":39.55,"app_ech":"commune","app_obs":277,"mai":19.11,"mai_bas":11.52,"mai_haut":31.69,"mai_ech":"maille","mai_obs":4},"geometry":{"type":"Polygon","coordinates":[[[7.3427,43.7136],[7.3361,43.7103],[7.3296,43.7019],[7.3268,43.7015],[7.3258,43.7102],[7.3382,43.7144],[7.3427,43.7136]]]}},{"type":"Feature","properties":{"code":"06027","nom":"Cagnes-sur-Mer","app":19.56,"app_bas":15.9,"app_haut":24.05,"app_ech":"commune","app_obs":9586,"mai":19.93,"mai_bas":12.46,"mai_haut":31.88,"mai_ech":"commune","mai_obs":323},"geometry":{"type":"Polygon","coordinates":[[[7.1455,43.6418],[7.1301,43.6537],[7.1279,43.6607],[7.1206,43.6706],[7.1318,43.6792],[7.134,43.6843],[7.1432,43.6916],[7.1419,43.7001],[7.1583,43.6932],[7.1757,43.6933],[7.1787,43.6848],[7.1772,43.6697],[7.1782,43.656],[7.1677,43.6574],[7.1578,43.6539],[7.1455,43.6418]]]}},{"type":"Feature","properties":{"code":"06154","nom":"Valderoure","app":11.63,"app_bas":9.35,"app_haut":14.48,"app_ech":"maille","app_obs":9,"mai":11,"mai_bas":8,"mai_haut":15.12,"mai_ech":"maille","mai_obs":9},"geometry":{"type":"Polygon","coordinates":[[[6.7209,43.7813],[6.7065,43.7798],[6.6889,43.78],[6.6775,43.778],[6.6542,43.7834],[6.636,43.7902],[6.6415,43.7955],[6.6757,43.8025],[6.6918,43.8046],[6.7098,43.8107],[6.7216,43.8083],[6.7552,43.8059],[6.7706,43.8059],[6.7717,43.7892],[6.77,43.7834],[6.743,43.7886],[6.7327,43.7864],[6.7209,43.7813]]]}},{"type":"Feature","properties":{"code":"06080","nom":"Marie","app":13.65,"app_bas":10.88,"app_haut":17.12,"app_ech":"maille","app_obs":0,"mai":9.46,"mai_bas":6.43,"mai_haut":13.94,"mai_ech":"maille","mai_obs":0},"geometry":{"type":"Polygon","coordinates":[[[7.1315,44.0138],[7.1322,44.0247],[7.1276,44.0373],[7.1278,44.0438],[7.1453,44.0449],[7.1573,44.0504],[7.1736,44.0487],[7.1842,44.0494],[7.207,44.0465],[7.2077,44.0409],[7.1941,44.041],[7.18,44.0366],[7.1708,44.0264],[7.153,44.0202],[7.153,44.012],[7.1401,44.0108],[7.1315,44.0138]]]}},{"type":"Feature","properties":{"code":"06101","nom":"Rigaud","app":11.75,"app_bas":9.59,"app_haut":14.4,"app_ech":"maille","app_obs":0,"mai":9.9,"mai_bas":7.21,"mai_haut":13.58,"mai_ech":"maille","mai_obs":0},"geometry":{"type":"Polygon","coordinates":[[[6.95,44.0383],[6.9764,44.0396],[6.9764,44.0265],[6.9824,44.0119],[6.9908,44.0064],[7.0023,44.0035],[7.0029,43.9924],[7.0112,43.9797],[7.0053,43.978],[7.0078,43.9661],[6.9933,43.9572],[6.9881,43.9482],[6.9619,43.9478],[6.957,43.95],[6.955,43.9589],[6.975,43.9761],[6.9735,43.9805],[6.9613,43.987],[6.9506,44.0002],[6.9441,44.0116],[6.941,44.0286],[6.95,44.0383]]]}},{"type":"Feature","properties":{"code":"06121","nom":"Saint-Jean-Cap-Ferrat","app":27.73,"app_bas":19.42,"app_haut":39.59,"app_ech":"maille","app_obs":51,"mai":19.11,"mai_bas":11.52,"mai_haut":31.69,"mai_ech":"maille","mai_obs":9},"geometry":{"type":"Polygon","coordinates":[[[7.3247,43.7006],[7.3296,43.7019],[7.3336,43.6936],[7.3353,43.6782],[7.3264,43.6741],[7.3203,43.6913],[7.3265,43.6962],[7.3247,43.7006]]]}},{"type":"Feature","properties":{"code":"06125","nom":"Saint-Martin-d'Entraunes","app":11.63,"app_bas":8.41,"app_haut":16.08,"app_ech":"maille","app_obs":0,"mai":9.46,"mai_bas":6.43,"mai_haut":13.94,"mai_ech":"maille","mai_obs":1},"geometry":{"type":"Polygon","coordinates":[[[6.8032,44.1775],[6.812,44.1739],[6.8068,44.1602],[6.7826,44.1443],[6.7814,44.1365],[6.7721,44.1273],[6.7656,44.1251],[6.7558,44.1265],[6.7361,44.118],[6.7247,44.111],[6.7191,44.1183],[6.7071,44.1258],[6.7055,44.1445],[6.6865,44.1693],[6.7012,44.1775],[6.7098,44.1707],[6.7346,44.1711],[6.7426,44.1656],[6.7512,44.1635],[6.7774,44.1673],[6.7861,44.1781],[6.8032,44.1775]]]}},{"type":"Feature","properties":{"code":"06023","nom":"Breil-sur-Roya","app":12.19,"app_bas":9.63,"app_haut":15.43,"app_ech":"maille","app_obs":76,"mai":19.11,"mai_bas":11.52,"mai_haut":31.69,"mai_ech":"maille","mai_obs":25},"geometry":{"type":"Polygon","coordinates":[[[7.5718,43.9472],[7.5671,43.9437],[7.5707,43.9373],[7.5682,43.9233],[7.5599,43.9144],[7.5628,43.9019],[7.5592,43.8973],[7.5361,43.8922],[7.5105,43.8816],[7.5014,43.875],[7.5047,43.881],[7.5021,43.8865],[7.4936,43.8937],[7.4936,43.908],[7.4868,43.9123],[7.4659,43.9139],[7.4579,43.9214],[7.4504,43.934],[7.4572,43.9475],[7.449,43.9584],[7.4398,43.983],[7.4336,43.9924],[7.4254,43.9971],[7.4335,44.001],[7.4602,43.9955],[7.4847,43.9855],[7.5053,43.983],[7.5119,43.972],[7.5298,43.964],[7.5429,43.9623],[7.5718,43.9472]]]}},{"type":"Feature","properties":{"code":"06130","nom":"Saint-Vallier-de-Thiey","app":14.86,"app_bas":11.89,"app_haut":18.57,"app_ech":"commune","app_obs":220,"mai":11,"mai_bas":8,"mai_haut":15.12,"mai_ech":"maille","mai_obs":96},"geometry":{"type":"Polygon","coordinates":[[[6.7872,43.6946],[6.8014,43.7116],[6.806,43.721],[6.8116,43.7242],[6.825,43.7243],[6.8403,43.728],[6.8404,43.7309],[6.8663,43.7368],[6.8719,43.7342],[6.8691,43.723],[6.8809,43.7151],[6.8893,43.7127],[6.8992,43.7131],[6.9079,43.6987],[6.9163,43.6887],[6.9163,43.6828],[6.9084,43.6787],[6.8886,43.6722],[6.8781,43.6729],[6.8608,43.6671],[6.8499,43.6615],[6.8324,43.6654],[6.8082,43.6803],[6.7986,43.6834],[6.7872,43.6946]]]}},{"type":"Feature","properties":{"code":"06049","nom":"Courmes","app":13.28,"app_bas":10.63,"app_haut":16.59,"app_ech":"maille","app_obs":1,"mai":13.66,"mai_bas":9.79,"mai_haut":19.05,"mai_ech":"maille","mai_obs":2},"geometry":{"type":"Polygon","coordinates":[[[6.9879,43.7712],[6.9986,43.7675],[7.0144,43.7732],[7.0364,43.7651],[7.0555,43.7512],[7.052,43.7467],[7.0317,43.74],[7.0218,43.7334],[7.0061,43.7297],[6.998,43.732],[6.9991,43.7458],[6.9904,43.7558],[6.9905,43.7605],[6.9836,43.7704],[6.9879,43.7712]]]}},{"type":"Feature","properties":{"code":"06039","nom":"Châteauneuf-Villevieille","app":17.15,"app_bas":14.17,"app_haut":20.76,"app_ech":"maille","app_obs":26,"mai":18.7,"mai_bas":12.97,"mai_haut":26.98,"mai_ech":"maille","mai_obs":6},"geometry":{"type":"Polygon","coordinates":[[[7.2724,43.816],[7.2882,43.8158],[7.2945,43.8232],[7.3012,43.8236],[7.2996,43.8171],[7.3023,43.803],[7.3052,43.7975],[7.3174,43.7852],[7.3104,43.7811],[7.2922,43.7776],[7.2819,43.7971],[7.2812,43.8035],[7.2724,43.816]]]}},{"type":"Feature","properties":{"code":"06087","nom":"Mujouls","app":13.28,"app_bas":10.63,"app_haut":16.59,"app_ech":"maille","app_obs":0,"mai":11,"mai_bas":8,"mai_haut":15.12,"mai_ech":"maille","mai_obs":0},"geometry":{"type":"Polygon","coordinates":[[[6.8221,43.881],[6.8348,43.8939],[6.8668,43.8857],[6.8683,43.8763],[6.8765,43.8705],[6.8884,43.8726],[6.8909,43.8667],[6.905,43.8703],[6.9074,43.8652],[6.889,43.858],[6.8519,43.8517],[6.8497,43.8605],[6.8445,43.8676],[6.8274,43.8726],[6.8221,43.881]]]}},{"type":"Feature","properties":{"code":"06045","nom":"Collongues","app":11.63,"app_bas":9.35,"app_haut":14.48,"app_ech":"maille","app_obs":0,"mai":18.76,"mai_bas":11.71,"mai_haut":30.05,"mai_ech":"maille","mai_obs":0},"geometry":{"type":"Polygon","coordinates":[[[6.8884,43.8726],[6.8765,43.8705],[6.8683,43.8763],[6.8668,43.8857],[6.8348,43.8939],[6.8389,43.9105],[6.836,43.9154],[6.8426,43.9159],[6.8659,43.9048],[6.8766,43.8986],[6.8846,43.8891],[6.8926,43.89],[6.8949,43.8792],[6.8884,43.8726]]]}},{"type":"Feature","properties":{"code":"06007","nom":"Auribeau-sur-Siagne","app":18.63,"app_bas":15.29,"app_haut":22.69,"app_ech":"commune","app_obs":201,"mai":18.46,"mai_bas":13.61,"mai_haut":25.04,"mai_ech":"maille","mai_obs":88},"geometry":{"type":"Polygon","coordinates":[[[6.912,43.5983],[6.908,43.5991],[6.8945,43.611],[6.9014,43.6184],[6.9025,43.6234],[6.919,43.623],[6.9294,43.6134],[6.912,43.5983]]]}},{"type":"Feature","properties":{"code":"06024","nom":"Briançonnet","app":9.85,"app_bas":7.73,"app_haut":12.55,"app_ech":"maille","app_obs":0,"mai":18.76,"mai_bas":11.71,"mai_haut":30.05,"mai_ech":"maille","mai_obs":0},"geometry":{"type":"Polygon","coordinates":[[[6.7028,43.856],[6.6986,43.8577],[6.6973,43.8737],[6.6871,43.8788],[6.6746,43.881],[6.6707,43.8877],[6.6726,43.8884],[6.7165,43.8796],[6.7456,43.8721],[6.7624,43.8762],[6.7816,43.8836],[6.7896,43.8808],[6.7918,43.8762],[6.7888,43.8672],[6.7945,43.8431],[6.7754,43.8429],[6.7715,43.846],[6.7385,43.851],[6.7192,43.8574],[6.7028,43.856]]]}},{"type":"Feature","properties":{"code":"06048","nom":"Contes","app":15.93,"app_bas":12.7,"app_haut":19.99,"app_ech":"commune","app_obs":285,"mai":18.7,"mai_bas":12.97,"mai_haut":26.98,"mai_ech":"maille","mai_obs":61},"geometry":{"type":"Polygon","coordinates":[[[7.3174,43.7852],[7.3052,43.7975],[7.3023,43.803],[7.2996,43.8171],[7.3012,43.8236],[7.2957,43.842],[7.3045,43.8463],[7.3192,43.8282],[7.3248,43.8245],[7.3429,43.8231],[7.3501,43.8136],[7.3546,43.7971],[7.35,43.7893],[7.3375,43.7807],[7.3305,43.7807],[7.3174,43.7852]]]}},{"type":"Feature","properties":{"code":"06146","nom":"Tournefort","app":13.65,"app_bas":10.88,"app_haut":17.12,"app_ech":"maille","app_obs":5,"mai":9.46,"mai_bas":6.43,"mai_haut":13.94,"mai_ech":"maille","mai_obs":3},"geometry":{"type":"Polygon","coordinates":[[[7.1848,43.9117],[7.1663,43.9192],[7.1647,43.9258],[7.1516,43.9338],[7.1407,43.9493],[7.1309,43.9584],[7.1337,43.9643],[7.1419,43.9721],[7.1515,43.9639],[7.1581,43.9551],[7.161,43.9408],[7.1868,43.9272],[7.1897,43.9191],[7.1848,43.9117]]]}},{"type":"Feature","properties":{"code":"06034","nom":"Castagniers","app":17.15,"app_bas":14.17,"app_haut":20.76,"app_ech":"maille","app_obs":62,"mai":18.7,"mai_bas":12.97,"mai_haut":26.98,"mai_ech":"maille","mai_obs":27},"geometry":{"type":"Polygon","coordinates":[[[7.2508,43.8082],[7.2536,43.8006],[7.2413,43.7995],[7.2417,43.7939],[7.2223,43.7717],[7.212,43.7725],[7.2161,43.7806],[7.2134,43.7888],[7.2059,43.7956],[7.2233,43.8036],[7.2372,43.8075],[7.2508,43.8082]]]}},{"type":"Feature","properties":{"code":"06085","nom":"Mougins","app":18.89,"app_bas":15.76,"app_haut":22.64,"app_ech":"commune","app_obs":1658,"mai":22.44,"mai_bas":15.74,"mai_haut":31.99,"mai_ech":"commune","mai_obs":261},"geometry":{"type":"Polygon","coordinates":[[[7.0375,43.5811],[7.0317,43.5805],[7.0189,43.5883],[7.0151,43.5827],[6.9998,43.5797],[6.9797,43.573],[6.97,43.5679],[6.9632,43.5737],[6.9653,43.5969],[6.9546,43.5998],[6.9666,43.6103],[7.0029,43.6175],[7.0129,43.6146],[7.0366,43.6112],[7.0544,43.6011],[7.0441,43.5918],[7.0375,43.5811]]]}},{"type":"Feature","properties":{"code":"06119","nom":"Saint-Dalmas-le-Selvage","app":10,"app_bas":7.05,"app_haut":14.19,"app_ech":"maille","app_obs":0,"mai":9.9,"mai_bas":7.21,"mai_haut":13.58,"mai_ech":"maille","mai_obs":0},"geometry":{"type":"Polygon","coordinates":[[[6.7903,44.2723],[6.7863,44.2885],[6.7933,44.2967],[6.7948,44.3129],[6.7968,44.3167],[6.8036,44.3203],[6.8146,44.3321],[6.8224,44.3327],[6.8397,44.3462],[6.863,44.3466],[6.8753,44.3399],[6.8869,44.3204],[6.9,44.3143],[6.903,44.3014],[6.901,44.2784],[6.8691,44.2675],[6.8634,44.2592],[6.8505,44.257],[6.8437,44.2502],[6.8359,44.2236],[6.8229,44.2154],[6.8108,44.2205],[6.7971,44.2595],[6.7903,44.2723]]]}},{"type":"Feature","properties":{"code":"06116","nom":"Saint-Auban","app":11.63,"app_bas":9.35,"app_haut":14.48,"app_ech":"maille","app_obs":7,"mai":11,"mai_bas":8,"mai_haut":15.12,"mai_ech":"maille","mai_obs":4},"geometry":{"type":"Polygon","coordinates":[[[6.8023,43.8121],[6.7886,43.8082],[6.7706,43.8059],[6.7552,43.8059],[6.7216,43.8083],[6.7098,43.8107],[6.712,43.8149],[6.7037,43.8228],[6.6834,43.8292],[6.6679,43.8306],[6.6715,43.8421],[6.6779,43.851],[6.7028,43.856],[6.7192,43.8574],[6.7385,43.851],[6.7715,43.846],[6.7754,43.8429],[6.7945,43.8431],[6.8057,43.8413],[6.7971,43.8344],[6.7971,43.829],[6.8027,43.821],[6.8023,43.8121]]]}},{"type":"Feature","properties":{"code":"06067","nom":"Gorbio","app":19.24,"app_bas":13.82,"app_haut":26.78,"app_ech":"maille","app_obs":75,"mai":19.11,"mai_bas":11.52,"mai_haut":31.69,"mai_ech":"maille","mai_obs":8},"geometry":{"type":"Polygon","coordinates":[[[7.4433,43.7999],[7.4609,43.7872],[7.473,43.7821],[7.4718,43.7773],[7.4543,43.7746],[7.4362,43.7767],[7.4235,43.7827],[7.4223,43.7881],[7.4283,43.7963],[7.4433,43.7999]]]}},{"type":"Feature","properties":{"code":"06074","nom":"Lantosque","app":11.75,"app_bas":9.59,"app_haut":14.4,"app_ech":"maille","app_obs":37,"mai":9.46,"mai_bas":6.43,"mai_haut":13.94,"mai_ech":"maille","mai_obs":8},"geometry":{"type":"Polygon","coordinates":[[[7.2542,44.0176],[7.2646,44.0099],[7.2798,44.0033],[7.2903,44.001],[7.2986,43.9932],[7.3107,43.9966],[7.3163,43.995],[7.319,43.9806],[7.3496,43.9683],[7.3662,43.9694],[7.38,43.9671],[7.3698,43.9396],[7.3479,43.9449],[7.3408,43.9485],[7.3275,43.9481],[7.3119,43.9407],[7.2834,43.9416],[7.2747,43.9461],[7.2685,43.9531],[7.2616,43.972],[7.2611,43.9847],[7.2589,43.9895],[7.2442,44.0024],[7.2498,44.01],[7.25,44.0169],[7.2542,44.0176]]]}},{"type":"Feature","properties":{"code":"06150","nom":"Turbie","app":27.34,"app_bas":18.48,"app_haut":40.46,"app_ech":"commune","app_obs":301,"mai":19.11,"mai_bas":11.52,"mai_haut":31.69,"mai_ech":"maille","mai_obs":71},"geometry":{"type":"Polygon","coordinates":[[[7.4151,43.7561],[7.4201,43.749],[7.4075,43.7388],[7.4126,43.7347],[7.4128,43.7317],[7.3962,43.7302],[7.39,43.7263],[7.3908,43.735],[7.3876,43.7401],[7.3767,43.7356],[7.3757,43.7443],[7.3861,43.7501],[7.3903,43.7575],[7.4011,43.7633],[7.4067,43.7552],[7.4151,43.7561]]]}},{"type":"Feature","properties":{"code":"06084","nom":"Mouans-Sartoux","app":17.66,"app_bas":14.08,"app_haut":22.15,"app_ech":"commune","app_obs":554,"mai":20.66,"mai_bas":14.43,"mai_haut":29.59,"mai_ech":"commune","mai_obs":181},"geometry":{"type":"Polygon","coordinates":[[[6.9438,43.5966],[6.9345,43.6058],[6.9342,43.6155],[6.9327,43.6184],[6.9419,43.6265],[6.966,43.6284],[6.9785,43.6371],[6.9885,43.6411],[6.9909,43.6303],[7.0029,43.6175],[6.9666,43.6103],[6.9546,43.5998],[6.9438,43.5966]]]}},{"type":"Feature","properties":{"code":"06144","nom":"Tour","app":11.75,"app_bas":9.59,"app_haut":14.4,"app_ech":"maille","app_obs":11,"mai":9.46,"mai_bas":6.43,"mai_haut":13.94,"mai_ech":"maille","mai_obs":1},"geometry":{"type":"Polygon","coordinates":[[[7.2251,44.004],[7.2291,44.0005],[7.235,43.972],[7.2406,43.9562],[7.2375,43.9529],[7.223,43.9494],[7.2248,43.9435],[7.2097,43.9311],[7.2005,43.9272],[7.1878,43.9248],[7.1868,43.9272],[7.161,43.9408],[7.1581,43.9551],[7.1515,43.9639],[7.1717,43.9669],[7.18,43.9769],[7.1827,43.9853],[7.1987,43.9931],[7.2058,44.0024],[7.2251,44.004]]]}},{"type":"Feature","properties":{"code":"06018","nom":"Biot","app":20.66,"app_bas":15.59,"app_haut":27.38,"app_ech":"commune","app_obs":606,"mai":22.71,"mai_bas":15.15,"mai_haut":34.05,"mai_ech":"commune","mai_obs":188},"geometry":{"type":"Polygon","coordinates":[[[7.0702,43.6122],[7.0578,43.6189],[7.0491,43.6356],[7.0523,43.6413],[7.0675,43.641],[7.0838,43.6427],[7.0979,43.6469],[7.105,43.642],[7.118,43.6225],[7.0906,43.6104],[7.0823,43.6079],[7.0702,43.6122]]]}},{"type":"Feature","properties":{"code":"06135","nom":"Sigale","app":11.3,"app_bas":8.9,"app_haut":14.35,"app_ech":"maille","app_obs":6,"mai":18.76,"mai_bas":11.71,"mai_haut":30.05,"mai_ech":"maille","mai_obs":0},"geometry":{"type":"Polygon","coordinates":[[[6.9939,43.8835],[6.9927,43.8754],[6.9877,43.8747],[6.9608,43.8659],[6.9518,43.8646],[6.9471,43.875],[6.9363,43.8799],[6.937,43.8836],[6.951,43.8806],[6.9635,43.8804],[6.9824,43.8838],[6.9939,43.8835]]]}},{"type":"Feature","properties":{"code":"06153","nom":"Valdeblore","app":11.63,"app_bas":8.41,"app_haut":16.08,"app_ech":"maille","app_obs":23,"mai":9.46,"mai_bas":6.43,"mai_haut":13.94,"mai_ech":"maille","mai_obs":10},"geometry":{"type":"Polygon","coordinates":[[[7.1628,44.154],[7.1562,44.159],[7.1359,44.1612],[7.1351,44.1641],[7.1384,44.1726],[7.1487,44.1746],[7.1666,44.1697],[7.1844,44.1777],[7.1924,44.1797],[7.1936,44.1871],[7.2077,44.1794],[7.2189,44.1689],[7.2289,44.1688],[7.2331,44.1718],[7.2434,44.1682],[7.2486,44.1585],[7.2628,44.148],[7.2528,44.1398],[7.2376,44.1385],[7.2264,44.1319],[7.2247,44.1262],[7.2285,44.1216],[7.2381,44.1188],[7.2412,44.1124],[7.2352,44.0893],[7.2382,44.0726],[7.2334,44.0624],[7.2191,44.058],[7.207,44.0465],[7.1842,44.0494],[7.1736,44.0487],[7.1573,44.0504],[7.1453,44.0449],[7.1278,44.0438],[7.1281,44.0454],[7.135,44.0505],[7.1341,44.0603],[7.1471,44.0714],[7.1561,44.0881],[7.1551,44.0939],[7.1614,44.1063],[7.1719,44.11],[7.1758,44.1159],[7.1721,44.1297],[7.1628,44.154]]]}},{"type":"Feature","properties":{"code":"06016","nom":"Beuil","app":11.63,"app_bas":8.41,"app_haut":16.08,"app_ech":"maille","app_obs":11,"mai":9.9,"mai_bas":7.21,"mai_haut":13.58,"mai_ech":"maille","mai_obs":0},"geometry":{"type":"Polygon","coordinates":[[[6.9764,44.0396],[6.95,44.0383],[6.9401,44.0412],[6.9429,44.054],[6.9341,44.0645],[6.9369,44.0764],[6.9507,44.0809],[6.9547,44.0859],[6.9512,44.1002],[6.9585,44.1041],[6.9645,44.1149],[6.9724,44.1228],[6.9609,44.1382],[6.9495,44.1491],[6.9232,44.1573],[6.9108,44.1642],[6.914,44.1894],[6.9315,44.1891],[6.9504,44.1954],[6.9574,44.1865],[6.9633,44.1737],[6.9617,44.1629],[6.9752,44.1583],[6.9798,44.1593],[6.9856,44.1561],[6.9938,44.1452],[6.9942,44.1326],[7.0079,44.1178],[7.0243,44.1096],[7.0258,44.1037],[7.0208,44.0971],[7.0223,44.0759],[7.0276,44.0675],[7.0079,44.0573],[7.0021,44.0524],[6.9828,44.0454],[6.9764,44.0396]]]}},{"type":"Feature","properties":{"code":"06111","nom":"Roure","app":11.63,"app_bas":8.41,"app_haut":16.08,"app_ech":"maille","app_obs":2,"mai":9.46,"mai_bas":6.43,"mai_haut":13.94,"mai_ech":"maille","mai_obs":0},"geometry":{"type":"Polygon","coordinates":[[[7.0662,44.0721],[7.0634,44.0886],[7.0523,44.1019],[7.033,44.1171],[7.0254,44.1291],[7.0231,44.1405],[7.0163,44.1502],[7.0136,44.1578],[7.0197,44.158],[7.0434,44.1524],[7.0568,44.1479],[7.0715,44.1478],[7.0914,44.1549],[7.0966,44.1474],[7.1012,44.1328],[7.0916,44.1238],[7.0912,44.1172],[7.099,44.1094],[7.1069,44.0895],[7.0991,44.0855],[7.0833,44.0707],[7.073,44.0691],[7.0662,44.0721]]]}},{"type":"Feature","properties":{"code":"06161","nom":"Villeneuve-Loubet","app":21.95,"app_bas":16.98,"app_haut":28.38,"app_ech":"commune","app_obs":2684,"mai":21.06,"mai_bas":13.44,"mai_haut":33,"mai_ech":"commune","mai_obs":221},"geometry":{"type":"Polygon","coordinates":[[[7.118,43.6225],[7.105,43.642],[7.0979,43.6469],[7.0838,43.6427],[7.0675,43.641],[7.0523,43.6413],[7.0516,43.6444],[7.0545,43.6473],[7.0718,43.6486],[7.0763,43.66],[7.0857,43.6722],[7.0951,43.6754],[7.1031,43.67],[7.1206,43.6706],[7.1279,43.6607],[7.1301,43.6537],[7.1455,43.6418],[7.1372,43.6345],[7.1301,43.6178],[7.118,43.6225]]]}},{"type":"Feature","properties":{"code":"06028","nom":"Caille","app":13.28,"app_bas":10.63,"app_haut":16.59,"app_ech":"maille","app_obs":15,"mai":11,"mai_bas":8,"mai_haut":15.12,"mai_ech":"maille","mai_obs":1},"geometry":{"type":"Polygon","coordinates":[[[6.77,43.7834],[6.7771,43.7821],[6.7831,43.7767],[6.7857,43.7675],[6.7844,43.7478],[6.7637,43.7484],[6.7431,43.7534],[6.7311,43.7627],[6.7209,43.7813],[6.7327,43.7864],[6.743,43.7886],[6.77,43.7834]]]}},{"type":"Feature","properties":{"code":"06112","nom":"Rouret","app":19.72,"app_bas":15.24,"app_haut":25.51,"app_ech":"commune","app_obs":182,"mai":20.47,"mai_bas":14.34,"mai_haut":29.23,"mai_ech":"maille","mai_obs":77},"geometry":{"type":"Polygon","coordinates":[[[7.0249,43.6941],[7.0188,43.6875],[7.0282,43.6654],[7.0125,43.6645],[6.9935,43.6694],[6.9944,43.6767],[6.9988,43.6812],[6.9876,43.6855],[7.002,43.6929],[7.0115,43.6958],[7.0249,43.6941]]]}},{"type":"Feature","properties":{"code":"06083","nom":"Menton","app":21.06,"app_bas":16.18,"app_haut":27.4,"app_ech":"commune","app_obs":3576,"mai":19.11,"mai_bas":11.52,"mai_haut":31.69,"mai_ech":"maille","mai_obs":58},"geometry":{"type":"Polygon","coordinates":[[[7.473,43.7821],[7.4777,43.7857],[7.4797,43.7988],[7.4756,43.8051],[7.4681,43.8247],[7.4842,43.8234],[7.4867,43.8191],[7.4889,43.8035],[7.4955,43.7962],[7.5045,43.7944],[7.5129,43.7963],[7.5187,43.8025],[7.5285,43.7905],[7.5247,43.7849],[7.5118,43.7811],[7.5115,43.7762],[7.502,43.7736],[7.4883,43.765],[7.479,43.7683],[7.4718,43.7773],[7.473,43.7821]]]}},{"type":"Feature","properties":{"code":"06102","nom":"Rimplas","app":11.63,"app_bas":8.41,"app_haut":16.08,"app_ech":"maille","app_obs":7,"mai":9.46,"mai_bas":6.43,"mai_haut":13.94,"mai_ech":"maille","mai_obs":0},"geometry":{"type":"Polygon","coordinates":[[[7.1628,44.154],[7.1721,44.1297],[7.1758,44.1159],[7.1719,44.11],[7.1614,44.1063],[7.1551,44.0939],[7.1561,44.0881],[7.1471,44.0714],[7.1341,44.0603],[7.135,44.0505],[7.1281,44.0454],[7.1269,44.0501],[7.117,44.0588],[7.1138,44.0642],[7.1246,44.0772],[7.1266,44.0917],[7.1252,44.0982],[7.1359,44.1192],[7.1374,44.1318],[7.1484,44.1398],[7.1628,44.154]]]}},{"type":"Feature","properties":{"code":"06109","nom":"Roquette-sur-Var","app":13.65,"app_bas":10.88,"app_haut":17.12,"app_ech":"maille","app_obs":16,"mai":18.7,"mai_bas":12.97,"mai_haut":26.98,"mai_ech":"maille","mai_obs":1},"geometry":{"type":"Polygon","coordinates":[[[7.1911,43.8335],[7.1958,43.8494],[7.2042,43.8485],[7.2062,43.8392],[7.2187,43.8316],[7.2187,43.8176],[7.2172,43.8158],[7.2121,43.8183],[7.2083,43.8272],[7.1925,43.8262],[7.1911,43.8335]]]}},{"type":"Feature","properties":{"code":"06136","nom":"Sospel","app":14.56,"app_bas":11.51,"app_haut":18.43,"app_ech":"commune","app_obs":163,"mai":19.11,"mai_bas":11.52,"mai_haut":31.69,"mai_ech":"maille","mai_obs":12},"geometry":{"type":"Polygon","coordinates":[[[7.4393,43.8426],[7.4344,43.8465],[7.425,43.8482],[7.4114,43.845],[7.4039,43.8653],[7.3942,43.8786],[7.3937,43.8906],[7.3993,43.9096],[7.4083,43.9124],[7.4124,43.9181],[7.4311,43.9282],[7.4504,43.934],[7.4579,43.9214],[7.4659,43.9139],[7.4868,43.9123],[7.4936,43.908],[7.4936,43.8937],[7.5021,43.8865],[7.5047,43.881],[7.4954,43.8644],[7.4966,43.8509],[7.4791,43.8473],[7.471,43.8501],[7.4393,43.8426]]]}},{"type":"Feature","properties":{"code":"06070","nom":"Gréolières","app":13.28,"app_bas":10.63,"app_haut":16.59,"app_ech":"maille","app_obs":32,"mai":13.66,"mai_bas":9.79,"mai_haut":19.05,"mai_ech":"maille","mai_obs":3},"geometry":{"type":"Polygon","coordinates":[[[6.9597,43.8346],[6.9658,43.834],[6.9911,43.8229],[7.001,43.8138],[6.9967,43.7938],[6.9974,43.7873],[6.994,43.7788],[6.9879,43.7712],[6.9836,43.7704],[6.9714,43.7877],[6.9619,43.7898],[6.9385,43.79],[6.9098,43.7883],[6.901,43.7903],[6.8886,43.786],[6.8756,43.7869],[6.8594,43.7831],[6.8602,43.7987],[6.859,43.8199],[6.9124,43.8317],[6.9239,43.8302],[6.938,43.831],[6.9597,43.8346]]]}},{"type":"Feature","properties":{"code":"06037","nom":"Caussols","app":14.95,"app_bas":11.39,"app_haut":19.64,"app_ech":"maille","app_obs":5,"mai":11,"mai_bas":8,"mai_haut":15.12,"mai_ech":"maille","mai_obs":4},"geometry":{"type":"Polygon","coordinates":[[[6.9242,43.716],[6.8893,43.7127],[6.8809,43.7151],[6.8691,43.723],[6.8732,43.7373],[6.8676,43.7511],[6.8578,43.7646],[6.8942,43.7579],[6.9217,43.7548],[6.9324,43.7517],[6.9484,43.7504],[6.9563,43.7471],[6.9411,43.7336],[6.93,43.7178],[6.9242,43.716]]]}},{"type":"Feature","properties":{"code":"06069","nom":"Grasse","app":16.19,"app_bas":12.33,"app_haut":21.25,"app_ech":"commune","app_obs":8133,"mai":18.01,"mai_bas":12.92,"mai_haut":25.1,"mai_ech":"commune","mai_obs":725},"geometry":{"type":"Polygon","coordinates":[[[6.9885,43.6411],[6.9785,43.6371],[6.966,43.6284],[6.9419,43.6265],[6.9327,43.6184],[6.9342,43.6155],[6.9294,43.6134],[6.919,43.623],[6.9025,43.6234],[6.8938,43.6315],[6.8933,43.6548],[6.8874,43.6669],[6.8886,43.6722],[6.9084,43.6787],[6.9163,43.6828],[6.9163,43.6887],[6.9079,43.6987],[6.9371,43.6946],[6.9602,43.6863],[6.9696,43.6792],[6.9605,43.67],[6.9631,43.6614],[6.9708,43.6509],[6.9788,43.6447],[6.9885,43.6411]]]}},{"type":"Feature","properties":{"code":"06096","nom":"Pierlas","app":11.63,"app_bas":8.41,"app_haut":16.08,"app_ech":"maille","app_obs":2,"mai":9.46,"mai_bas":6.43,"mai_haut":13.94,"mai_ech":"maille","mai_obs":0},"geometry":{"type":"Polygon","coordinates":[[[6.9764,44.0396],[6.9828,44.0454],[7.0021,44.0524],[7.0079,44.0573],[7.0276,44.0675],[7.0477,44.0606],[7.0587,44.0412],[7.058,44.0334],[7.0527,44.0222],[7.0386,44.0187],[7.0174,44.0081],[7.0023,44.0035],[6.9908,44.0064],[6.9824,44.0119],[6.9764,44.0265],[6.9764,44.0396]]]}},{"type":"Feature","properties":{"code":"06047","nom":"Conségudes","app":13.35,"app_bas":10.8,"app_haut":16.49,"app_ech":"maille","app_obs":1,"mai":18.76,"mai_bas":11.71,"mai_haut":30.05,"mai_ech":"maille","mai_obs":0},"geometry":{"type":"Polygon","coordinates":[[[7.0237,43.8283],[7.0245,43.8384],[7.0083,43.8457],[7.0149,43.8498],[7.0291,43.85],[7.0329,43.8563],[7.0494,43.8551],[7.0721,43.8552],[7.0718,43.8488],[7.0649,43.8256],[7.0489,43.825],[7.0237,43.8283]]]}},{"type":"Feature","properties":{"code":"06103","nom":"Roquebillière","app":12.79,"app_bas":9.27,"app_haut":17.66,"app_ech":"commune","app_obs":133,"mai":9.46,"mai_bas":6.43,"mai_haut":13.94,"mai_ech":"maille","mai_obs":5},"geometry":{"type":"Polygon","coordinates":[[[7.2542,44.0176],[7.2607,44.0283],[7.2615,44.0349],[7.2712,44.0462],[7.2853,44.041],[7.2907,44.0454],[7.2879,44.051],[7.2904,44.0613],[7.305,44.0636],[7.3183,44.0611],[7.3226,44.051],[7.3161,44.0464],[7.3089,44.036],[7.313,44.0316],[7.3118,44.0258],[7.3165,44.0177],[7.3142,44.0111],[7.3189,44.0015],[7.3232,43.9987],[7.3163,43.995],[7.3107,43.9966],[7.2986,43.9932],[7.2903,44.001],[7.2798,44.0033],[7.2646,44.0099],[7.2542,44.0176]]]}},{"type":"Feature","properties":{"code":"06108","nom":"Roquette-sur-Siagne","app":18.22,"app_bas":15.2,"app_haut":21.84,"app_ech":"commune","app_obs":253,"mai":20.47,"mai_bas":14.34,"mai_haut":29.23,"mai_ech":"maille","mai_obs":74},"geometry":{"type":"Polygon","coordinates":[[[6.9438,43.5966],[6.9546,43.5998],[6.9653,43.5969],[6.9632,43.5737],[6.9562,43.5746],[6.9417,43.5708],[6.9297,43.583],[6.9438,43.5966]]]}},{"type":"Feature","properties":{"code":"06010","nom":"Bar-sur-Loup","app":15.95,"app_bas":12.14,"app_haut":20.96,"app_ech":"commune","app_obs":109,"mai":13.66,"mai_bas":9.79,"mai_haut":19.05,"mai_ech":"maille","mai_obs":43},"geometry":{"type":"Polygon","coordinates":[[[6.9602,43.6863],[6.9371,43.6946],[6.9079,43.6987],[6.8992,43.7131],[6.9242,43.716],[6.9268,43.6975],[6.94,43.7002],[6.9481,43.705],[6.9549,43.7014],[6.9739,43.7035],[6.9837,43.7127],[6.9909,43.7134],[7.001,43.7004],[7.0081,43.6972],[7.0211,43.6976],[7.036,43.7003],[7.0249,43.6941],[7.0115,43.6958],[7.002,43.6929],[6.9812,43.6825],[6.9679,43.6872],[6.9602,43.6863]]]}},{"type":"Feature","properties":{"code":"06013","nom":"Belvédère","app":11.63,"app_bas":8.41,"app_haut":16.08,"app_ech":"maille","app_obs":53,"mai":9.46,"mai_bas":6.43,"mai_haut":13.94,"mai_ech":"maille","mai_obs":0},"geometry":{"type":"Polygon","coordinates":[[[7.4123,44.021],[7.4016,44.0216],[7.3813,44.016],[7.3545,44.0175],[7.3232,43.9987],[7.3189,44.0015],[7.3142,44.0111],[7.3165,44.0177],[7.3118,44.0258],[7.313,44.0316],[7.3089,44.036],[7.3161,44.0464],[7.3226,44.051],[7.3183,44.0611],[7.305,44.0636],[7.2904,44.0613],[7.29,44.0711],[7.3052,44.0737],[7.323,44.0729],[7.3347,44.0766],[7.3542,44.0737],[7.3594,44.0649],[7.3643,44.0644],[7.3781,44.0736],[7.3866,44.087],[7.3856,44.0995],[7.3887,44.1073],[7.3859,44.1237],[7.4026,44.1207],[7.427,44.1129],[7.4297,44.1071],[7.4285,44.0934],[7.4295,44.0814],[7.4276,44.0754],[7.4253,44.0504],[7.4196,44.0453],[7.4237,44.0373],[7.4229,44.0311],[7.4123,44.021]]]}},{"type":"Feature","properties":{"code":"06081","nom":"Mas","app":13.28,"app_bas":10.63,"app_haut":16.59,"app_ech":"maille","app_obs":0,"mai":18.76,"mai_bas":11.71,"mai_haut":30.05,"mai_ech":"maille","mai_obs":0},"geometry":{"type":"Polygon","coordinates":[[[6.8023,43.8121],[6.8027,43.821],[6.7971,43.829],[6.7971,43.8344],[6.8057,43.8413],[6.8347,43.8487],[6.889,43.858],[6.9074,43.8652],[6.9166,43.8487],[6.9159,43.8363],[6.9124,43.8317],[6.859,43.8199],[6.8339,43.8154],[6.8226,43.8154],[6.8023,43.8121]]]}},{"type":"Feature","properties":{"code":"06141","nom":"Toudon","app":11.3,"app_bas":8.9,"app_haut":14.35,"app_ech":"maille","app_obs":5,"mai":9.46,"mai_bas":6.43,"mai_haut":13.94,"mai_ech":"maille","mai_obs":8},"geometry":{"type":"Polygon","coordinates":[[[7.1011,43.8607],[7.0992,43.8771],[7.094,43.8842],[7.0787,43.8904],[7.0782,43.8949],[7.0845,43.9041],[7.0825,43.9174],[7.0876,43.9177],[7.1292,43.9098],[7.1415,43.9028],[7.1339,43.8934],[7.1203,43.8818],[7.1197,43.8705],[7.1161,43.8634],[7.1265,43.8597],[7.1254,43.8541],[7.1011,43.8607]]]}},{"type":"Feature","properties":{"code":"06147","nom":"Tourrette-Levens","app":16.56,"app_bas":13.69,"app_haut":20.03,"app_ech":"commune","app_obs":168,"mai":18.7,"mai_bas":12.97,"mai_haut":26.98,"mai_ech":"maille","mai_obs":48},"geometry":{"type":"Polygon","coordinates":[[[7.2966,43.755],[7.2802,43.7547],[7.2735,43.7611],[7.2624,43.767],[7.2627,43.7697],[7.2523,43.7873],[7.2536,43.8006],[7.2508,43.8082],[7.2562,43.8199],[7.267,43.8223],[7.2812,43.8035],[7.2819,43.7971],[7.2922,43.7776],[7.2966,43.755]]]}},{"type":"Feature","properties":{"code":"06025","nom":"Broc","app":15.5,"app_bas":12.51,"app_haut":19.19,"app_ech":"commune","app_obs":129,"mai":18.7,"mai_bas":12.97,"mai_haut":26.98,"mai_ech":"maille","mai_obs":29},"geometry":{"type":"Polygon","coordinates":[[[7.1946,43.8052],[7.1899,43.8024],[7.1674,43.7975],[7.1486,43.7879],[7.1436,43.7814],[7.133,43.7908],[7.1326,43.8056],[7.1396,43.8066],[7.1598,43.8178],[7.1451,43.8192],[7.1402,43.8303],[7.1448,43.8374],[7.1413,43.8415],[7.1483,43.8473],[7.1632,43.8436],[7.1746,43.8354],[7.185,43.8224],[7.1862,43.8137],[7.1946,43.8052]]]}},{"type":"Feature","properties":{"code":"06091","nom":"Peille","app":12.19,"app_bas":9.63,"app_haut":15.43,"app_ech":"maille","app_obs":56,"mai":19.11,"mai_bas":11.52,"mai_haut":31.69,"mai_ech":"maille","mai_obs":17},"geometry":{"type":"Polygon","coordinates":[[[7.4151,43.7561],[7.4067,43.7552],[7.4011,43.7633],[7.3903,43.7575],[7.3853,43.7617],[7.3921,43.7684],[7.3931,43.7853],[7.3751,43.7894],[7.3813,43.8029],[7.3794,43.8178],[7.3698,43.8214],[7.3702,43.823],[7.393,43.8332],[7.3959,43.8427],[7.3855,43.8507],[7.3891,43.853],[7.4029,43.8544],[7.4084,43.8537],[7.4114,43.845],[7.425,43.8482],[7.4344,43.8465],[7.4393,43.8426],[7.4466,43.8329],[7.4476,43.8274],[7.4457,43.805],[7.4433,43.7999],[7.4283,43.7963],[7.4223,43.7881],[7.4235,43.7827],[7.4362,43.7767],[7.4351,43.7604],[7.4266,43.7593],[7.4151,43.7561]]]}},{"type":"Feature","properties":{"code":"06100","nom":"Revest-les-Roches","app":13.35,"app_bas":10.8,"app_haut":16.49,"app_ech":"maille","app_obs":26,"mai":9.46,"mai_bas":6.43,"mai_haut":13.94,"mai_ech":"maille","mai_obs":17},"geometry":{"type":"Polygon","coordinates":[[[7.1574,43.897],[7.1729,43.8979],[7.188,43.8942],[7.1892,43.8783],[7.1871,43.8763],[7.1596,43.8648],[7.1516,43.8729],[7.1489,43.887],[7.1574,43.897]]]}},{"type":"Feature","properties":{"code":"06002","nom":"Amirat","app":11.63,"app_bas":9.35,"app_haut":14.48,"app_ech":"maille","app_obs":1,"mai":11,"mai_bas":8,"mai_haut":15.12,"mai_ech":"maille","mai_obs":0},"geometry":{"type":"Polygon","coordinates":[[[6.7918,43.8762],[6.7896,43.8808],[6.7816,43.8836],[6.7924,43.8982],[6.8043,43.9108],[6.8323,43.9185],[6.836,43.9154],[6.8389,43.9105],[6.8348,43.8939],[6.8221,43.881],[6.8129,43.8806],[6.7918,43.8762]]]}},{"type":"Feature","properties":{"code":"06005","nom":"Ascros","app":11.63,"app_bas":9.35,"app_haut":14.48,"app_ech":"maille","app_obs":1,"mai":18.76,"mai_bas":11.71,"mai_haut":30.05,"mai_ech":"maille","mai_obs":0},"geometry":{"type":"Polygon","coordinates":[[[6.9803,43.9354],[7.0025,43.9372],[7.0209,43.9341],[7.0591,43.9221],[7.0498,43.91],[7.0417,43.9068],[7.0355,43.8969],[7.02,43.9061],[7.0075,43.9055],[6.993,43.9014],[6.992,43.9132],[6.9865,43.9201],[6.9727,43.9226],[6.9786,43.9291],[6.9803,43.9354]]]}},{"type":"Feature","properties":{"code":"06053","nom":"Daluis","app":11.3,"app_bas":8.9,"app_haut":14.35,"app_ech":"maille","app_obs":3,"mai":9.9,"mai_bas":7.21,"mai_haut":13.58,"mai_ech":"maille","mai_obs":0},"geometry":{"type":"Polygon","coordinates":[[[6.7457,44.0428],[6.7472,44.0552],[6.7534,44.075],[6.7565,44.0796],[6.7646,44.0758],[6.7726,44.068],[6.7807,44.0634],[6.7916,44.0625],[6.8108,44.0555],[6.8201,44.0541],[6.8283,44.0485],[6.8365,44.0391],[6.8492,44.0432],[6.8578,44.041],[6.8593,44.0299],[6.8566,44.0239],[6.8471,44.0136],[6.8357,44.0108],[6.8264,44.0057],[6.806,44.0107],[6.7956,44.0081],[6.7893,44.0226],[6.7726,44.0255],[6.7457,44.0428]]]}},{"type":"Feature","properties":{"code":"06093","nom":"Penne","app":11.3,"app_bas":8.9,"app_haut":14.35,"app_ech":"maille","app_obs":9,"mai":9.46,"mai_bas":6.43,"mai_haut":13.94,"mai_ech":"maille","mai_obs":1},"geometry":{"type":"Polygon","coordinates":[[[6.9423,43.8973],[6.9414,43.9042],[6.9263,43.9138],[6.9131,43.928],[6.8997,43.9267],[6.8917,43.9302],[6.9131,43.9416],[6.9315,43.9414],[6.9485,43.938],[6.9622,43.943],[6.9706,43.9374],[6.9803,43.9354],[6.9786,43.9291],[6.9546,43.904],[6.953,43.8982],[6.9423,43.8973]]]}},{"type":"Feature","properties":{"code":"06030","nom":"Cannet","app":19.2,"app_bas":15.51,"app_haut":23.76,"app_ech":"commune","app_obs":7656,"mai":19.43,"mai_bas":12.41,"mai_haut":30.43,"mai_ech":"commune","mai_obs":207},"geometry":{"type":"Polygon","coordinates":[[[7.0375,43.5811],[7.0352,43.5689],[7.0196,43.5649],[7.0071,43.5669],[6.9863,43.5665],[6.9679,43.561],[6.97,43.5679],[6.9797,43.573],[6.9998,43.5797],[7.0151,43.5827],[7.0189,43.5883],[7.0317,43.5805],[7.0375,43.5811]]]}}]}