{"type":"FeatureCollection","features":[{"type":"Feature","properties":{"code":"13088","nom":"Rove","app":17.81,"app_bas":14.23,"app_haut":22.3,"app_ech":"commune","app_obs":271,"mai":16.35,"mai_bas":12.37,"mai_haut":21.61,"mai_ech":"commune","mai_obs":143,"a12":20.6,"a3":15.78,"pxa":3825,"pxm":4471,"napp":45,"nmai":97,"ra":4.59,"rm":3.65},"geometry":{"type":"Polygon","coordinates":[[[5.2143,43.3819],[5.2284,43.3819],[5.242,43.3868],[5.2499,43.3921],[5.2713,43.3912],[5.2788,43.3805],[5.284,43.3751],[5.2781,43.3643],[5.2822,43.3537],[5.2704,43.3447],[5.2576,43.3379],[5.2372,43.3317],[5.2333,43.3424],[5.2348,43.3521],[5.2262,43.3694],[5.2159,43.3777],[5.2143,43.3819]]]}},{"type":"Feature","properties":{"code":"13117","nom":"Vitrolles","app":16.96,"app_bas":13.6,"app_haut":21.14,"app_ech":"commune","app_obs":3514,"mai":14.85,"mai_bas":11.41,"mai_haut":19.33,"mai_ech":"commune","mai_obs":289,"a12":19.95,"a3":14.35,"pxa":2990,"pxm":3889,"napp":639,"nmai":425,"ra":5.63,"rm":3.86},"geometry":{"type":"Polygon","coordinates":[[[5.301,43.4461],[5.3108,43.4315],[5.2972,43.432],[5.29,43.4197],[5.2679,43.4184],[5.239,43.4231],[5.2205,43.4492],[5.2272,43.4567],[5.2301,43.4651],[5.2234,43.4791],[5.2525,43.4771],[5.259,43.4839],[5.2717,43.4857],[5.2791,43.485],[5.2823,43.4789],[5.2893,43.4754],[5.2876,43.4672],[5.2962,43.459],[5.301,43.4461]]]}},{"type":"Feature","properties":{"code":"13005","nom":"Aubagne","app":15.44,"app_bas":12.19,"app_haut":19.56,"app_ech":"commune","app_obs":6961,"mai":17.64,"mai_bas":13.34,"mai_haut":23.33,"mai_ech":"commune","mai_obs":651,"a12":17.94,"a3":13.95,"pxa":2725,"pxm":4471,"napp":1084,"nmai":435,"ra":5.7,"rm":3.89},"geometry":{"type":"Polygon","coordinates":[[[5.5472,43.2466],[5.5196,43.2443],[5.5131,43.2634],[5.5144,43.2677],[5.5323,43.2684],[5.5303,43.2833],[5.5204,43.282],[5.5184,43.288],[5.5325,43.2995],[5.5286,43.3049],[5.5228,43.3208],[5.5406,43.333],[5.5485,43.3358],[5.5647,43.3352],[5.5952,43.3264],[5.6096,43.3238],[5.6103,43.313],[5.608,43.2995],[5.6089,43.2848],[5.6153,43.2701],[5.5974,43.2648],[5.5866,43.2668],[5.5794,43.27],[5.5699,43.2673],[5.5552,43.2575],[5.5444,43.2546],[5.5472,43.2466]]]}},{"type":"Feature","properties":{"code":"13015","nom":"Bouc-Bel-Air","app":18.18,"app_bas":14.25,"app_haut":23.21,"app_ech":"commune","app_obs":770,"mai":18.39,"mai_bas":13.19,"mai_haut":25.63,"mai_ech":"commune","mai_obs":479,"a12":21.03,"a3":16.76,"pxa":4695,"pxm":5063,"napp":90,"nmai":286,"ra":3.8,"rm":3.56},"geometry":{"type":"Polygon","coordinates":[[[5.3793,43.4146],[5.3749,43.42],[5.3839,43.4254],[5.3908,43.4327],[5.3875,43.4619],[5.4031,43.4696],[5.4418,43.4715],[5.4487,43.4652],[5.445,43.4474],[5.4296,43.439],[5.4166,43.4346],[5.4195,43.4255],[5.4164,43.4216],[5.3927,43.4165],[5.3793,43.4146]]]}},{"type":"Feature","properties":{"code":"13065","nom":"Mouriès","app":14.19,"app_bas":11.28,"app_haut":17.85,"app_ech":"maille","app_obs":88,"mai":12.79,"mai_bas":9.54,"mai_haut":17.16,"mai_ech":"commune","mai_obs":213,"a12":17.37,"a3":11.65,"pxa":null,"pxm":3556,"napp":23,"nmai":153,"ra":null,"rm":3.65},"geometry":{"type":"Polygon","coordinates":[[[4.8235,43.6799],[4.8294,43.69],[4.841,43.6923],[4.8507,43.697],[4.8629,43.7132],[4.8779,43.7201],[4.8825,43.7251],[4.8834,43.7335],[4.8959,43.7402],[4.9175,43.7375],[4.9225,43.731],[4.9296,43.7122],[4.9252,43.7046],[4.9242,43.6928],[4.9295,43.6791],[4.9291,43.6714],[4.9148,43.6701],[4.8994,43.671],[4.878,43.6786],[4.8681,43.6779],[4.8457,43.6804],[4.8235,43.6799]]]}},{"type":"Feature","properties":{"code":"13098","nom":"Saint-Mitre-les-Remparts","app":14.8,"app_bas":11.97,"app_haut":18.31,"app_ech":"commune","app_obs":384,"mai":13.92,"mai_bas":10.39,"mai_haut":18.65,"mai_ech":"commune","mai_obs":154,"a12":16.95,"a3":12.96,"pxa":2743,"pxm":3880,"napp":38,"nmai":149,"ra":5.46,"rm":3.64},"geometry":{"type":"Polygon","coordinates":[[[5.0214,43.4329],[5.0148,43.438],[4.9808,43.4453],[4.977,43.4573],[4.9796,43.4648],[4.9759,43.4741],[4.9897,43.4777],[4.9993,43.4689],[5.038,43.4706],[5.0519,43.4636],[5.055,43.4539],[5.0542,43.443],[5.0406,43.4396],[5.0214,43.4329]]]}},{"type":"Feature","properties":{"code":"13109","nom":"Tholonet","app":18.99,"app_bas":14.79,"app_haut":24.37,"app_ech":"commune","app_obs":312,"mai":19.71,"mai_bas":13.87,"mai_haut":28.02,"mai_ech":"maille","mai_obs":66,"a12":21.12,"a3":15.47,"pxa":5080,"pxm":4771,"napp":30,"nmai":51,"ra":3.65,"rm":4.01},"geometry":{"type":"Polygon","coordinates":[[[5.5259,43.538],[5.5314,43.526],[5.5272,43.5212],[5.5289,43.5144],[5.5342,43.5121],[5.5317,43.5055],[5.4881,43.5091],[5.4795,43.5126],[5.4764,43.5227],[5.4792,43.5258],[5.4929,43.5262],[5.5063,43.5322],[5.5103,43.5363],[5.5259,43.538]]]}},{"type":"Feature","properties":{"code":"13208","nom":"Marseille 8e  Arrondissement","app":18.08,"app_bas":13.64,"app_haut":23.98,"app_ech":"commune","app_obs":12114,"mai":20.46,"mai_bas":13.59,"mai_haut":30.81,"mai_ech":"commune","mai_obs":310,"a12":20.38,"a3":17.03,"pxa":4322,"pxm":7169,"napp":3591,"nmai":347,"ra":4.11,"rm":2.75},"geometry":{"type":"Polygon","coordinates":[[[5.3998,43.2746],[5.3939,43.2679],[5.3991,43.2587],[5.3946,43.2534],[5.3969,43.2474],[5.3925,43.2433],[5.3915,43.236],[5.3806,43.2278],[5.3836,43.2234],[5.3815,43.2096],[5.3636,43.2071],[5.3456,43.2125],[5.3426,43.2163],[5.3484,43.2298],[5.3725,43.2451],[5.376,43.2552],[5.3683,43.2636],[5.368,43.2683],[5.3727,43.2721],[5.3738,43.2792],[5.3887,43.2831],[5.3998,43.2746]]]}},{"type":"Feature","properties":{"code":"13089","nom":"Saint-Andiol","app":13.9,"app_bas":11.12,"app_haut":17.37,"app_ech":"commune","app_obs":206,"mai":10.79,"mai_bas":8.2,"mai_haut":14.2,"mai_ech":"commune","mai_obs":107,"a12":14.78,"a3":10.04,"pxa":1628,"pxm":3143,"napp":30,"nmai":67,"ra":8.66,"rm":3.58},"geometry":{"type":"Polygon","coordinates":[[[4.9319,43.8534],[4.9353,43.8487],[4.9611,43.8471],[4.9699,43.8452],[4.9758,43.8402],[4.9918,43.8383],[4.9897,43.8232],[4.9727,43.82],[4.9397,43.818],[4.9234,43.8133],[4.9085,43.812],[4.9077,43.8182],[4.9129,43.8236],[4.9306,43.8295],[4.9277,43.8356],[4.9335,43.8437],[4.9254,43.8516],[4.9319,43.8534]]]}},{"type":"Feature","properties":{"code":"13012","nom":"Beaurecueil","app":19.44,"app_bas":15.9,"app_haut":23.78,"app_ech":"maille","app_obs":28,"mai":16.32,"mai_bas":12.16,"mai_haut":21.91,"mai_ech":"maille","mai_obs":27,"a12":19.61,"a3":17.9,"pxa":null,"pxm":null,"napp":0,"nmai":0,"ra":null,"rm":null},"geometry":{"type":"Polygon","coordinates":[[[5.5259,43.538],[5.5508,43.5372],[5.5611,43.5387],[5.5704,43.5367],[5.5651,43.5275],[5.5585,43.5237],[5.5567,43.5108],[5.5621,43.5043],[5.552,43.4991],[5.5317,43.5055],[5.5342,43.5121],[5.5289,43.5144],[5.5272,43.5212],[5.5314,43.526],[5.5259,43.538]]]}},{"type":"Feature","properties":{"code":"13095","nom":"Saint-Marc-Jaumegarde","app":17.46,"app_bas":13.98,"app_haut":21.79,"app_ech":"maille","app_obs":50,"mai":19.71,"mai_bas":13.87,"mai_haut":28.02,"mai_ech":"maille","mai_obs":39,"a12":19.61,"a3":17.9,"pxa":null,"pxm":5011,"napp":0,"nmai":40,"ra":null,"rm":3.82},"geometry":{"type":"Polygon","coordinates":[[[5.5259,43.538],[5.5103,43.5363],[5.5063,43.5322],[5.4828,43.5334],[5.4794,43.5361],[5.4893,43.5454],[5.4919,43.5547],[5.4985,43.5617],[5.494,43.5666],[5.5054,43.5763],[5.5162,43.5791],[5.5349,43.5814],[5.5577,43.5796],[5.5551,43.5699],[5.5561,43.5626],[5.5459,43.5613],[5.5379,43.5569],[5.5526,43.5468],[5.5613,43.5434],[5.5611,43.5387],[5.5508,43.5372],[5.5259,43.538]]]}},{"type":"Feature","properties":{"code":"13096","nom":"Saintes-Maries-de-la-Mer","app":15.17,"app_bas":12.42,"app_haut":18.53,"app_ech":"commune","app_obs":153,"mai":11.29,"mai_bas":8.26,"mai_haut":15.45,"mai_ech":"maille","mai_obs":47,"a12":17.65,"a3":12.22,"pxa":4737,"pxm":4693,"napp":197,"nmai":98,"ra":3.23,"rm":2.49},"geometry":{"type":"Polygon","coordinates":[[[4.4489,43.5834],[4.4608,43.5674],[4.4623,43.5626],[4.4773,43.5555],[4.4899,43.5566],[4.5039,43.5729],[4.5038,43.5804],[4.5118,43.5805],[4.5298,43.5717],[4.5492,43.5727],[4.5774,43.5656],[4.6232,43.5736],[4.6238,43.5599],[4.63,43.5469],[4.6423,43.5373],[4.6417,43.5305],[4.6339,43.5198],[4.6338,43.5106],[4.6414,43.5016],[4.6443,43.4853],[4.6212,43.4708],[4.6198,43.4553],[4.6213,43.4481],[4.6161,43.4462],[4.6157,43.4312],[4.619,43.4169],[4.5978,43.4062],[4.595,43.4064],[4.5881,43.4227],[4.582,43.4306],[4.5732,43.4373],[4.5549,43.4462],[4.5347,43.4516],[4.5164,43.4547],[4.4924,43.4565],[4.4653,43.4572],[4.4417,43.4549],[4.4334,43.4512],[4.4046,43.4481],[4.382,43.4523],[4.2303,43.4602],[4.2312,43.4768],[4.2379,43.4971],[4.2442,43.5015],[4.2586,43.5075],[4.2714,43.5081],[4.2977,43.5153],[4.3051,43.5208],[4.3205,43.5255],[4.3227,43.5304],[4.3095,43.5433],[4.3185,43.5573],[4.3224,43.5519],[4.3164,43.5443],[4.3341,43.5355],[4.3443,43.5401],[4.3536,43.5474],[4.3651,43.5472],[4.3807,43.5525],[4.3871,43.5605],[4.4007,43.5596],[4.4094,43.5611],[4.4158,43.5667],[4.4153,43.5725],[4.4044,43.5744],[4.4255,43.5852],[4.4489,43.5834]]]}},{"type":"Feature","properties":{"code":"13025","nom":"Châteauneuf-le-Rouge","app":18.13,"app_bas":15.12,"app_haut":21.75,"app_ech":"commune","app_obs":404,"mai":16.32,"mai_bas":12.16,"mai_haut":21.91,"mai_ech":"maille","mai_obs":57,"a12":20.39,"a3":16.48,"pxa":null,"pxm":null,"napp":24,"nmai":27,"ra":null,"rm":null},"geometry":{"type":"Polygon","coordinates":[[[5.5327,43.4829],[5.5369,43.5044],[5.552,43.4991],[5.5621,43.5043],[5.5658,43.5026],[5.6008,43.5021],[5.6049,43.4903],[5.6011,43.4826],[5.5926,43.4812],[5.5837,43.476],[5.5714,43.4798],[5.5327,43.4829]]]}},{"type":"Feature","properties":{"code":"13205","nom":"Marseille 5e  Arrondissement","app":16.25,"app_bas":12.96,"app_haut":20.36,"app_ech":"commune","app_obs":17245,"mai":16.44,"mai_bas":10.84,"mai_haut":24.93,"mai_ech":"maille","mai_obs":72,"a12":18.63,"a3":15.03,"pxa":3418,"pxm":5405,"napp":2976,"nmai":41,"ra":4.74,"rm":3.03},"geometry":{"type":"Polygon","coordinates":[[[5.3891,43.3003],[5.4087,43.2956],[5.4149,43.2917],[5.4027,43.2868],[5.3919,43.2848],[5.3856,43.2943],[5.3891,43.3003]]]}},{"type":"Feature","properties":{"code":"13032","nom":"Éguilles","app":17.48,"app_bas":13.88,"app_haut":22,"app_ech":"commune","app_obs":1303,"mai":17.85,"mai_bas":13.29,"mai_haut":23.99,"mai_ech":"commune","mai_obs":414,"a12":20.55,"a3":15.56,"pxa":3800,"pxm":5421,"napp":85,"nmai":191,"ra":4.55,"rm":3.24},"geometry":{"type":"Polygon","coordinates":[[[5.2785,43.5749],[5.269,43.575],[5.2558,43.5814],[5.2542,43.5921],[5.2784,43.5895],[5.3006,43.5915],[5.3129,43.5908],[5.3278,43.5956],[5.3345,43.5928],[5.3581,43.5889],[5.3632,43.5843],[5.3624,43.579],[5.3712,43.5749],[5.3822,43.5648],[5.3746,43.5532],[5.3778,43.5448],[5.3701,43.5376],[5.364,43.5401],[5.3585,43.5358],[5.3485,43.5363],[5.3391,43.5525],[5.3256,43.5552],[5.3085,43.563],[5.3019,43.5677],[5.2785,43.5749]]]}},{"type":"Feature","properties":{"code":"13067","nom":"Orgon","app":12.46,"app_bas":10.01,"app_haut":15.51,"app_ech":"commune","app_obs":178,"mai":11.97,"mai_bas":8.85,"mai_haut":16.17,"mai_ech":"maille","mai_obs":80,"a12":14.48,"a3":10.64,"pxa":null,"pxm":2274,"napp":9,"nmai":73,"ra":null,"rm":5.4},"geometry":{"type":"Polygon","coordinates":[[[4.9682,43.791],[4.9923,43.7969],[5.0165,43.8049],[5.0353,43.8201],[5.0426,43.8065],[5.0436,43.7959],[5.0515,43.7879],[5.0907,43.7721],[5.0691,43.7646],[5.0496,43.7642],[5.0367,43.7557],[5.0225,43.7529],[5.018,43.75],[4.9977,43.749],[4.9962,43.7549],[4.9817,43.7795],[4.9682,43.791]]]}},{"type":"Feature","properties":{"code":"13046","nom":"Gréasque","app":16.46,"app_bas":12.79,"app_haut":21.18,"app_ech":"commune","app_obs":312,"mai":16.46,"mai_bas":12.25,"mai_haut":22.12,"mai_ech":"commune","mai_obs":165,"a12":19.31,"a3":15.26,"pxa":null,"pxm":4297,"napp":22,"nmai":91,"ra":null,"rm":3.82},"geometry":{"type":"Polygon","coordinates":[[[5.5587,43.434],[5.5597,43.4238],[5.5631,43.4154],[5.5615,43.4102],[5.5594,43.4076],[5.5475,43.4155],[5.5332,43.4165],[5.5369,43.4232],[5.5302,43.4323],[5.5295,43.4401],[5.5529,43.44],[5.5587,43.434]]]}},{"type":"Feature","properties":{"code":"13113","nom":"Venelles","app":17.73,"app_bas":14.28,"app_haut":22,"app_ech":"commune","app_obs":789,"mai":18.37,"mai_bas":12.83,"mai_haut":26.3,"mai_ech":"commune","mai_obs":219,"a12":18.26,"a3":16.78,"pxa":4940,"pxm":4821,"napp":94,"nmai":172,"ra":3.54,"rm":3.74},"geometry":{"type":"Polygon","coordinates":[[[5.4767,43.6235],[5.4918,43.6125],[5.5112,43.6072],[5.5226,43.5922],[5.5349,43.5814],[5.5162,43.5791],[5.5054,43.5763],[5.494,43.5666],[5.4844,43.5722],[5.4687,43.5734],[5.4639,43.5768],[5.4638,43.6136],[5.4767,43.6235]]]}},{"type":"Feature","properties":{"code":"13116","nom":"Verquières","app":14.22,"app_bas":11.4,"app_haut":17.74,"app_ech":"maille","app_obs":30,"mai":11.59,"mai_bas":8.84,"mai_haut":15.2,"mai_ech":"maille","mai_obs":22,"a12":14.78,"a3":10.48,"pxa":null,"pxm":null,"napp":0,"nmai":0,"ra":null,"rm":null},"geometry":{"type":"Polygon","coordinates":[[[4.9254,43.8516],[4.9335,43.8437],[4.9277,43.8356],[4.9306,43.8295],[4.9129,43.8236],[4.9098,43.8291],[4.9049,43.8468],[4.9254,43.8516]]]}},{"type":"Feature","properties":{"code":"13006","nom":"Aureille","app":14.44,"app_bas":11.49,"app_haut":18.16,"app_ech":"commune","app_obs":101,"mai":13.51,"mai_bas":10.12,"mai_haut":18.04,"mai_ech":"maille","mai_obs":91,"a12":17.37,"a3":11.46,"pxa":null,"pxm":4074,"napp":6,"nmai":40,"ra":null,"rm":3.36},"geometry":{"type":"Polygon","coordinates":[[[4.9175,43.7375],[4.9282,43.7362],[4.9535,43.7283],[4.9587,43.7213],[4.9647,43.7204],[4.9646,43.6722],[4.966,43.6629],[4.9623,43.6606],[4.934,43.6701],[4.9304,43.6876],[4.9264,43.6867],[4.9242,43.6928],[4.9252,43.7046],[4.9296,43.7122],[4.9225,43.731],[4.9175,43.7375]]]}},{"type":"Feature","properties":{"code":"13091","nom":"Saint-Cannat","app":16.51,"app_bas":13.17,"app_haut":20.69,"app_ech":"commune","app_obs":616,"mai":15.04,"mai_bas":11.01,"mai_haut":20.54,"mai_ech":"commune","mai_obs":188,"a12":19.34,"a3":14.4,"pxa":4286,"pxm":3755,"napp":47,"nmai":146,"ra":3.84,"rm":4.04},"geometry":{"type":"Polygon","coordinates":[[[5.3345,43.5928],[5.3278,43.5956],[5.3129,43.5908],[5.3006,43.5915],[5.2784,43.5895],[5.2542,43.5921],[5.255,43.6044],[5.259,43.6111],[5.2637,43.6137],[5.2707,43.63],[5.2766,43.6346],[5.2937,43.6418],[5.3175,43.6381],[5.3494,43.6266],[5.3653,43.6249],[5.3675,43.6201],[5.3591,43.6064],[5.3504,43.6002],[5.3423,43.5987],[5.3345,43.5928]]]}},{"type":"Feature","properties":{"code":"13018","nom":"Cabannes","app":13.76,"app_bas":10.99,"app_haut":17.22,"app_ech":"commune","app_obs":343,"mai":11.62,"mai_bas":8.7,"mai_haut":15.5,"mai_ech":"commune","mai_obs":153,"a12":13.95,"a3":10.27,"pxa":null,"pxm":2850,"napp":26,"nmai":112,"ra":null,"rm":4.2},"geometry":{"type":"Polygon","coordinates":[[[4.9915,43.8507],[4.9976,43.8449],[4.9918,43.8383],[4.9758,43.8402],[4.9699,43.8452],[4.9611,43.8471],[4.9353,43.8487],[4.921,43.8678],[4.9333,43.8724],[4.935,43.8797],[4.9305,43.8844],[4.9458,43.8781],[4.9663,43.8716],[4.9755,43.8664],[4.9915,43.8507]]]}},{"type":"Feature","properties":{"code":"13027","nom":"Châteaurenard","app":12.56,"app_bas":10.21,"app_haut":15.46,"app_ech":"commune","app_obs":1493,"mai":11.76,"mai_bas":9.15,"mai_haut":15.12,"mai_ech":"commune","mai_obs":496,"a12":14.71,"a3":10.72,"pxa":2476,"pxm":2712,"napp":204,"nmai":390,"ra":5.16,"rm":4.46},"geometry":{"type":"Polygon","coordinates":[[[4.811,43.9143],[4.8217,43.9128],[4.8531,43.9114],[4.8813,43.9016],[4.8789,43.8708],[4.8819,43.86],[4.8736,43.8589],[4.8493,43.8606],[4.8345,43.8592],[4.816,43.8549],[4.8051,43.8542],[4.7885,43.8516],[4.7878,43.8582],[4.7981,43.8663],[4.8011,43.8798],[4.8169,43.8901],[4.8184,43.896],[4.811,43.9143]]]}},{"type":"Feature","properties":{"code":"13051","nom":"Lançon-Provence","app":15.27,"app_bas":11.9,"app_haut":19.61,"app_ech":"commune","app_obs":550,"mai":13.9,"mai_bas":10.17,"mai_haut":18.98,"mai_ech":"commune","mai_obs":296,"a12":17.21,"a3":14.39,"pxa":3710,"pxm":3771,"napp":74,"nmai":228,"ra":4.14,"rm":3.74},"geometry":{"type":"Polygon","coordinates":[[[5.1768,43.5398],[5.1647,43.5402],[5.1338,43.5248],[5.1217,43.5229],[5.1076,43.5551],[5.1008,43.5784],[5.1028,43.5877],[5.0893,43.5966],[5.0961,43.5989],[5.1153,43.6029],[5.1296,43.6116],[5.13,43.6221],[5.14,43.6191],[5.1423,43.6125],[5.1638,43.6107],[5.2066,43.598],[5.2299,43.5957],[5.2542,43.5921],[5.2558,43.5814],[5.2262,43.5665],[5.2142,43.5718],[5.2038,43.5722],[5.1836,43.568],[5.1769,43.5622],[5.1768,43.5398]]]}},{"type":"Feature","properties":{"code":"13045","nom":"Graveson","app":11.85,"app_bas":9.75,"app_haut":14.41,"app_ech":"commune","app_obs":363,"mai":11.58,"mai_bas":8.32,"mai_haut":16.12,"mai_ech":"commune","mai_obs":286,"a12":13.89,"a3":10.71,"pxa":null,"pxm":3143,"napp":23,"nmai":125,"ra":null,"rm":3.8},"geometry":{"type":"Polygon","coordinates":[[[4.7815,43.8912],[4.8011,43.8798],[4.7981,43.8663],[4.7878,43.8582],[4.7885,43.8516],[4.8051,43.8542],[4.8021,43.8466],[4.7898,43.8474],[4.7755,43.8402],[4.7674,43.8314],[4.7514,43.8215],[4.7502,43.8175],[4.7419,43.8168],[4.732,43.8199],[4.7384,43.8294],[4.7417,43.8412],[4.7345,43.8577],[4.746,43.8632],[4.7673,43.8772],[4.7815,43.8912]]]}},{"type":"Feature","properties":{"code":"13085","nom":"Roquefort-la-Bédoule","app":16.73,"app_bas":12.94,"app_haut":21.64,"app_ech":"commune","app_obs":319,"mai":17.65,"mai_bas":12.26,"mai_haut":25.4,"mai_ech":"maille","mai_obs":99,"a12":20.34,"a3":15.65,"pxa":3673,"pxm":5255,"napp":63,"nmai":78,"ra":4.53,"rm":3.31},"geometry":{"type":"Polygon","coordinates":[[[5.6153,43.2701],[5.6284,43.2702],[5.657,43.267],[5.6666,43.2629],[5.6745,43.2568],[5.7012,43.2472],[5.7045,43.2417],[5.6824,43.2355],[5.6603,43.2359],[5.6348,43.2411],[5.6,43.2384],[5.5943,43.2363],[5.5882,43.2401],[5.577,43.2333],[5.5687,43.2406],[5.5548,43.2486],[5.5783,43.258],[5.5866,43.2668],[5.5974,43.2648],[5.6153,43.2701]]]}},{"type":"Feature","properties":{"code":"13114","nom":"Ventabren","app":18.14,"app_bas":13.96,"app_haut":23.56,"app_ech":"commune","app_obs":517,"mai":18.03,"mai_bas":13.43,"mai_haut":24.2,"mai_ech":"commune","mai_obs":365,"a12":21.85,"a3":16.21,"pxa":4343,"pxm":4466,"napp":50,"nmai":168,"ra":4.11,"rm":3.97},"geometry":{"type":"Polygon","coordinates":[[[5.3485,43.5363],[5.3371,43.5207],[5.3251,43.5174],[5.3042,43.5154],[5.2942,43.5196],[5.2785,43.5346],[5.2648,43.5382],[5.2616,43.5462],[5.2709,43.5517],[5.2833,43.5518],[5.2797,43.564],[5.2735,43.57],[5.2785,43.5749],[5.3019,43.5677],[5.3085,43.563],[5.3256,43.5552],[5.3391,43.5525],[5.3485,43.5363]]]}},{"type":"Feature","properties":{"code":"13118","nom":"Coudoux","app":16.21,"app_bas":12.86,"app_haut":20.43,"app_ech":"commune","app_obs":298,"mai":15.01,"mai_bas":11,"mai_haut":20.5,"mai_ech":"commune","mai_obs":163,"a12":19.04,"a3":14.38,"pxa":null,"pxm":4489,"napp":25,"nmai":80,"ra":null,"rm":3.38},"geometry":{"type":"Polygon","coordinates":[[[5.2558,43.5814],[5.269,43.575],[5.2785,43.5749],[5.2735,43.57],[5.2797,43.564],[5.2833,43.5518],[5.2709,43.5517],[5.2616,43.5462],[5.2648,43.5382],[5.2511,43.5444],[5.2336,43.5474],[5.2262,43.5665],[5.2558,43.5814]]]}},{"type":"Feature","properties":{"code":"13048","nom":"Jouques","app":13.61,"app_bas":10.92,"app_haut":16.95,"app_ech":"commune","app_obs":379,"mai":10.21,"mai_bas":7.3,"mai_haut":14.28,"mai_ech":"commune","mai_obs":152,"a12":15.34,"a3":12.71,"pxa":null,"pxm":2771,"napp":21,"nmai":103,"ra":null,"rm":3.86},"geometry":{"type":"Polygon","coordinates":[[[5.6828,43.6928],[5.689,43.6865],[5.7001,43.6824],[5.7189,43.6576],[5.719,43.6498],[5.7097,43.6409],[5.7002,43.6417],[5.6964,43.6341],[5.6821,43.6137],[5.6829,43.6012],[5.6916,43.5844],[5.656,43.5774],[5.656,43.574],[5.6693,43.5646],[5.6627,43.5647],[5.6475,43.57],[5.6379,43.5791],[5.6309,43.5814],[5.6272,43.5872],[5.6139,43.5943],[5.605,43.6045],[5.6038,43.6271],[5.6069,43.6587],[5.6239,43.6661],[5.6375,43.6703],[5.6477,43.6758],[5.6618,43.6874],[5.6741,43.6935],[5.6828,43.6928]]]}},{"type":"Feature","properties":{"code":"13211","nom":"Marseille 11e  Arrondissement","app":16.79,"app_bas":13.06,"app_haut":21.59,"app_ech":"commune","app_obs":3787,"mai":16.93,"mai_bas":11.28,"mai_haut":25.41,"mai_ech":"commune","mai_obs":536,"a12":19.26,"a3":15.07,"pxa":2587,"pxm":4556,"napp":1165,"nmai":569,"ra":6.45,"rm":3.69},"geometry":{"type":"Polygon","coordinates":[[[5.5184,43.288],[5.5053,43.2832],[5.5061,43.2743],[5.5144,43.2677],[5.5131,43.2634],[5.4961,43.2685],[5.4849,43.2623],[5.4825,43.2549],[5.4724,43.2534],[5.4522,43.2575],[5.4593,43.26],[5.4541,43.2654],[5.4533,43.2729],[5.4444,43.2768],[5.4399,43.285],[5.4294,43.2858],[5.4258,43.2901],[5.4328,43.2947],[5.4478,43.2964],[5.4576,43.3014],[5.4771,43.3006],[5.4751,43.3147],[5.4797,43.3142],[5.5051,43.3178],[5.515,43.3215],[5.5228,43.3208],[5.5286,43.3049],[5.5325,43.2995],[5.5184,43.288]]]}},{"type":"Feature","properties":{"code":"13039","nom":"Fos-sur-Mer","app":15.02,"app_bas":12.19,"app_haut":18.51,"app_ech":"commune","app_obs":810,"mai":14.02,"mai_bas":10.75,"mai_haut":18.28,"mai_ech":"commune","mai_obs":277,"a12":17.97,"a3":12.7,"pxa":2410,"pxm":3305,"napp":151,"nmai":265,"ra":6.29,"rm":4.3},"geometry":{"type":"Polygon","coordinates":[[[4.9287,43.5107],[4.9528,43.4883],[4.9655,43.4738],[4.9759,43.4741],[4.9796,43.4648],[4.977,43.4573],[4.9808,43.4453],[4.9801,43.4349],[4.9722,43.4219],[4.9677,43.4261],[4.9494,43.4292],[4.9412,43.4283],[4.9314,43.4332],[4.9106,43.4273],[4.9064,43.4197],[4.8866,43.4129],[4.884,43.4195],[4.8674,43.4323],[4.8609,43.4496],[4.8503,43.4508],[4.8591,43.4413],[4.8773,43.4105],[4.8668,43.4047],[4.8291,43.4283],[4.8244,43.4244],[4.8615,43.4008],[4.8533,43.3985],[4.8255,43.412],[4.819,43.4186],[4.8186,43.4256],[4.8325,43.4373],[4.841,43.4478],[4.8413,43.4518],[4.8298,43.456],[4.8293,43.4604],[4.8556,43.4674],[4.8686,43.4824],[4.8764,43.4945],[4.8815,43.498],[4.9156,43.5088],[4.9287,43.5107]]]}},{"type":"Feature","properties":{"code":"13084","nom":"Roque-d'Anthéron","app":14.36,"app_bas":11.23,"app_haut":18.37,"app_ech":"commune","app_obs":249,"mai":10.84,"mai_bas":8.05,"mai_haut":14.59,"mai_ech":"commune","mai_obs":104,"a12":16.15,"a3":12.08,"pxa":2339,"pxm":3271,"napp":32,"nmai":113,"ra":6.23,"rm":3.45},"geometry":{"type":"Polygon","coordinates":[[[5.3679,43.7066],[5.3555,43.7062],[5.3424,43.7099],[5.3219,43.7063],[5.3098,43.6957],[5.298,43.6905],[5.286,43.6915],[5.2761,43.6966],[5.2744,43.7097],[5.2623,43.7309],[5.2641,43.7442],[5.2864,43.7401],[5.308,43.738],[5.3185,43.735],[5.3259,43.7292],[5.3437,43.7188],[5.3705,43.7092],[5.3679,43.7066]]]}},{"type":"Feature","properties":{"code":"13090","nom":"Saint-Antonin-sur-Bayon","app":19.44,"app_bas":15.9,"app_haut":23.78,"app_ech":"maille","app_obs":18,"mai":16.32,"mai_bas":12.16,"mai_haut":21.91,"mai_ech":"maille","mai_obs":7,"a12":21.06,"a3":17.9,"pxa":null,"pxm":null,"napp":0,"nmai":0,"ra":null,"rm":null},"geometry":{"type":"Polygon","coordinates":[[[5.5621,43.5043],[5.5567,43.5108],[5.5585,43.5237],[5.5651,43.5275],[5.5704,43.5367],[5.5764,43.5315],[5.5905,43.5297],[5.6185,43.5317],[5.6232,43.5249],[5.635,43.5234],[5.6366,43.5159],[5.6282,43.5104],[5.6135,43.504],[5.6008,43.5021],[5.5658,43.5026],[5.5621,43.5043]]]}},{"type":"Feature","properties":{"code":"13099","nom":"Saint-Paul-lès-Durance","app":11.77,"app_bas":9.05,"app_haut":15.29,"app_ech":"maille","app_obs":95,"mai":10.09,"mai_bas":7.21,"mai_haut":14.11,"mai_ech":"maille","mai_obs":39,"a12":14.66,"a3":11.57,"pxa":null,"pxm":null,"napp":0,"nmai":0,"ra":null,"rm":null},"geometry":{"type":"Polygon","coordinates":[[[5.7536,43.7246],[5.7677,43.7225],[5.7788,43.7184],[5.7854,43.7135],[5.7822,43.7069],[5.7928,43.6926],[5.8133,43.6891],[5.8011,43.6714],[5.7992,43.6599],[5.7686,43.6603],[5.7448,43.6568],[5.7232,43.6496],[5.719,43.6498],[5.7189,43.6576],[5.7001,43.6824],[5.689,43.6865],[5.6828,43.6928],[5.7052,43.6899],[5.7174,43.6935],[5.7369,43.716],[5.7475,43.7196],[5.7536,43.7246]]]}},{"type":"Feature","properties":{"code":"13108","nom":"Tarascon","app":12.2,"app_bas":9.91,"app_haut":15.03,"app_ech":"commune","app_obs":1284,"mai":10.77,"mai_bas":7.72,"mai_haut":15.03,"mai_ech":"commune","mai_obs":231,"a12":14.5,"a3":10.2,"pxa":1463,"pxm":2276,"napp":260,"nmai":237,"ra":8.53,"rm":4.94},"geometry":{"type":"Polygon","coordinates":[[[4.6681,43.8475],[4.6867,43.845],[4.6982,43.8454],[4.7211,43.8535],[4.7209,43.8603],[4.7287,43.8659],[4.7345,43.8577],[4.7417,43.8412],[4.7384,43.8294],[4.732,43.8199],[4.7188,43.8174],[4.7134,43.8134],[4.7119,43.796],[4.7017,43.7816],[4.7052,43.7716],[4.7066,43.7589],[4.7334,43.7542],[4.7262,43.7494],[4.7152,43.7348],[4.6961,43.7325],[4.6798,43.7286],[4.6746,43.7336],[4.6534,43.7422],[4.6428,43.7448],[4.6395,43.7603],[4.6281,43.7577],[4.6344,43.7667],[4.6512,43.7823],[4.6548,43.8064],[4.6523,43.8168],[4.6443,43.8259],[4.643,43.8321],[4.6502,43.8391],[4.6631,43.8428],[4.6667,43.8472],[4.6681,43.8475]]]}},{"type":"Feature","properties":{"code":"13001","nom":"Aix-en-Provence","app":19.14,"app_bas":14.92,"app_haut":24.55,"app_ech":"commune","app_obs":52857,"mai":19.67,"mai_bas":13.86,"mai_haut":27.92,"mai_ech":"commune","mai_obs":2673,"a12":21.95,"a3":17.51,"pxa":4833,"pxm":5303,"napp":5205,"nmai":1023,"ra":3.86,"rm":3.6},"geometry":{"type":"Polygon","coordinates":[[[5.4113,43.6227],[5.4344,43.6207],[5.4468,43.6226],[5.4538,43.6161],[5.4638,43.6136],[5.4639,43.5768],[5.4687,43.5734],[5.4844,43.5722],[5.494,43.5666],[5.4985,43.5617],[5.4919,43.5547],[5.4893,43.5454],[5.4794,43.5361],[5.4828,43.5334],[5.5063,43.5322],[5.4929,43.5262],[5.4792,43.5258],[5.4764,43.5227],[5.4795,43.5126],[5.469,43.5099],[5.4638,43.4998],[5.4691,43.489],[5.4578,43.4795],[5.4418,43.4715],[5.4031,43.4696],[5.3875,43.4619],[5.3778,43.4687],[5.3657,43.4728],[5.3578,43.4812],[5.3438,43.4834],[5.3359,43.4886],[5.322,43.4828],[5.32,43.4772],[5.3294,43.4618],[5.3084,43.4514],[5.301,43.4461],[5.2962,43.459],[5.2876,43.4672],[5.2893,43.4754],[5.2823,43.4789],[5.2791,43.485],[5.2717,43.4857],[5.2697,43.4986],[5.2816,43.5035],[5.2942,43.5196],[5.3042,43.5154],[5.3251,43.5174],[5.3371,43.5207],[5.3485,43.5363],[5.3585,43.5358],[5.364,43.5401],[5.3701,43.5376],[5.3778,43.5448],[5.3746,43.5532],[5.3822,43.5648],[5.3712,43.5749],[5.3624,43.579],[5.3632,43.5843],[5.3581,43.5889],[5.3345,43.5928],[5.3423,43.5987],[5.3504,43.6002],[5.3591,43.6064],[5.3675,43.6201],[5.3653,43.6249],[5.385,43.6256],[5.4113,43.6227]]]}},{"type":"Feature","properties":{"code":"13115","nom":"Vernègues","app":17.3,"app_bas":13.84,"app_haut":21.62,"app_ech":"maille","app_obs":28,"mai":14.5,"mai_bas":10.59,"mai_haut":19.85,"mai_ech":"maille","mai_obs":81,"a12":18.55,"a3":14.26,"pxa":null,"pxm":3929,"napp":3,"nmai":63,"ra":null,"rm":3.74},"geometry":{"type":"Polygon","coordinates":[[[5.2261,43.707],[5.2287,43.703],[5.2119,43.691],[5.2248,43.6826],[5.2195,43.677],[5.2064,43.6747],[5.1911,43.664],[5.1824,43.6613],[5.1758,43.6713],[5.1561,43.6764],[5.1509,43.6806],[5.1501,43.6901],[5.1628,43.6958],[5.1776,43.6971],[5.1951,43.6969],[5.1942,43.7015],[5.2089,43.6973],[5.22,43.7057],[5.2261,43.707]]]}},{"type":"Feature","properties":{"code":"13037","nom":"Fare-les-Oliviers","app":15.62,"app_bas":12.62,"app_haut":19.34,"app_ech":"commune","app_obs":738,"mai":15.01,"mai_bas":11.56,"mai_haut":19.49,"mai_ech":"commune","mai_obs":373,"a12":18.45,"a3":13.72,"pxa":3574,"pxm":3958,"napp":69,"nmai":233,"ra":4.39,"rm":3.83},"geometry":{"type":"Polygon","coordinates":[[[5.1768,43.5398],[5.1769,43.5622],[5.1836,43.568],[5.2038,43.5722],[5.2142,43.5718],[5.2262,43.5665],[5.2336,43.5474],[5.2234,43.5473],[5.2183,43.5423],[5.2065,43.5399],[5.2016,43.5352],[5.1875,43.5393],[5.1768,43.5398]]]}},{"type":"Feature","properties":{"code":"13058","nom":"Maussane-les-Alpilles","app":13.94,"app_bas":11.34,"app_haut":17.14,"app_ech":"commune","app_obs":176,"mai":14.22,"mai_bas":10.86,"mai_haut":18.62,"mai_ech":"commune","mai_obs":159,"a12":17.83,"a3":11.65,"pxa":null,"pxm":5199,"napp":20,"nmai":122,"ra":null,"rm":2.77},"geometry":{"type":"Polygon","coordinates":[[[4.7974,43.7302],[4.807,43.7292],[4.832,43.7292],[4.8423,43.7343],[4.8424,43.7399],[4.8325,43.7462],[4.8325,43.7532],[4.8521,43.7522],[4.8569,43.75],[4.8595,43.7416],[4.8677,43.7355],[4.8834,43.7335],[4.8825,43.7251],[4.8779,43.7201],[4.8629,43.7132],[4.8507,43.697],[4.841,43.6923],[4.8294,43.69],[4.8235,43.6799],[4.8044,43.6793],[4.7921,43.6812],[4.8,43.6993],[4.7964,43.7063],[4.7974,43.7302]]]}},{"type":"Feature","properties":{"code":"13101","nom":"Saint-Savournin","app":15.59,"app_bas":12.11,"app_haut":20.07,"app_ech":"commune","app_obs":230,"mai":16.58,"mai_bas":12.29,"mai_haut":22.36,"mai_ech":"commune","mai_obs":143,"a12":18.24,"a3":14.95,"pxa":4588,"pxm":4039,"napp":35,"nmai":68,"ra":3.41,"rm":4.08},"geometry":{"type":"Polygon","coordinates":[[[5.5332,43.4165],[5.5475,43.4155],[5.5594,43.4076],[5.5559,43.4051],[5.5424,43.4033],[5.5045,43.3881],[5.5085,43.3969],[5.5279,43.4164],[5.5332,43.4165]]]}},{"type":"Feature","properties":{"code":"13002","nom":"Allauch","app":16.88,"app_bas":13.25,"app_haut":21.51,"app_ech":"commune","app_obs":1488,"mai":17.05,"mai_bas":12.92,"mai_haut":22.49,"mai_ech":"commune","mai_obs":542,"a12":19.59,"a3":15.61,"pxa":3609,"pxm":4759,"napp":231,"nmai":376,"ra":4.64,"rm":3.55},"geometry":{"type":"Polygon","coordinates":[[[5.455,43.3357],[5.4665,43.3397],[5.4748,43.3507],[5.4725,43.3627],[5.4743,43.3736],[5.4798,43.3854],[5.4943,43.3853],[5.5045,43.3881],[5.5145,43.3836],[5.5447,43.3908],[5.5522,43.3863],[5.5577,43.3795],[5.5635,43.3594],[5.5657,43.3567],[5.5481,43.3396],[5.5485,43.3358],[5.5406,43.333],[5.5228,43.3208],[5.515,43.3215],[5.5051,43.3178],[5.4797,43.3142],[5.4751,43.3147],[5.455,43.3357]]]}},{"type":"Feature","properties":{"code":"13093","nom":"Saint-Estève-Janson","app":16.17,"app_bas":13.14,"app_haut":19.9,"app_ech":"maille","app_obs":16,"mai":12.8,"mai_bas":9.1,"mai_haut":18.01,"mai_ech":"maille","mai_obs":18,"a12":18.49,"a3":14.53,"pxa":null,"pxm":null,"napp":0,"nmai":0,"ra":null,"rm":null},"geometry":{"type":"Polygon","coordinates":[[[5.3679,43.7066],[5.3705,43.7092],[5.4127,43.6929],[5.4043,43.6784],[5.3963,43.6761],[5.3816,43.6878],[5.3708,43.6917],[5.3679,43.7066]]]}},{"type":"Feature","properties":{"code":"13105","nom":"Sénas","app":13.34,"app_bas":10.75,"app_haut":16.57,"app_ech":"commune","app_obs":410,"mai":11.88,"mai_bas":8.79,"mai_haut":16.04,"mai_ech":"commune","mai_obs":301,"a12":15.83,"a3":11.28,"pxa":2075,"pxm":3262,"napp":30,"nmai":162,"ra":6.52,"rm":3.74},"geometry":{"type":"Polygon","coordinates":[[[5.018,43.75],[5.0225,43.7529],[5.0367,43.7557],[5.0496,43.7642],[5.0691,43.7646],[5.0907,43.7721],[5.1238,43.7587],[5.1257,43.7216],[5.1166,43.7083],[5.0973,43.7246],[5.0785,43.7278],[5.0632,43.7215],[5.0592,43.7305],[5.0451,43.746],[5.0328,43.7504],[5.018,43.75]]]}},{"type":"Feature","properties":{"code":"13119","nom":"Carnoux-en-Provence","app":17.54,"app_bas":13.47,"app_haut":22.83,"app_ech":"commune","app_obs":522,"mai":18.19,"mai_bas":13.73,"mai_haut":24.1,"mai_ech":"maille","mai_obs":97,"a12":20.56,"a3":15.14,"pxa":3540,"pxm":5301,"napp":122,"nmai":101,"ra":4.89,"rm":3.37},"geometry":{"type":"Polygon","coordinates":[[[5.5866,43.2668],[5.5783,43.258],[5.5548,43.2486],[5.5472,43.2466],[5.5444,43.2546],[5.5552,43.2575],[5.5699,43.2673],[5.5794,43.27],[5.5866,43.2668]]]}},{"type":"Feature","properties":{"code":"13212","nom":"Marseille 12e  Arrondissement","app":17.24,"app_bas":14.14,"app_haut":21.02,"app_ech":"commune","app_obs":10723,"mai":19.57,"mai_bas":13.91,"mai_haut":27.52,"mai_ech":"commune","mai_obs":553,"a12":19.86,"a3":15.61,"pxa":3324,"pxm":5448,"napp":1985,"nmai":567,"ra":5.13,"rm":3.49},"geometry":{"type":"Polygon","coordinates":[[[5.4087,43.2956],[5.4105,43.315],[5.4178,43.3198],[5.4361,43.3237],[5.4439,43.32],[5.4595,43.318],[5.4666,43.323],[5.4751,43.3147],[5.4771,43.3006],[5.4576,43.3014],[5.4478,43.2964],[5.4328,43.2947],[5.4258,43.2901],[5.4149,43.2917],[5.4087,43.2956]]]}},{"type":"Feature","properties":{"code":"13215","nom":"Marseille 15e  Arrondissement","app":14.34,"app_bas":11.34,"app_haut":18.12,"app_ech":"commune","app_obs":6378,"mai":14.63,"mai_bas":10.76,"mai_haut":19.89,"mai_ech":"commune","mai_obs":426,"a12":16.16,"a3":13.06,"pxa":1314,"pxm":3058,"napp":1242,"nmai":389,"ra":11.07,"rm":4.85},"geometry":{"type":"Polygon","coordinates":[[[5.3375,43.3395],[5.3481,43.3421],[5.3452,43.3466],[5.3519,43.3512],[5.3453,43.3634],[5.3323,43.3714],[5.3405,43.3768],[5.3504,43.3752],[5.3504,43.3825],[5.3685,43.3896],[5.3784,43.3843],[5.3757,43.3721],[5.3815,43.3702],[5.3916,43.3721],[5.3984,43.3681],[5.3864,43.3638],[5.377,43.3545],[5.3773,43.341],[5.3675,43.3362],[5.3716,43.3201],[5.3691,43.3167],[5.355,43.3337],[5.3375,43.3395]]]}},{"type":"Feature","properties":{"code":"13207","nom":"Marseille 7e  Arrondissement","app":18.41,"app_bas":13.48,"app_haut":25.14,"app_ech":"commune","app_obs":8044,"mai":22.65,"mai_bas":15.04,"mai_haut":34.13,"mai_ech":"commune","mai_obs":190,"a12":20.64,"a3":17.68,"pxa":4832,"pxm":8386,"napp":1932,"nmai":307,"ra":3.74,"rm":2.57},"geometry":{"type":"Polygon","coordinates":[[[5.368,43.2683],[5.3543,43.2783],[5.3457,43.2824],[5.3563,43.2934],[5.371,43.2936],[5.3721,43.291],[5.3701,43.2864],[5.3738,43.2792],[5.3727,43.2721],[5.368,43.2683]]]}},{"type":"Feature","properties":{"code":"13057","nom":"Mas-Blanc-des-Alpilles","app":14.47,"app_bas":11.74,"app_haut":17.84,"app_ech":"maille","app_obs":6,"mai":12.55,"mai_bas":9.2,"mai_haut":17.12,"mai_ech":"maille","mai_obs":16,"a12":17.83,"a3":14.35,"pxa":null,"pxm":null,"napp":0,"nmai":0,"ra":null,"rm":null},"geometry":{"type":"Polygon","coordinates":[[[4.7729,43.7824],[4.7591,43.7812],[4.7545,43.79],[4.7675,43.7962],[4.7729,43.7824]]]}},{"type":"Feature","properties":{"code":"13050","nom":"Lambesc","app":17.85,"app_bas":14.16,"app_haut":22.49,"app_ech":"commune","app_obs":1167,"mai":14.7,"mai_bas":10.69,"mai_haut":20.2,"mai_ech":"commune","mai_obs":374,"a12":17.28,"a3":13.24,"pxa":3518,"pxm":3827,"napp":99,"nmai":221,"ra":5,"rm":3.89},"geometry":{"type":"Polygon","coordinates":[[[5.1811,43.6576],[5.1824,43.6613],[5.1911,43.664],[5.2064,43.6747],[5.2195,43.677],[5.2248,43.6826],[5.2119,43.691],[5.2287,43.703],[5.239,43.6938],[5.2511,43.6975],[5.2561,43.7061],[5.2689,43.7198],[5.2744,43.7097],[5.2761,43.6966],[5.286,43.6915],[5.298,43.6905],[5.3022,43.6857],[5.3076,43.6549],[5.3175,43.6381],[5.2937,43.6418],[5.2766,43.6346],[5.2707,43.63],[5.2637,43.6137],[5.2526,43.6075],[5.2445,43.6084],[5.2408,43.6129],[5.2357,43.6268],[5.2306,43.6337],[5.2155,43.6452],[5.1827,43.6414],[5.1811,43.6576]]]}},{"type":"Feature","properties":{"code":"13073","nom":"Peypin","app":16.51,"app_bas":12.92,"app_haut":21.09,"app_ech":"commune","app_obs":266,"mai":16.95,"mai_bas":12.5,"mai_haut":22.98,"mai_ech":"commune","mai_obs":112,"a12":19.39,"a3":14.82,"pxa":3938,"pxm":4268,"napp":31,"nmai":151,"ra":4.17,"rm":3.94},"geometry":{"type":"Polygon","coordinates":[[[5.5876,43.3666],[5.5657,43.3567],[5.5635,43.3594],[5.5577,43.3795],[5.5522,43.3863],[5.5447,43.3908],[5.5556,43.4001],[5.5559,43.4051],[5.5615,43.4102],[5.5646,43.4065],[5.5779,43.4033],[5.5818,43.405],[5.5854,43.3966],[5.5952,43.3914],[5.5939,43.3837],[5.5872,43.3704],[5.5876,43.3666]]]}},{"type":"Feature","properties":{"code":"13206","nom":"Marseille 6e  Arrondissement","app":16.78,"app_bas":12.81,"app_haut":22,"app_ech":"commune","app_obs":16412,"mai":17.96,"mai_bas":12.53,"mai_haut":25.75,"mai_ech":"maille","mai_obs":99,"a12":18.97,"a3":15.98,"pxa":3779,"pxm":6835,"napp":2681,"nmai":70,"ra":4.41,"rm":2.59},"geometry":{"type":"Polygon","coordinates":[[[5.3721,43.291],[5.3856,43.2943],[5.3919,43.2848],[5.3738,43.2792],[5.3701,43.2864],[5.3721,43.291]]]}},{"type":"Feature","properties":{"code":"13070","nom":"Penne-sur-Huveaune","app":15.8,"app_bas":12.47,"app_haut":20.02,"app_ech":"commune","app_obs":379,"mai":16.95,"mai_bas":11.18,"mai_haut":25.68,"mai_ech":"maille","mai_obs":80,"a12":18.64,"a3":14.44,"pxa":3168,"pxm":4482,"napp":102,"nmai":88,"ra":5,"rm":3.75},"geometry":{"type":"Polygon","coordinates":[[[5.5144,43.2677],[5.5061,43.2743],[5.5053,43.2832],[5.5184,43.288],[5.5204,43.282],[5.5303,43.2833],[5.5323,43.2684],[5.5144,43.2677]]]}},{"type":"Feature","properties":{"code":"13201","nom":"Marseille 1er Arrondissement","app":14.67,"app_bas":11.15,"app_haut":19.29,"app_ech":"commune","app_obs":10197,"mai":14.07,"mai_bas":10.35,"mai_haut":19.13,"mai_ech":"maille","mai_obs":50,"a12":17.01,"a3":13.3,"pxa":3123,"pxm":null,"napp":2122,"nmai":4,"ra":4.76,"rm":null},"geometry":{"type":"Polygon","coordinates":[[[5.3721,43.291],[5.371,43.2936],[5.3736,43.295],[5.375,43.3016],[5.3905,43.3094],[5.3944,43.302],[5.3891,43.3003],[5.3856,43.2943],[5.3721,43.291]]]}},{"type":"Feature","properties":{"code":"13066","nom":"Noves","app":12.61,"app_bas":10.24,"app_haut":15.53,"app_ech":"commune","app_obs":415,"mai":11.39,"mai_bas":8.67,"mai_haut":14.98,"mai_ech":"commune","mai_obs":274,"a12":14.7,"a3":10.4,"pxa":2263,"pxm":3158,"napp":41,"nmai":122,"ra":5.66,"rm":3.73},"geometry":{"type":"Polygon","coordinates":[[[4.9254,43.8516],[4.9049,43.8468],[4.9098,43.8291],[4.9129,43.8236],[4.9077,43.8182],[4.8817,43.8209],[4.8685,43.8298],[4.8818,43.8465],[4.8819,43.86],[4.8789,43.8708],[4.8813,43.9016],[4.9023,43.8879],[4.922,43.8868],[4.9305,43.8844],[4.935,43.8797],[4.9333,43.8724],[4.921,43.8678],[4.9319,43.8534],[4.9254,43.8516]]]}},{"type":"Feature","properties":{"code":"13075","nom":"Plan-de-Cuques","app":17.53,"app_bas":14.36,"app_haut":21.4,"app_ech":"commune","app_obs":971,"mai":18.01,"mai_bas":13.67,"mai_haut":23.71,"mai_ech":"commune","mai_obs":184,"a12":19.68,"a3":15.42,"pxa":3705,"pxm":5085,"napp":213,"nmai":164,"ra":4.67,"rm":3.48},"geometry":{"type":"Polygon","coordinates":[[[5.4475,43.387],[5.4754,43.3915],[5.4798,43.3854],[5.4743,43.3736],[5.4725,43.3627],[5.4748,43.3507],[5.4665,43.3397],[5.455,43.3357],[5.4505,43.3389],[5.4532,43.3475],[5.4642,43.3604],[5.4583,43.372],[5.4475,43.387]]]}},{"type":"Feature","properties":{"code":"13009","nom":"Barben","app":17.33,"app_bas":13.77,"app_haut":21.81,"app_ech":"maille","app_obs":22,"mai":16.87,"mai_bas":12.56,"mai_haut":22.66,"mai_ech":"maille","mai_obs":69,"a12":18.98,"a3":14.53,"pxa":null,"pxm":null,"napp":0,"nmai":0,"ra":null,"rm":null},"geometry":{"type":"Polygon","coordinates":[[[5.1964,43.6011],[5.1947,43.6129],[5.1863,43.618],[5.1659,43.6247],[5.1657,43.6283],[5.1814,43.6345],[5.1827,43.6414],[5.2155,43.6452],[5.2306,43.6337],[5.2357,43.6268],[5.2408,43.6129],[5.2445,43.6084],[5.2526,43.6075],[5.259,43.6111],[5.255,43.6044],[5.2542,43.5921],[5.2299,43.5957],[5.2066,43.598],[5.1964,43.6011]]]}},{"type":"Feature","properties":{"code":"13013","nom":"Belcodène","app":16.71,"app_bas":13.48,"app_haut":20.7,"app_ech":"maille","app_obs":70,"mai":16.32,"mai_bas":12.16,"mai_haut":21.91,"mai_ech":"maille","mai_obs":71,"a12":19.31,"a3":15.09,"pxa":null,"pxm":4266,"napp":4,"nmai":46,"ra":null,"rm":3.81},"geometry":{"type":"Polygon","coordinates":[[[5.5587,43.434],[5.5796,43.4386],[5.5875,43.4427],[5.5959,43.4394],[5.6046,43.4319],[5.6105,43.4119],[5.6016,43.4079],[5.5818,43.405],[5.5779,43.4033],[5.5646,43.4065],[5.5615,43.4102],[5.5631,43.4154],[5.5597,43.4238],[5.5587,43.434]]]}},{"type":"Feature","properties":{"code":"13029","nom":"Cornillon-Confoux","app":13.92,"app_bas":11.03,"app_haut":17.56,"app_ech":"maille","app_obs":22,"mai":14.2,"mai_bas":10.4,"mai_haut":19.39,"mai_ech":"maille","mai_obs":43,"a12":16.95,"a3":12.6,"pxa":null,"pxm":3196,"napp":3,"nmai":36,"ra":null,"rm":4.51},"geometry":{"type":"Polygon","coordinates":[[[5.0626,43.5585],[5.0588,43.5687],[5.0475,43.5833],[5.0437,43.5923],[5.0468,43.5943],[5.0623,43.5922],[5.0793,43.5974],[5.0893,43.5966],[5.1028,43.5877],[5.1008,43.5784],[5.1076,43.5551],[5.1035,43.5544],[5.09,43.5698],[5.0797,43.5658],[5.0765,43.5587],[5.0626,43.5585]]]}},{"type":"Feature","properties":{"code":"13022","nom":"Cassis","app":21.16,"app_bas":16.23,"app_haut":27.57,"app_ech":"commune","app_obs":657,"mai":23.09,"mai_bas":15.82,"mai_haut":33.69,"mai_ech":"commune","mai_obs":119,"a12":23.2,"a3":20.43,"pxa":7096,"pxm":7683,"napp":285,"nmai":102,"ra":2.86,"rm":2.86},"geometry":{"type":"Polygon","coordinates":[[[5.5925,43.2188],[5.5824,43.2086],[5.5654,43.2005],[5.5555,43.1884],[5.548,43.196],[5.5499,43.2074],[5.5392,43.2106],[5.5369,43.2145],[5.5158,43.203],[5.5102,43.1979],[5.5167,43.2172],[5.5077,43.2262],[5.5071,43.2332],[5.5184,43.2381],[5.5196,43.2443],[5.5472,43.2466],[5.5548,43.2486],[5.5687,43.2406],[5.577,43.2333],[5.5882,43.2401],[5.5943,43.2363],[5.5878,43.2294],[5.5925,43.2188]]]}},{"type":"Feature","properties":{"code":"13044","nom":"Grans","app":14.65,"app_bas":11.36,"app_haut":18.9,"app_ech":"commune","app_obs":476,"mai":13.68,"mai_bas":10.22,"mai_haut":18.3,"mai_ech":"commune","mai_obs":195,"a12":17,"a3":13.49,"pxa":3400,"pxm":4132,"napp":43,"nmai":110,"ra":4.36,"rm":3.36},"geometry":{"type":"Polygon","coordinates":[[[5.0893,43.5966],[5.0793,43.5974],[5.0623,43.5922],[5.0468,43.5943],[5.0437,43.5923],[5.0342,43.5952],[5.0178,43.605],[5.0075,43.6055],[4.9886,43.618],[5.0036,43.6227],[5.0122,43.6292],[5.0125,43.6429],[5.05,43.6311],[5.0811,43.6255],[5.0869,43.6212],[5.0946,43.6057],[5.0961,43.5989],[5.0893,43.5966]]]}},{"type":"Feature","properties":{"code":"13068","nom":"Paradou","app":13.68,"app_bas":11.12,"app_haut":16.84,"app_ech":"maille","app_obs":58,"mai":13.34,"mai_bas":10.19,"mai_haut":17.47,"mai_ech":"maille","mai_obs":86,"a12":16.83,"a3":11.65,"pxa":null,"pxm":4709,"napp":8,"nmai":93,"ra":null,"rm":2.87},"geometry":{"type":"Polygon","coordinates":[[[4.7974,43.7302],[4.7964,43.7063],[4.8,43.6993],[4.7921,43.6812],[4.7775,43.684],[4.7589,43.6934],[4.7514,43.7192],[4.7623,43.7239],[4.7668,43.7291],[4.777,43.7327],[4.7898,43.733],[4.7974,43.7302]]]}},{"type":"Feature","properties":{"code":"13030","nom":"Cuges-les-Pins","app":13.95,"app_bas":11.22,"app_haut":17.33,"app_ech":"commune","app_obs":531,"mai":15.35,"mai_bas":11.17,"mai_haut":21.1,"mai_ech":"commune","mai_obs":135,"a12":15.85,"a3":12.78,"pxa":2531,"pxm":4185,"napp":41,"nmai":94,"ra":5.59,"rm":3.69},"geometry":{"type":"Polygon","coordinates":[[[5.657,43.267],[5.6637,43.278],[5.6779,43.2925],[5.679,43.2993],[5.6947,43.3031],[5.6954,43.3105],[5.691,43.313],[5.7266,43.3174],[5.7375,43.3015],[5.7498,43.2893],[5.7628,43.2824],[5.7609,43.2673],[5.742,43.2631],[5.7208,43.2564],[5.7012,43.2472],[5.6745,43.2568],[5.6666,43.2629],[5.657,43.267]]]}},{"type":"Feature","properties":{"code":"13053","nom":"Mallemort","app":13.86,"app_bas":10.54,"app_haut":18.23,"app_ech":"commune","app_obs":571,"mai":11.85,"mai_bas":8.82,"mai_haut":15.92,"mai_ech":"commune","mai_obs":295,"a12":18.71,"a3":12.31,"pxa":3432,"pxm":3511,"napp":174,"nmai":227,"ra":4.09,"rm":3.47},"geometry":{"type":"Polygon","coordinates":[[[5.2261,43.707],[5.22,43.7057],[5.2089,43.6973],[5.1942,43.7015],[5.18,43.7138],[5.1502,43.7246],[5.1253,43.7294],[5.1238,43.7587],[5.1733,43.7388],[5.188,43.7351],[5.2293,43.7476],[5.2456,43.7471],[5.2315,43.7337],[5.2238,43.7284],[5.2261,43.707]]]}},{"type":"Feature","properties":{"code":"13062","nom":"Mimet","app":16.48,"app_bas":12.92,"app_haut":21.03,"app_ech":"commune","app_obs":116,"mai":16.32,"mai_bas":12.16,"mai_haut":21.91,"mai_ech":"maille","mai_obs":86,"a12":19.31,"a3":14.81,"pxa":null,"pxm":4068,"napp":7,"nmai":116,"ra":null,"rm":4},"geometry":{"type":"Polygon","coordinates":[[[5.4798,43.3854],[5.4754,43.3915],[5.4771,43.4133],[5.4692,43.4193],[5.4643,43.4301],[5.4925,43.4307],[5.5022,43.4279],[5.5215,43.4314],[5.5295,43.4401],[5.5302,43.4323],[5.5369,43.4232],[5.5332,43.4165],[5.5279,43.4164],[5.5085,43.3969],[5.5045,43.3881],[5.4943,43.3853],[5.4798,43.3854]]]}},{"type":"Feature","properties":{"code":"13071","nom":"Pennes-Mirabeau","app":17.07,"app_bas":13.67,"app_haut":21.31,"app_ech":"commune","app_obs":1249,"mai":15.88,"mai_bas":11.74,"mai_haut":21.48,"mai_ech":"commune","mai_obs":436,"a12":20.09,"a3":14.94,"pxa":3141,"pxm":4097,"napp":223,"nmai":393,"ra":5.39,"rm":3.88},"geometry":{"type":"Polygon","coordinates":[[[5.3323,43.3714],[5.3246,43.3713],[5.297,43.389],[5.2788,43.3805],[5.2651,43.4011],[5.2708,43.4043],[5.2749,43.4189],[5.29,43.4197],[5.2972,43.432],[5.3108,43.4315],[5.3212,43.4293],[5.3442,43.4193],[5.3658,43.4187],[5.3749,43.42],[5.3793,43.4146],[5.3606,43.409],[5.3478,43.4088],[5.343,43.4008],[5.3504,43.3825],[5.3504,43.3752],[5.3405,43.3768],[5.3323,43.3714]]]}},{"type":"Feature","properties":{"code":"13033","nom":"Ensuès-la-Redonne","app":17.62,"app_bas":13.87,"app_haut":22.39,"app_ech":"commune","app_obs":317,"mai":16.99,"mai_bas":12.93,"mai_haut":22.31,"mai_ech":"commune","mai_obs":234,"a12":21.1,"a3":16.64,"pxa":5402,"pxm":5193,"napp":44,"nmai":106,"ra":3.22,"rm":3.25},"geometry":{"type":"Polygon","coordinates":[[[5.2143,43.3819],[5.2159,43.3777],[5.2262,43.3694],[5.2348,43.3521],[5.2333,43.3424],[5.2372,43.3317],[5.2213,43.3284],[5.1848,43.3325],[5.1839,43.3365],[5.1733,43.3432],[5.1669,43.3504],[5.1483,43.3621],[5.1387,43.3645],[5.1416,43.37],[5.1735,43.3629],[5.1851,43.3661],[5.1853,43.3728],[5.1898,43.3809],[5.1955,43.3825],[5.2019,43.3781],[5.2143,43.3819]]]}},{"type":"Feature","properties":{"code":"13036","nom":"Eyragues","app":12.35,"app_bas":10.16,"app_haut":15.03,"app_ech":"commune","app_obs":268,"mai":11.25,"mai_bas":8.75,"mai_haut":14.46,"mai_ech":"commune","mai_obs":140,"a12":15.02,"a3":10.67,"pxa":null,"pxm":3465,"napp":21,"nmai":116,"ra":null,"rm":3.36},"geometry":{"type":"Polygon","coordinates":[[[4.8051,43.8542],[4.816,43.8549],[4.8345,43.8592],[4.8493,43.8606],[4.8736,43.8589],[4.8819,43.86],[4.8818,43.8465],[4.8685,43.8298],[4.8517,43.8244],[4.8412,43.8237],[4.8163,43.8246],[4.8119,43.8392],[4.8021,43.8466],[4.8051,43.8542]]]}},{"type":"Feature","properties":{"code":"13076","nom":"Plan-d'Orgon","app":14.22,"app_bas":11.4,"app_haut":17.74,"app_ech":"maille","app_obs":94,"mai":11.59,"mai_bas":8.84,"mai_haut":15.2,"mai_ech":"maille","mai_obs":82,"a12":14.78,"a3":11.12,"pxa":null,"pxm":2933,"napp":24,"nmai":95,"ra":null,"rm":4.07},"geometry":{"type":"Polygon","coordinates":[[[4.9682,43.791],[4.9668,43.7919],[4.9845,43.8016],[4.9727,43.82],[4.9897,43.8232],[4.9918,43.8383],[4.9976,43.8449],[5.0295,43.8278],[5.0353,43.8201],[5.0165,43.8049],[4.9923,43.7969],[4.9682,43.791]]]}},{"type":"Feature","properties":{"code":"13213","nom":"Marseille 13e  Arrondissement","app":16.48,"app_bas":12.94,"app_haut":20.98,"app_ech":"commune","app_obs":6346,"mai":16.54,"mai_bas":10.94,"mai_haut":25,"mai_ech":"commune","mai_obs":429,"a12":18.72,"a3":14.47,"pxa":2504,"pxm":4000,"napp":2084,"nmai":655,"ra":6.55,"rm":4.12},"geometry":{"type":"Polygon","coordinates":[[[5.4105,43.315],[5.3936,43.3165],[5.4061,43.3311],[5.4161,43.3528],[5.4126,43.3601],[5.4135,43.376],[5.4154,43.3788],[5.4246,43.3834],[5.4342,43.3869],[5.4475,43.387],[5.4583,43.372],[5.4642,43.3604],[5.4532,43.3475],[5.4505,43.3389],[5.455,43.3357],[5.4666,43.323],[5.4595,43.318],[5.4439,43.32],[5.4361,43.3237],[5.4178,43.3198],[5.4105,43.315]]]}},{"type":"Feature","properties":{"code":"13020","nom":"Cadolive","app":15.91,"app_bas":12.45,"app_haut":20.34,"app_ech":"maille","app_obs":84,"mai":16.44,"mai_bas":12.2,"mai_haut":22.15,"mai_ech":"maille","mai_obs":55,"a12":18.65,"a3":14.81,"pxa":null,"pxm":4262,"napp":16,"nmai":35,"ra":null,"rm":3.84},"geometry":{"type":"Polygon","coordinates":[[[5.5559,43.4051],[5.5556,43.4001],[5.5447,43.3908],[5.5145,43.3836],[5.5045,43.3881],[5.5424,43.4033],[5.5559,43.4051]]]}},{"type":"Feature","properties":{"code":"13049","nom":"Lamanon","app":17.3,"app_bas":13.84,"app_haut":21.62,"app_ech":"maille","app_obs":95,"mai":11.97,"mai_bas":8.85,"mai_haut":16.17,"mai_ech":"maille","mai_obs":81,"a12":18.55,"a3":14.26,"pxa":null,"pxm":3636,"napp":5,"nmai":39,"ra":null,"rm":3.38},"geometry":{"type":"Polygon","coordinates":[[[5.0728,43.6838],[5.0625,43.6996],[5.0601,43.7099],[5.0544,43.7156],[5.0538,43.7238],[5.0632,43.7215],[5.0785,43.7278],[5.0973,43.7246],[5.1166,43.7083],[5.1232,43.6998],[5.126,43.6906],[5.1158,43.6851],[5.1131,43.6881],[5.099,43.6844],[5.0798,43.6853],[5.0728,43.6838]]]}},{"type":"Feature","properties":{"code":"13086","nom":"Roquevaire","app":15.4,"app_bas":12.05,"app_haut":19.68,"app_ech":"commune","app_obs":887,"mai":16.11,"mai_bas":11.69,"mai_haut":22.21,"mai_ech":"commune","mai_obs":237,"a12":18.1,"a3":13.41,"pxa":2820,"pxm":3863,"napp":98,"nmai":124,"ra":5.49,"rm":4.17},"geometry":{"type":"Polygon","coordinates":[[[5.6096,43.3662],[5.6328,43.3407],[5.6449,43.3345],[5.65,43.327],[5.6468,43.3232],[5.6362,43.3267],[5.6189,43.3228],[5.6096,43.3238],[5.5952,43.3264],[5.5647,43.3352],[5.5485,43.3358],[5.5481,43.3396],[5.5657,43.3567],[5.5876,43.3666],[5.603,43.3682],[5.6096,43.3662]]]}},{"type":"Feature","properties":{"code":"13021","nom":"Carry-le-Rouet","app":18.89,"app_bas":14.85,"app_haut":24.01,"app_ech":"commune","app_obs":704,"mai":19.56,"mai_bas":13.92,"mai_haut":27.47,"mai_ech":"commune","mai_obs":112,"a12":22.69,"a3":17.44,"pxa":5877,"pxm":6256,"napp":145,"nmai":126,"ra":3.14,"rm":3.04},"geometry":{"type":"Polygon","coordinates":[[[5.1387,43.3645],[5.1483,43.3621],[5.1669,43.3504],[5.1733,43.3432],[5.1839,43.3365],[5.1848,43.3325],[5.1775,43.3336],[5.1645,43.3273],[5.1482,43.3264],[5.1352,43.3292],[5.1348,43.3415],[5.1397,43.3502],[5.1366,43.3624],[5.1315,43.3662],[5.1387,43.3645]]]}},{"type":"Feature","properties":{"code":"13052","nom":"Maillane","app":11.99,"app_bas":9.86,"app_haut":14.57,"app_ech":"commune","app_obs":194,"mai":11.63,"mai_bas":9.05,"mai_haut":14.94,"mai_ech":"commune","mai_obs":169,"a12":15.01,"a3":10.72,"pxa":null,"pxm":3558,"napp":16,"nmai":62,"ra":null,"rm":3.37},"geometry":{"type":"Polygon","coordinates":[[[4.8021,43.8466],[4.8119,43.8392],[4.8163,43.8246],[4.8111,43.8151],[4.7986,43.8086],[4.7812,43.8059],[4.7645,43.7985],[4.7502,43.8175],[4.7514,43.8215],[4.7674,43.8314],[4.7755,43.8402],[4.7898,43.8474],[4.8021,43.8466]]]}},{"type":"Feature","properties":{"code":"13061","nom":"Saint-Pierre-de-Mézoargues","app":12,"app_bas":9.52,"app_haut":15.12,"app_ech":"maille","app_obs":14,"mai":10.59,"mai_bas":7.89,"mai_haut":14.22,"mai_ech":"maille","mai_obs":11,"a12":14.26,"a3":10.58,"pxa":null,"pxm":null,"napp":0,"nmai":0,"ra":null,"rm":null},"geometry":{"type":"Polygon","coordinates":[[[4.6419,43.8675],[4.6505,43.8699],[4.6566,43.8748],[4.6624,43.8708],[4.6719,43.8557],[4.6681,43.8475],[4.6667,43.8472],[4.6587,43.8532],[4.648,43.8512],[4.6448,43.8551],[4.6419,43.8675]]]}},{"type":"Feature","properties":{"code":"13003","nom":"Alleins","app":15.93,"app_bas":12.62,"app_haut":20.11,"app_ech":"commune","app_obs":172,"mai":11.97,"mai_bas":8.85,"mai_haut":16.17,"mai_ech":"maille","mai_obs":71,"a12":17.75,"a3":14.26,"pxa":null,"pxm":3363,"napp":8,"nmai":71,"ra":null,"rm":3.65},"geometry":{"type":"Polygon","coordinates":[[[5.126,43.6906],[5.1232,43.6998],[5.1166,43.7083],[5.1257,43.7216],[5.1253,43.7294],[5.1502,43.7246],[5.18,43.7138],[5.1942,43.7015],[5.1951,43.6969],[5.1776,43.6971],[5.1628,43.6958],[5.1501,43.6901],[5.1354,43.6929],[5.126,43.6906]]]}},{"type":"Feature","properties":{"code":"13210","nom":"Marseille 10e  Arrondissement","app":16.02,"app_bas":12.99,"app_haut":19.75,"app_ech":"commune","app_obs":12611,"mai":17.13,"mai_bas":11.97,"mai_haut":24.52,"mai_ech":"commune","mai_obs":205,"a12":18.59,"a3":14.32,"pxa":2629,"pxm":4604,"napp":2277,"nmai":219,"ra":6.09,"rm":3.69},"geometry":{"type":"Polygon","coordinates":[[[5.3919,43.2848],[5.4027,43.2868],[5.4149,43.2917],[5.4258,43.2901],[5.4294,43.2858],[5.4399,43.285],[5.4444,43.2768],[5.4533,43.2729],[5.4541,43.2654],[5.4593,43.26],[5.4522,43.2575],[5.4314,43.2604],[5.4298,43.2656],[5.4146,43.2694],[5.4101,43.2756],[5.3998,43.2746],[5.3887,43.2831],[5.3919,43.2848]]]}},{"type":"Feature","properties":{"code":"13019","nom":"Cabriès","app":18.4,"app_bas":14.4,"app_haut":23.51,"app_ech":"commune","app_obs":320,"mai":19.24,"mai_bas":13.8,"mai_haut":26.84,"mai_ech":"commune","mai_obs":264,"a12":21.61,"a3":16.51,"pxa":4830,"pxm":4735,"napp":32,"nmai":238,"ra":3.74,"rm":3.96},"geometry":{"type":"Polygon","coordinates":[[[5.3749,43.42],[5.3658,43.4187],[5.3442,43.4193],[5.3212,43.4293],[5.3108,43.4315],[5.301,43.4461],[5.3084,43.4514],[5.3294,43.4618],[5.32,43.4772],[5.322,43.4828],[5.3359,43.4886],[5.3438,43.4834],[5.3578,43.4812],[5.3657,43.4728],[5.3778,43.4687],[5.3875,43.4619],[5.3908,43.4327],[5.3839,43.4254],[5.3749,43.42]]]}},{"type":"Feature","properties":{"code":"13107","nom":"Simiane-Collongue","app":16.69,"app_bas":13.07,"app_haut":21.31,"app_ech":"commune","app_obs":271,"mai":17.59,"mai_bas":13.32,"mai_haut":23.22,"mai_ech":"commune","mai_obs":193,"a12":18.26,"a3":14.66,"pxa":null,"pxm":4090,"napp":22,"nmai":112,"ra":null,"rm":4.25},"geometry":{"type":"Polygon","coordinates":[[[5.4475,43.387],[5.4342,43.3869],[5.4246,43.3834],[5.3971,43.4008],[5.3927,43.4165],[5.4164,43.4216],[5.4195,43.4255],[5.4166,43.4346],[5.4296,43.439],[5.445,43.4474],[5.4556,43.435],[5.4643,43.4301],[5.4692,43.4193],[5.4771,43.4133],[5.4754,43.3915],[5.4475,43.387]]]}},{"type":"Feature","properties":{"code":"13204","nom":"Marseille 4e  Arrondissement","app":15.46,"app_bas":12.38,"app_haut":19.3,"app_ech":"commune","app_obs":13834,"mai":16.44,"mai_bas":10.84,"mai_haut":24.93,"mai_ech":"maille","mai_obs":99,"a12":17.56,"a3":14.48,"pxa":2834,"pxm":3990,"napp":2823,"nmai":104,"ra":5.48,"rm":4.1},"geometry":{"type":"Polygon","coordinates":[[[5.3891,43.3003],[5.3944,43.302],[5.3905,43.3094],[5.3932,43.3164],[5.4105,43.315],[5.4087,43.2956],[5.3891,43.3003]]]}},{"type":"Feature","properties":{"code":"13080","nom":"Puy-Sainte-Réparade","app":15.84,"app_bas":12.87,"app_haut":19.5,"app_ech":"commune","app_obs":585,"mai":14.72,"mai_bas":10.69,"mai_haut":20.26,"mai_ech":"commune","mai_obs":179,"a12":18.1,"a3":14.49,"pxa":4346,"pxm":3708,"napp":49,"nmai":135,"ra":3.65,"rm":4.02},"geometry":{"type":"Polygon","coordinates":[[[5.4638,43.6136],[5.4538,43.6161],[5.4468,43.6226],[5.4344,43.6207],[5.4113,43.6227],[5.406,43.6279],[5.4006,43.6391],[5.3928,43.6503],[5.3984,43.6594],[5.3959,43.6663],[5.3963,43.6761],[5.4043,43.6784],[5.4127,43.6929],[5.4392,43.6811],[5.4505,43.6796],[5.4881,43.6676],[5.4822,43.6453],[5.4827,43.6356],[5.4767,43.6235],[5.4638,43.6136]]]}},{"type":"Feature","properties":{"code":"13103","nom":"Salon-de-Provence","app":14.45,"app_bas":11.53,"app_haut":18.11,"app_ech":"commune","app_obs":6870,"mai":14.61,"mai_bas":11.15,"mai_haut":19.16,"mai_ech":"commune","mai_obs":1036,"a12":17.1,"a3":14.95,"pxa":2777,"pxm":3733,"napp":1285,"nmai":604,"ra":5.28,"rm":3.97},"geometry":{"type":"Polygon","coordinates":[[[5.0728,43.6838],[5.0798,43.6853],[5.099,43.6844],[5.1131,43.6881],[5.1334,43.668],[5.1414,43.6657],[5.1438,43.6597],[5.1278,43.6412],[5.1317,43.6302],[5.13,43.6221],[5.1296,43.6116],[5.1153,43.6029],[5.0961,43.5989],[5.0946,43.6057],[5.0869,43.6212],[5.0811,43.6255],[5.05,43.6311],[5.0125,43.6429],[5.0122,43.6292],[5.0036,43.6227],[4.9886,43.618],[4.9541,43.639],[4.9688,43.6583],[4.9993,43.648],[5.0266,43.6587],[5.0447,43.6683],[5.0602,43.675],[5.0728,43.6838]]]}},{"type":"Feature","properties":{"code":"13014","nom":"Berre-l'Étang","app":14.49,"app_bas":11.85,"app_haut":17.73,"app_ech":"commune","app_obs":625,"mai":14.49,"mai_bas":11.16,"mai_haut":18.82,"mai_ech":"commune","mai_obs":194,"a12":18.42,"a3":12.51,"pxa":2331,"pxm":3457,"napp":105,"nmai":146,"ra":6.3,"rm":4.25},"geometry":{"type":"Polygon","coordinates":[[[5.1181,43.5132],[5.1217,43.5229],[5.1338,43.5248],[5.1647,43.5402],[5.1875,43.5393],[5.2016,43.5352],[5.2065,43.5246],[5.2039,43.5138],[5.1963,43.5061],[5.1961,43.4987],[5.2028,43.4912],[5.1908,43.4865],[5.1825,43.4794],[5.1651,43.4718],[5.1497,43.457],[5.1321,43.4738],[5.1231,43.4862],[5.1195,43.497],[5.1136,43.5047],[5.1181,43.5132]]]}},{"type":"Feature","properties":{"code":"13043","nom":"Gignac-la-Nerthe","app":16.6,"app_bas":13.52,"app_haut":20.39,"app_ech":"commune","app_obs":545,"mai":15.55,"mai_bas":11.79,"mai_haut":20.49,"mai_ech":"commune","mai_obs":188,"a12":19.22,"a3":14.09,"pxa":3400,"pxm":3973,"napp":73,"nmai":202,"ra":4.86,"rm":3.93},"geometry":{"type":"Polygon","coordinates":[[[5.1955,43.3825],[5.1961,43.3925],[5.207,43.3955],[5.2437,43.3986],[5.2639,43.402],[5.2713,43.3912],[5.2499,43.3921],[5.242,43.3868],[5.2284,43.3819],[5.2143,43.3819],[5.2019,43.3781],[5.1955,43.3825]]]}},{"type":"Feature","properties":{"code":"13034","nom":"Eygalières","app":14.19,"app_bas":11.28,"app_haut":17.85,"app_ech":"maille","app_obs":26,"mai":13.51,"mai_bas":10.12,"mai_haut":18.04,"mai_ech":"maille","mai_obs":36,"a12":17.37,"a3":11.12,"pxa":null,"pxm":5556,"napp":0,"nmai":95,"ra":null,"rm":2.47},"geometry":{"type":"Polygon","coordinates":[[[4.9682,43.791],[4.9817,43.7795],[4.9962,43.7549],[4.9977,43.749],[4.9773,43.7402],[4.9535,43.7283],[4.9282,43.7362],[4.9175,43.7375],[4.9189,43.747],[4.9246,43.7554],[4.917,43.7684],[4.9141,43.7849],[4.924,43.7911],[4.9242,43.7992],[4.9342,43.7956],[4.9456,43.7869],[4.9668,43.7919],[4.9682,43.791]]]}},{"type":"Feature","properties":{"code":"13026","nom":"Châteauneuf-les-Martigues","app":16.6,"app_bas":13.12,"app_haut":21,"app_ech":"commune","app_obs":955,"mai":14.87,"mai_bas":11.25,"mai_haut":19.66,"mai_ech":"commune","mai_obs":227,"a12":19.47,"a3":13.98,"pxa":3661,"pxm":3827,"napp":216,"nmai":334,"ra":4.51,"rm":3.93},"geometry":{"type":"Polygon","coordinates":[[[5.1719,43.4186],[5.1858,43.4052],[5.1888,43.3958],[5.1961,43.3925],[5.1955,43.3825],[5.1898,43.3809],[5.1853,43.3728],[5.1851,43.3661],[5.1735,43.3629],[5.1416,43.37],[5.1387,43.3645],[5.1315,43.3662],[5.1156,43.3632],[5.103,43.3623],[5.1007,43.3671],[5.103,43.3899],[5.0964,43.4014],[5.1107,43.4041],[5.1216,43.404],[5.1258,43.4],[5.1373,43.4002],[5.1575,43.4096],[5.1719,43.4186]]]}},{"type":"Feature","properties":{"code":"13112","nom":"Velaux","app":15.85,"app_bas":12.61,"app_haut":19.92,"app_ech":"commune","app_obs":654,"mai":14.75,"mai_bas":10.8,"mai_haut":20.16,"mai_ech":"commune","mai_obs":275,"a12":18.51,"a3":14.02,"pxa":3723,"pxm":4465,"napp":46,"nmai":198,"ra":4.26,"rm":3.34},"geometry":{"type":"Polygon","coordinates":[[[5.2336,43.5474],[5.2511,43.5444],[5.2648,43.5382],[5.2785,43.5346],[5.2942,43.5196],[5.2816,43.5035],[5.2697,43.4986],[5.2696,43.4955],[5.2425,43.5072],[5.2349,43.5095],[5.2065,43.5246],[5.2016,43.5352],[5.2065,43.5399],[5.2183,43.5423],[5.2234,43.5473],[5.2336,43.5474]]]}},{"type":"Feature","properties":{"code":"13010","nom":"Barbentane","app":13.94,"app_bas":11.35,"app_haut":17.13,"app_ech":"commune","app_obs":337,"mai":11.19,"mai_bas":8.73,"mai_haut":14.33,"mai_ech":"commune","mai_obs":193,"a12":13.46,"a3":12.36,"pxa":2500,"pxm":2797,"napp":33,"nmai":104,"ra":5.65,"rm":4.15},"geometry":{"type":"Polygon","coordinates":[[[4.7815,43.8912],[4.7673,43.8772],[4.746,43.8632],[4.7345,43.8577],[4.7287,43.8659],[4.7278,43.8808],[4.7199,43.882],[4.7093,43.898],[4.7234,43.906],[4.7355,43.9165],[4.7391,43.9241],[4.7736,43.9196],[4.7736,43.9146],[4.7814,43.9121],[4.7929,43.9118],[4.7815,43.8912]]]}},{"type":"Feature","properties":{"code":"13035","nom":"Eyguières","app":14,"app_bas":11.18,"app_haut":17.54,"app_ech":"commune","app_obs":712,"mai":14.25,"mai_bas":10.68,"mai_haut":19.01,"mai_ech":"commune","mai_obs":439,"a12":16.93,"a3":11.81,"pxa":3152,"pxm":3843,"napp":68,"nmai":202,"ra":4.5,"rm":3.76},"geometry":{"type":"Polygon","coordinates":[[[5.0728,43.6838],[5.0602,43.675],[5.0447,43.6683],[5.0266,43.6587],[4.9993,43.648],[4.9688,43.6583],[4.9775,43.67],[4.9827,43.681],[4.9796,43.7006],[4.9802,43.7175],[4.9587,43.7213],[4.9535,43.7283],[4.9773,43.7402],[4.9977,43.749],[5.0328,43.7504],[5.0451,43.746],[5.0592,43.7305],[5.0632,43.7215],[5.0538,43.7238],[5.0544,43.7156],[5.0601,43.7099],[5.0625,43.6996],[5.0728,43.6838]]]}},{"type":"Feature","properties":{"code":"13092","nom":"Saint-Chamas","app":14.61,"app_bas":11.59,"app_haut":18.4,"app_ech":"commune","app_obs":928,"mai":13.73,"mai_bas":10.58,"mai_haut":17.81,"mai_ech":"commune","mai_obs":200,"a12":17.02,"a3":12.81,"pxa":2750,"pxm":3497,"napp":157,"nmai":181,"ra":5.38,"rm":3.98},"geometry":{"type":"Polygon","coordinates":[[[5.0626,43.5585],[5.0765,43.5587],[5.0797,43.5658],[5.09,43.5698],[5.1035,43.5544],[5.1076,43.5551],[5.1217,43.5229],[5.1181,43.5132],[5.1182,43.518],[5.1087,43.5255],[5.0893,43.5255],[5.0643,43.5278],[5.0556,43.527],[5.0464,43.5221],[5.0323,43.5398],[5.031,43.5468],[5.022,43.5562],[5.0338,43.5597],[5.0382,43.5681],[5.0454,43.5693],[5.054,43.5599],[5.0626,43.5585]]]}},{"type":"Feature","properties":{"code":"13203","nom":"Marseille 3e  Arrondissement","app":14.92,"app_bas":11.68,"app_haut":19.07,"app_ech":"commune","app_obs":8698,"mai":14.07,"mai_bas":10.35,"mai_haut":19.13,"mai_ech":"maille","mai_obs":69,"a12":17.02,"a3":13.55,"pxa":1714,"pxm":2857,"napp":1825,"nmai":47,"ra":8.8,"rm":4.99},"geometry":{"type":"Polygon","coordinates":[[[5.3716,43.3201],[5.3755,43.3211],[5.3879,43.315],[5.3932,43.3164],[5.3905,43.3094],[5.375,43.3016],[5.368,43.3138],[5.3716,43.3201]]]}},{"type":"Feature","properties":{"code":"13041","nom":"Gardanne","app":16.21,"app_bas":13.15,"app_haut":20,"app_ech":"commune","app_obs":2690,"mai":16.63,"mai_bas":12.68,"mai_haut":21.81,"mai_ech":"commune","mai_obs":367,"a12":18.71,"a3":13.49,"pxa":3219,"pxm":4137,"napp":387,"nmai":283,"ra":5.03,"rm":4},"geometry":{"type":"Polygon","coordinates":[[[5.4691,43.489],[5.4772,43.4867],[5.4826,43.4809],[5.4821,43.4705],[5.4961,43.4633],[5.5227,43.4467],[5.5295,43.4401],[5.5215,43.4314],[5.5022,43.4279],[5.4925,43.4307],[5.4643,43.4301],[5.4556,43.435],[5.445,43.4474],[5.4487,43.4652],[5.4418,43.4715],[5.4578,43.4795],[5.4691,43.489]]]}},{"type":"Feature","properties":{"code":"13102","nom":"Saint-Victoret","app":17.07,"app_bas":13.7,"app_haut":21.27,"app_ech":"commune","app_obs":380,"mai":14.34,"mai_bas":10.85,"mai_haut":18.96,"mai_ech":"commune","mai_obs":160,"a12":19.3,"a3":14.96,"pxa":3259,"pxm":3855,"napp":53,"nmai":107,"ra":5.19,"rm":3.77},"geometry":{"type":"Polygon","coordinates":[[[5.2749,43.4189],[5.2708,43.4043],[5.2651,43.4011],[5.255,43.4085],[5.2338,43.4131],[5.2265,43.4202],[5.239,43.4231],[5.2679,43.4184],[5.2749,43.4189]]]}},{"type":"Feature","properties":{"code":"13059","nom":"Meyrargues","app":15.81,"app_bas":12.66,"app_haut":19.75,"app_ech":"commune","app_obs":392,"mai":15.39,"mai_bas":11.16,"mai_haut":21.22,"mai_ech":"commune","mai_obs":135,"a12":17.66,"a3":14.49,"pxa":2969,"pxm":3136,"napp":36,"nmai":64,"ra":5.34,"rm":4.94},"geometry":{"type":"Polygon","coordinates":[[[5.4881,43.6676],[5.5014,43.6664],[5.5315,43.659],[5.5498,43.6597],[5.5436,43.6394],[5.5396,43.6313],[5.5476,43.6127],[5.5565,43.6027],[5.5877,43.5904],[5.5675,43.5822],[5.5577,43.5796],[5.5349,43.5814],[5.5226,43.5922],[5.5112,43.6072],[5.4918,43.6125],[5.4767,43.6235],[5.4827,43.6356],[5.4822,43.6453],[5.4881,43.6676]]]}},{"type":"Feature","properties":{"code":"13074","nom":"Peyrolles-en-Provence","app":14.31,"app_bas":11.45,"app_haut":17.89,"app_ech":"commune","app_obs":563,"mai":14.31,"mai_bas":10.38,"mai_haut":19.72,"mai_ech":"maille","mai_obs":96,"a12":16.25,"a3":13.14,"pxa":3015,"pxm":3478,"napp":54,"nmai":108,"ra":4.81,"rm":4.17},"geometry":{"type":"Polygon","coordinates":[[[5.6069,43.6587],[5.6038,43.6271],[5.605,43.6045],[5.6139,43.5943],[5.5877,43.5904],[5.5565,43.6027],[5.5476,43.6127],[5.5396,43.6313],[5.5436,43.6394],[5.5498,43.6597],[5.5716,43.6619],[5.5853,43.6614],[5.6069,43.6587]]]}},{"type":"Feature","properties":{"code":"13024","nom":"Charleval","app":13.22,"app_bas":10.05,"app_haut":17.38,"app_ech":"commune","app_obs":153,"mai":11.46,"mai_bas":8.53,"mai_haut":15.4,"mai_ech":"maille","mai_obs":94,"a12":18.55,"a3":12.08,"pxa":null,"pxm":3227,"napp":27,"nmai":69,"ra":null,"rm":3.67},"geometry":{"type":"Polygon","coordinates":[[[5.2261,43.707],[5.2238,43.7284],[5.2315,43.7337],[5.2456,43.7471],[5.2641,43.7442],[5.2623,43.7309],[5.2689,43.7198],[5.2561,43.7061],[5.2511,43.6975],[5.239,43.6938],[5.2287,43.703],[5.2261,43.707]]]}},{"type":"Feature","properties":{"code":"13063","nom":"Miramas","app":14.39,"app_bas":12.04,"app_haut":17.19,"app_ech":"commune","app_obs":2054,"mai":13.19,"mai_bas":10.05,"mai_haut":17.32,"mai_ech":"commune","mai_obs":385,"a12":16.55,"a3":12.8,"pxa":2317,"pxm":3057,"napp":459,"nmai":327,"ra":6.3,"rm":4.38},"geometry":{"type":"Polygon","coordinates":[[[5.022,43.5562],[5.0144,43.5555],[5.0074,43.5514],[5.0015,43.5544],[5.0063,43.5621],[4.9963,43.5727],[4.9931,43.5797],[4.9671,43.6009],[4.9801,43.603],[4.9784,43.6163],[4.9886,43.618],[5.0075,43.6055],[5.0178,43.605],[5.0342,43.5952],[5.0437,43.5923],[5.0475,43.5833],[5.0588,43.5687],[5.0626,43.5585],[5.054,43.5599],[5.0454,43.5693],[5.0382,43.5681],[5.0338,43.5597],[5.022,43.5562]]]}},{"type":"Feature","properties":{"code":"13078","nom":"Port-Saint-Louis-du-Rhône","app":12.91,"app_bas":10.48,"app_haut":15.91,"app_ech":"commune","app_obs":380,"mai":13.12,"mai_bas":10.07,"mai_haut":17.11,"mai_ech":"maille","mai_obs":81,"a12":15.44,"a3":11.04,"pxa":2308,"pxm":2696,"napp":105,"nmai":112,"ra":5.67,"rm":4.93},"geometry":{"type":"Polygon","coordinates":[[[4.8445,43.3323],[4.8378,43.3376],[4.8341,43.347],[4.8349,43.3543],[4.8312,43.3687],[4.822,43.3721],[4.798,43.3866],[4.7822,43.3938],[4.7634,43.4051],[4.7539,43.4087],[4.7472,43.4176],[4.7344,43.4278],[4.7344,43.4342],[4.7486,43.4581],[4.7649,43.4747],[4.7797,43.4795],[4.792,43.4744],[4.797,43.478],[4.8061,43.4773],[4.8149,43.4683],[4.8228,43.4742],[4.8381,43.4626],[4.8293,43.4604],[4.8298,43.456],[4.8413,43.4518],[4.841,43.4478],[4.8325,43.4373],[4.8186,43.4256],[4.819,43.4186],[4.8255,43.412],[4.8415,43.4036],[4.8359,43.398],[4.8551,43.3879],[4.8495,43.38],[4.8569,43.3709],[4.8667,43.3696],[4.8737,43.3608],[4.9022,43.371],[4.8925,43.3602],[4.8776,43.3485],[4.8684,43.3432],[4.855,43.3326],[4.8445,43.3323]]]}},{"type":"Feature","properties":{"code":"13083","nom":"Rognonas","app":14.9,"app_bas":12.12,"app_haut":18.32,"app_ech":"commune","app_obs":353,"mai":11.99,"mai_bas":9.33,"mai_haut":15.4,"mai_ech":"commune","mai_obs":333,"a12":14.84,"a3":12.8,"pxa":null,"pxm":3043,"napp":14,"nmai":99,"ra":null,"rm":4.04},"geometry":{"type":"Polygon","coordinates":[[[4.7815,43.8912],[4.7929,43.9118],[4.7814,43.9121],[4.7736,43.9146],[4.7736,43.9196],[4.811,43.9143],[4.8184,43.896],[4.8169,43.8901],[4.8011,43.8798],[4.7815,43.8912]]]}},{"type":"Feature","properties":{"code":"13111","nom":"Vauvenargues","app":17.46,"app_bas":13.98,"app_haut":21.79,"app_ech":"maille","app_obs":66,"mai":10.09,"mai_bas":7.21,"mai_haut":14.11,"mai_ech":"maille","mai_obs":11,"a12":17.44,"a3":15.4,"pxa":null,"pxm":null,"napp":15,"nmai":18,"ra":null,"rm":null},"geometry":{"type":"Polygon","coordinates":[[[5.6185,43.5317],[5.5905,43.5297],[5.5764,43.5315],[5.5704,43.5367],[5.5611,43.5387],[5.5613,43.5434],[5.5526,43.5468],[5.5379,43.5569],[5.5459,43.5613],[5.5561,43.5626],[5.5551,43.5699],[5.5577,43.5796],[5.5675,43.5822],[5.5877,43.5904],[5.6139,43.5943],[5.6272,43.5872],[5.6309,43.5814],[5.6379,43.5791],[5.6475,43.57],[5.6627,43.5647],[5.6958,43.5621],[5.7067,43.5562],[5.6938,43.5509],[5.6857,43.5451],[5.6655,43.5387],[5.6484,43.5393],[5.6233,43.5355],[5.6185,43.5317]]]}},{"type":"Feature","properties":{"code":"13007","nom":"Auriol","app":14.91,"app_bas":11.69,"app_haut":19.01,"app_ech":"commune","app_obs":1109,"mai":14.91,"mai_bas":10.95,"mai_haut":20.31,"mai_ech":"commune","mai_obs":265,"a12":17.28,"a3":13.16,"pxa":3037,"pxm":4267,"napp":150,"nmai":229,"ra":4.96,"rm":3.53},"geometry":{"type":"Polygon","coordinates":[[[5.6096,43.3662],[5.6083,43.3765],[5.6173,43.3832],[5.6194,43.3905],[5.6248,43.3927],[5.6385,43.387],[5.6533,43.3876],[5.6652,43.3985],[5.6704,43.4],[5.6828,43.3992],[5.6879,43.3918],[5.6946,43.3644],[5.7036,43.354],[5.6946,43.3452],[5.6891,43.3352],[5.6898,43.3275],[5.6806,43.3206],[5.6579,43.3189],[5.6468,43.3232],[5.65,43.327],[5.6449,43.3345],[5.6328,43.3407],[5.6096,43.3662]]]}},{"type":"Feature","properties":{"code":"13047","nom":"Istres","app":15.02,"app_bas":12.15,"app_haut":18.57,"app_ech":"commune","app_obs":4253,"mai":13.72,"mai_bas":10.25,"mai_haut":18.36,"mai_ech":"commune","mai_obs":656,"a12":17.07,"a3":13.22,"pxa":2819,"pxm":3262,"napp":653,"nmai":760,"ra":5.38,"rm":4.26},"geometry":{"type":"Polygon","coordinates":[[[4.9287,43.5107],[4.8802,43.5416],[4.8897,43.5527],[4.89,43.5585],[4.8827,43.5784],[4.8875,43.5919],[4.9034,43.6046],[4.9208,43.6163],[4.9401,43.6203],[4.9448,43.6228],[4.9517,43.6124],[4.9784,43.6163],[4.9801,43.603],[4.9671,43.6009],[4.9931,43.5797],[4.9963,43.5727],[5.0063,43.5621],[5.0015,43.5544],[5.0074,43.5514],[5.0144,43.5555],[5.0122,43.5455],[5.0155,43.5297],[5.0127,43.5239],[5.0025,43.5128],[4.9985,43.4981],[5.0029,43.4867],[5.0009,43.4741],[5.006,43.4697],[4.9993,43.4689],[4.9897,43.4777],[4.9759,43.4741],[4.9655,43.4738],[4.9528,43.4883],[4.9287,43.5107]]]}},{"type":"Feature","properties":{"code":"13004","nom":"Arles","app":13,"app_bas":10.6,"app_haut":15.94,"app_ech":"commune","app_obs":7991,"mai":11.8,"mai_bas":9.01,"mai_haut":15.45,"mai_ech":"commune","mai_obs":1703,"a12":15.19,"a3":11.63,"pxa":2488,"pxm":2766,"napp":834,"nmai":1115,"ra":5.3,"rm":4.39},"geometry":{"type":"Polygon","coordinates":[[[4.6123,43.7248],[4.6136,43.7298],[4.6227,43.7432],[4.6281,43.7577],[4.6395,43.7603],[4.6428,43.7448],[4.6534,43.7422],[4.6746,43.7336],[4.6798,43.7286],[4.6723,43.7258],[4.6519,43.7125],[4.6597,43.7074],[4.6691,43.706],[4.6694,43.6957],[4.6844,43.695],[4.6963,43.7022],[4.717,43.6981],[4.7464,43.6952],[4.7586,43.6958],[4.7589,43.6934],[4.7775,43.684],[4.7684,43.6681],[4.7664,43.6616],[4.7652,43.6394],[4.7512,43.6272],[4.7535,43.6155],[4.7609,43.6075],[4.7603,43.594],[4.7661,43.5832],[4.7749,43.5752],[4.7792,43.5755],[4.8003,43.5585],[4.8152,43.5424],[4.8764,43.4945],[4.8686,43.4824],[4.8556,43.4674],[4.8381,43.4626],[4.8228,43.4742],[4.8149,43.4683],[4.8061,43.4773],[4.797,43.478],[4.792,43.4744],[4.7797,43.4795],[4.7649,43.4747],[4.7486,43.4581],[4.7344,43.4342],[4.7344,43.4278],[4.7472,43.4176],[4.7539,43.4087],[4.7634,43.4051],[4.7822,43.3938],[4.798,43.3866],[4.822,43.3721],[4.8312,43.3687],[4.8349,43.3543],[4.8341,43.347],[4.8378,43.3376],[4.8445,43.3323],[4.833,43.3299],[4.8232,43.336],[4.802,43.3431],[4.7834,43.3472],[4.7596,43.3499],[4.7177,43.3503],[4.7057,43.3478],[4.6618,43.3464],[4.6381,43.351],[4.6131,43.3538],[4.5858,43.3601],[4.5628,43.3721],[4.5556,43.3828],[4.5627,43.3922],[4.5736,43.3936],[4.5877,43.4007],[4.595,43.4064],[4.5978,43.4062],[4.619,43.4169],[4.6157,43.4312],[4.6161,43.4462],[4.6213,43.4481],[4.6198,43.4553],[4.6212,43.4708],[4.6443,43.4853],[4.6414,43.5016],[4.6338,43.5106],[4.6339,43.5198],[4.6417,43.5305],[4.6423,43.5373],[4.63,43.5469],[4.6238,43.5599],[4.6232,43.5736],[4.5774,43.5656],[4.5492,43.5727],[4.5298,43.5717],[4.5118,43.5805],[4.5038,43.5804],[4.5039,43.5729],[4.4899,43.5566],[4.4773,43.5555],[4.4623,43.5626],[4.4608,43.5674],[4.4489,43.5834],[4.4607,43.5893],[4.4668,43.5991],[4.4752,43.6083],[4.4668,43.6152],[4.4545,43.6114],[4.4397,43.6107],[4.427,43.6207],[4.4262,43.6245],[4.4343,43.6336],[4.4382,43.6444],[4.4476,43.6593],[4.4559,43.6674],[4.4755,43.6711],[4.4784,43.6768],[4.4757,43.6845],[4.4786,43.6913],[4.4864,43.6989],[4.4963,43.7017],[4.5244,43.7021],[4.5398,43.7073],[4.5528,43.7013],[4.5634,43.6986],[4.5819,43.6964],[4.593,43.6875],[4.6058,43.6861],[4.6169,43.6889],[4.6247,43.6859],[4.6277,43.6905],[4.6233,43.6992],[4.616,43.7069],[4.6123,43.7248]]]}},{"type":"Feature","properties":{"code":"13081","nom":"Rognac","app":15.86,"app_bas":13.14,"app_haut":19.14,"app_ech":"commune","app_obs":694,"mai":14.58,"mai_bas":11.15,"mai_haut":19.07,"mai_ech":"commune","mai_obs":242,"a12":19.08,"a3":13.43,"pxa":2890,"pxm":3755,"napp":138,"nmai":242,"ra":5.5,"rm":3.94},"geometry":{"type":"Polygon","coordinates":[[[5.2696,43.4955],[5.2717,43.4857],[5.259,43.4839],[5.2525,43.4771],[5.2234,43.4791],[5.2175,43.4881],[5.2028,43.4912],[5.1961,43.4987],[5.1963,43.5061],[5.2039,43.5138],[5.2065,43.5246],[5.2349,43.5095],[5.2425,43.5072],[5.2696,43.4955]]]}},{"type":"Feature","properties":{"code":"13100","nom":"Saint-Rémy-de-Provence","app":14.8,"app_bas":11.63,"app_haut":18.85,"app_ech":"commune","app_obs":964,"mai":13.47,"mai_bas":9.89,"mai_haut":18.35,"mai_ech":"commune","mai_obs":398,"a12":16.73,"a3":14.59,"pxa":4616,"pxm":5411,"napp":122,"nmai":354,"ra":3.24,"rm":2.52},"geometry":{"type":"Polygon","coordinates":[[[4.8834,43.7335],[4.8677,43.7355],[4.8595,43.7416],[4.8569,43.75],[4.8521,43.7522],[4.8325,43.7532],[4.8153,43.7586],[4.8007,43.7646],[4.7866,43.7657],[4.7798,43.7612],[4.7703,43.7602],[4.7729,43.7824],[4.7675,43.7962],[4.7645,43.7985],[4.7812,43.8059],[4.7986,43.8086],[4.8111,43.8151],[4.8163,43.8246],[4.8412,43.8237],[4.8517,43.8244],[4.8685,43.8298],[4.8817,43.8209],[4.9077,43.8182],[4.9096,43.8032],[4.9242,43.7992],[4.924,43.7911],[4.9141,43.7849],[4.917,43.7684],[4.9246,43.7554],[4.9189,43.747],[4.9175,43.7375],[4.8959,43.7402],[4.8834,43.7335]]]}},{"type":"Feature","properties":{"code":"13209","nom":"Marseille 9e  Arrondissement","app":17.43,"app_bas":13.85,"app_haut":21.93,"app_ech":"commune","app_obs":8679,"mai":19.15,"mai_bas":13.35,"mai_haut":27.46,"mai_ech":"commune","mai_obs":333,"a12":19.95,"a3":16.03,"pxa":3039,"pxm":5522,"napp":2592,"nmai":374,"ra":5.67,"rm":3.38},"geometry":{"type":"Polygon","coordinates":[[[5.5196,43.2443],[5.5184,43.2381],[5.5071,43.2332],[5.5077,43.2262],[5.5167,43.2172],[5.5102,43.1979],[5.5003,43.1968],[5.4866,43.2042],[5.4761,43.2048],[5.468,43.2087],[5.4462,43.2102],[5.4495,43.2045],[5.4325,43.2074],[5.4256,43.2038],[5.4034,43.2128],[5.3815,43.2096],[5.3836,43.2234],[5.3806,43.2278],[5.3915,43.236],[5.3925,43.2433],[5.3969,43.2474],[5.3946,43.2534],[5.3991,43.2587],[5.3939,43.2679],[5.3998,43.2746],[5.4101,43.2756],[5.4146,43.2694],[5.4298,43.2656],[5.4314,43.2604],[5.4724,43.2534],[5.4825,43.2549],[5.4849,43.2623],[5.4961,43.2685],[5.5131,43.2634],[5.5196,43.2443]]]}},{"type":"Feature","properties":{"code":"13056","nom":"Martigues","app":15.5,"app_bas":12.2,"app_haut":19.69,"app_ech":"commune","app_obs":5119,"mai":15.11,"mai_bas":10.79,"mai_haut":21.16,"mai_ech":"commune","mai_obs":593,"a12":18.27,"a3":13.89,"pxa":2725,"pxm":3842,"napp":1005,"nmai":606,"ra":5.72,"rm":3.97},"geometry":{"type":"Polygon","coordinates":[[[5.0214,43.4329],[5.0406,43.4396],[5.0542,43.443],[5.0611,43.4231],[5.058,43.4096],[5.0596,43.404],[5.0704,43.4002],[5.0817,43.3997],[5.0964,43.4014],[5.103,43.3899],[5.1007,43.3671],[5.103,43.3623],[5.1044,43.3546],[5.1018,43.3479],[5.0885,43.3325],[5.0816,43.3279],[5.0628,43.3311],[5.0539,43.3243],[5.041,43.3273],[5.019,43.3429],[5.0243,43.3556],[5.0171,43.3569],[5.0114,43.368],[5.0002,43.3771],[4.9969,43.3834],[4.9876,43.3918],[5.0011,43.3982],[4.9955,43.4035],[5.0047,43.4035],[5.004,43.4202],[5.0101,43.4313],[5.0214,43.4329]]]}},{"type":"Feature","properties":{"code":"13097","nom":"Saint-Martin-de-Crau","app":14.53,"app_bas":11.58,"app_haut":18.24,"app_ech":"commune","app_obs":587,"mai":13,"mai_bas":9.71,"mai_haut":17.4,"mai_ech":"commune","mai_obs":376,"a12":17.37,"a3":12.1,"pxa":3043,"pxm":3098,"napp":99,"nmai":320,"ra":4.84,"rm":4.26},"geometry":{"type":"Polygon","coordinates":[[[4.9287,43.5107],[4.9156,43.5088],[4.8815,43.498],[4.8764,43.4945],[4.8152,43.5424],[4.8003,43.5585],[4.7792,43.5755],[4.7749,43.5752],[4.7661,43.5832],[4.7603,43.594],[4.7609,43.6075],[4.7535,43.6155],[4.7512,43.6272],[4.7652,43.6394],[4.7664,43.6616],[4.7684,43.6681],[4.7775,43.684],[4.8044,43.6793],[4.8457,43.6804],[4.8681,43.6779],[4.878,43.6786],[4.8994,43.671],[4.9148,43.6701],[4.9291,43.6714],[4.9295,43.6791],[4.9264,43.6867],[4.9304,43.6876],[4.934,43.6701],[4.9623,43.6606],[4.966,43.6629],[4.9646,43.6722],[4.9647,43.7204],[4.9802,43.7175],[4.9796,43.7006],[4.9827,43.681],[4.9775,43.67],[4.9541,43.639],[4.9886,43.618],[4.9517,43.6124],[4.9448,43.6228],[4.9401,43.6203],[4.9208,43.6163],[4.9034,43.6046],[4.8875,43.5919],[4.8827,43.5784],[4.89,43.5585],[4.8897,43.5527],[4.8802,43.5416],[4.9287,43.5107]]]}},{"type":"Feature","properties":{"code":"13202","nom":"Marseille 2e  Arrondissement","app":16.59,"app_bas":12.5,"app_haut":22.03,"app_ech":"commune","app_obs":4866,"mai":14.07,"mai_bas":10.35,"mai_haut":19.13,"mai_ech":"maille","mai_obs":19,"a12":18.84,"a3":15.1,"pxa":3213,"pxm":null,"napp":1189,"nmai":19,"ra":5.14,"rm":null},"geometry":{"type":"Polygon","coordinates":[[[5.3736,43.295],[5.359,43.298],[5.363,43.302],[5.3644,43.3121],[5.3621,43.322],[5.3556,43.3223],[5.3455,43.3363],[5.355,43.3337],[5.3691,43.3167],[5.368,43.3138],[5.375,43.3016],[5.3736,43.295]]]}},{"type":"Feature","properties":{"code":"13023","nom":"Ceyreste","app":16.61,"app_bas":12.81,"app_haut":21.52,"app_ech":"commune","app_obs":206,"mai":20.21,"mai_bas":13.91,"mai_haut":29.37,"mai_ech":"commune","mai_obs":118,"a12":19.62,"a3":16.01,"pxa":3817,"pxm":4840,"napp":37,"nmai":119,"ra":4.33,"rm":4.04},"geometry":{"type":"Polygon","coordinates":[[[5.5943,43.2363],[5.6,43.2384],[5.6348,43.2411],[5.6603,43.2359],[5.6824,43.2355],[5.6784,43.2167],[5.6697,43.2073],[5.6562,43.2046],[5.6457,43.2075],[5.6368,43.2013],[5.6294,43.2075],[5.6148,43.2099],[5.6042,43.2163],[5.5925,43.2188],[5.5878,43.2294],[5.5943,43.2363]]]}},{"type":"Feature","properties":{"code":"13038","nom":"Fontvieille","app":14.32,"app_bas":11.2,"app_haut":18.32,"app_ech":"commune","app_obs":144,"mai":11.81,"mai_bas":8.66,"mai_haut":16.11,"mai_ech":"commune","mai_obs":155,"a12":16.83,"a3":14.35,"pxa":null,"pxm":3781,"napp":25,"nmai":124,"ra":null,"rm":3.21},"geometry":{"type":"Polygon","coordinates":[[[4.7334,43.7542],[4.739,43.7583],[4.7626,43.7611],[4.7703,43.7602],[4.7739,43.748],[4.7668,43.7291],[4.7623,43.7239],[4.7514,43.7192],[4.7586,43.6958],[4.7464,43.6952],[4.717,43.6981],[4.6963,43.7022],[4.6844,43.695],[4.6694,43.6957],[4.6691,43.706],[4.6597,43.7074],[4.6519,43.7125],[4.6723,43.7258],[4.6798,43.7286],[4.6961,43.7325],[4.7152,43.7348],[4.7262,43.7494],[4.7334,43.7542]]]}},{"type":"Feature","properties":{"code":"13072","nom":"Peynier","app":16.57,"app_bas":13.38,"app_haut":20.54,"app_ech":"commune","app_obs":321,"mai":14.22,"mai_bas":10.06,"mai_haut":20.11,"mai_ech":"maille","mai_obs":86,"a12":18.88,"a3":15.09,"pxa":4050,"pxm":4026,"napp":57,"nmai":81,"ra":4.07,"rm":3.58},"geometry":{"type":"Polygon","coordinates":[[[5.6531,43.4639],[5.6485,43.4487],[5.6507,43.4244],[5.6475,43.4152],[5.6391,43.4041],[5.6271,43.41],[5.6105,43.4119],[5.6046,43.4319],[5.5959,43.4394],[5.5875,43.4427],[5.5912,43.4526],[5.6041,43.4584],[5.6206,43.47],[5.6367,43.4667],[5.6458,43.4691],[5.6531,43.4639]]]}},{"type":"Feature","properties":{"code":"13087","nom":"Rousset","app":17.25,"app_bas":14,"app_haut":21.26,"app_ech":"commune","app_obs":711,"mai":14.48,"mai_bas":10.24,"mai_haut":20.48,"mai_ech":"commune","mai_obs":133,"a12":18.9,"a3":15.63,"pxa":4226,"pxm":4009,"napp":77,"nmai":92,"ra":4.04,"rm":3.66},"geometry":{"type":"Polygon","coordinates":[[[5.6531,43.4639],[5.6458,43.4691],[5.6367,43.4667],[5.6206,43.47],[5.6113,43.4636],[5.5968,43.4705],[5.593,43.4659],[5.5837,43.476],[5.5926,43.4812],[5.6011,43.4826],[5.6049,43.4903],[5.6008,43.5021],[5.6135,43.504],[5.6282,43.5104],[5.6543,43.4907],[5.658,43.4814],[5.6579,43.4707],[5.6531,43.4639]]]}},{"type":"Feature","properties":{"code":"13104","nom":"Sausset-les-Pins","app":19.87,"app_bas":16.35,"app_haut":24.16,"app_ech":"commune","app_obs":698,"mai":19,"mai_bas":13.54,"mai_haut":26.66,"mai_ech":"commune","mai_obs":223,"a12":22.57,"a3":17.92,"pxa":6751,"pxm":6166,"napp":222,"nmai":190,"ra":2.85,"rm":3.01},"geometry":{"type":"Polygon","coordinates":[[[5.103,43.3623],[5.1156,43.3632],[5.1315,43.3662],[5.1366,43.3624],[5.1397,43.3502],[5.1348,43.3415],[5.1352,43.3292],[5.1166,43.3283],[5.0948,43.3293],[5.0885,43.3325],[5.1018,43.3479],[5.1044,43.3546],[5.103,43.3623]]]}},{"type":"Feature","properties":{"code":"13008","nom":"Aurons","app":14.78,"app_bas":12.07,"app_haut":18.09,"app_ech":"maille","app_obs":9,"mai":14.5,"mai_bas":10.59,"mai_haut":19.85,"mai_ech":"maille","mai_obs":41,"a12":18.98,"a3":14.53,"pxa":null,"pxm":null,"napp":0,"nmai":0,"ra":null,"rm":null},"geometry":{"type":"Polygon","coordinates":[[[5.1501,43.6901],[5.1509,43.6806],[5.1561,43.6764],[5.1758,43.6713],[5.1824,43.6613],[5.1811,43.6576],[5.1543,43.6509],[5.1392,43.6539],[5.1438,43.6597],[5.1414,43.6657],[5.1334,43.668],[5.1158,43.6851],[5.126,43.6906],[5.1354,43.6929],[5.1501,43.6901]]]}},{"type":"Feature","properties":{"code":"13028","nom":"Ciotat","app":17.68,"app_bas":13.29,"app_haut":23.52,"app_ech":"commune","app_obs":5795,"mai":20.29,"mai_bas":13.95,"mai_haut":29.5,"mai_ech":"commune","mai_obs":433,"a12":20.05,"a3":16.46,"pxa":5088,"pxm":5866,"napp":1607,"nmai":459,"ra":3.43,"rm":3.34},"geometry":{"type":"Polygon","coordinates":[[[5.5925,43.2188],[5.6042,43.2163],[5.6148,43.2099],[5.6294,43.2075],[5.6368,43.2013],[5.6457,43.2075],[5.6562,43.2046],[5.6697,43.2073],[5.6784,43.2167],[5.6785,43.2052],[5.676,43.1906],[5.6719,43.1793],[5.6526,43.1873],[5.6383,43.1892],[5.6242,43.187],[5.6172,43.1837],[5.6098,43.1737],[5.6146,43.1692],[5.6074,43.1633],[5.6009,43.1625],[5.5715,43.1736],[5.5555,43.1884],[5.5654,43.2005],[5.5824,43.2086],[5.5925,43.2188]]]}},{"type":"Feature","properties":{"code":"13110","nom":"Trets","app":15.07,"app_bas":11.97,"app_haut":18.96,"app_ech":"commune","app_obs":1348,"mai":13.83,"mai_bas":9.78,"mai_haut":19.56,"mai_ech":"commune","mai_obs":250,"a12":17.44,"a3":13.53,"pxa":3296,"pxm":3657,"napp":142,"nmai":268,"ra":4.61,"rm":3.83},"geometry":{"type":"Polygon","coordinates":[[[5.6543,43.4907],[5.658,43.4911],[5.6853,43.4836],[5.6988,43.4822],[5.715,43.4772],[5.7142,43.4748],[5.727,43.4674],[5.7519,43.4343],[5.7747,43.4211],[5.7883,43.4203],[5.7865,43.4145],[5.7764,43.409],[5.75,43.4015],[5.7244,43.4089],[5.6965,43.4071],[5.6828,43.3992],[5.6437,43.4007],[5.6391,43.4041],[5.6475,43.4152],[5.6507,43.4244],[5.6485,43.4487],[5.6531,43.4639],[5.6579,43.4707],[5.658,43.4814],[5.6543,43.4907]]]}},{"type":"Feature","properties":{"code":"13214","nom":"Marseille 14e  Arrondissement","app":14.31,"app_bas":11.55,"app_haut":17.72,"app_ech":"commune","app_obs":6927,"mai":14.63,"mai_bas":10.76,"mai_haut":19.88,"mai_ech":"commune","mai_obs":162,"a12":17.4,"a3":12.37,"pxa":1452,"pxm":3304,"napp":1494,"nmai":238,"ra":9.99,"rm":4.49},"geometry":{"type":"Polygon","coordinates":[[[5.3716,43.3201],[5.3675,43.3362],[5.3773,43.341],[5.377,43.3545],[5.3864,43.3638],[5.3984,43.3681],[5.3916,43.3721],[5.4154,43.3788],[5.4135,43.376],[5.4126,43.3601],[5.4161,43.3528],[5.4061,43.3311],[5.3936,43.3165],[5.3879,43.315],[5.3755,43.3211],[5.3716,43.3201]]]}},{"type":"Feature","properties":{"code":"13031","nom":"Destrousse","app":16.62,"app_bas":13.38,"app_haut":20.64,"app_ech":"commune","app_obs":308,"mai":14.52,"mai_bas":10.66,"mai_haut":19.76,"mai_ech":"maille","mai_obs":55,"a12":19.49,"a3":14.48,"pxa":3679,"pxm":3931,"napp":55,"nmai":54,"ra":4.49,"rm":3.75},"geometry":{"type":"Polygon","coordinates":[[[5.5952,43.3914],[5.6035,43.3854],[5.6083,43.3765],[5.6096,43.3662],[5.603,43.3682],[5.5876,43.3666],[5.5872,43.3704],[5.5939,43.3837],[5.5952,43.3914]]]}},{"type":"Feature","properties":{"code":"13016","nom":"Bouilladisse","app":15.71,"app_bas":12.59,"app_haut":19.61,"app_ech":"commune","app_obs":337,"mai":16.42,"mai_bas":12.18,"mai_haut":22.13,"mai_ech":"commune","mai_obs":130,"a12":18.32,"a3":14.04,"pxa":3367,"pxm":4371,"napp":35,"nmai":110,"ra":4.68,"rm":3.74},"geometry":{"type":"Polygon","coordinates":[[[5.6391,43.4041],[5.6437,43.4007],[5.6704,43.4],[5.6652,43.3985],[5.6533,43.3876],[5.6385,43.387],[5.6248,43.3927],[5.6194,43.3905],[5.6173,43.3832],[5.6083,43.3765],[5.6035,43.3854],[5.5952,43.3914],[5.5854,43.3966],[5.5818,43.405],[5.6016,43.4079],[5.6105,43.4119],[5.6271,43.41],[5.6391,43.4041]]]}},{"type":"Feature","properties":{"code":"13060","nom":"Meyreuil","app":17.97,"app_bas":15,"app_haut":21.54,"app_ech":"commune","app_obs":573,"mai":18.04,"mai_bas":13.74,"mai_haut":23.67,"mai_ech":"commune","mai_obs":165,"a12":19.81,"a3":15.89,"pxa":4487,"pxm":4389,"napp":89,"nmai":125,"ra":3.94,"rm":4.04},"geometry":{"type":"Polygon","coordinates":[[[5.4691,43.489],[5.4638,43.4998],[5.469,43.5099],[5.4795,43.5126],[5.4881,43.5091],[5.5369,43.5044],[5.5327,43.4829],[5.5208,43.4748],[5.5058,43.4693],[5.4961,43.4633],[5.4821,43.4705],[5.4826,43.4809],[5.4772,43.4867],[5.4691,43.489]]]}},{"type":"Feature","properties":{"code":"13079","nom":"Puyloubier","app":15.4,"app_bas":12.23,"app_haut":19.4,"app_ech":"maille","app_obs":86,"mai":10.09,"mai_bas":7.21,"mai_haut":14.11,"mai_ech":"maille","mai_obs":92,"a12":17.44,"a3":15.4,"pxa":null,"pxm":null,"napp":12,"nmai":29,"ra":null,"rm":null},"geometry":{"type":"Polygon","coordinates":[[[5.6543,43.4907],[5.6282,43.5104],[5.6366,43.5159],[5.635,43.5234],[5.6232,43.5249],[5.6185,43.5317],[5.6233,43.5355],[5.6484,43.5393],[5.6655,43.5387],[5.6857,43.5451],[5.6938,43.5509],[5.7067,43.5562],[5.7251,43.5513],[5.7179,43.5382],[5.7174,43.5222],[5.7129,43.5121],[5.7161,43.5043],[5.7125,43.4986],[5.7018,43.491],[5.6988,43.4822],[5.6853,43.4836],[5.658,43.4911],[5.6543,43.4907]]]}},{"type":"Feature","properties":{"code":"13040","nom":"Fuveau","app":16.9,"app_bas":13.64,"app_haut":20.95,"app_ech":"commune","app_obs":610,"mai":16.06,"mai_bas":11.96,"mai_haut":21.55,"mai_ech":"commune","mai_obs":233,"a12":19.28,"a3":15.36,"pxa":4041,"pxm":3931,"napp":97,"nmai":228,"ra":4.15,"rm":4.08},"geometry":{"type":"Polygon","coordinates":[[[5.5327,43.4829],[5.5714,43.4798],[5.5837,43.476],[5.593,43.4659],[5.5968,43.4705],[5.6113,43.4636],[5.6041,43.4584],[5.5912,43.4526],[5.5875,43.4427],[5.5796,43.4386],[5.5587,43.434],[5.5529,43.44],[5.5295,43.4401],[5.5227,43.4467],[5.4961,43.4633],[5.5058,43.4693],[5.5208,43.4748],[5.5327,43.4829]]]}},{"type":"Feature","properties":{"code":"13077","nom":"Port-de-Bouc","app":14.72,"app_bas":11.53,"app_haut":18.79,"app_ech":"commune","app_obs":891,"mai":13.73,"mai_bas":10.53,"mai_haut":17.9,"mai_ech":"commune","mai_obs":126,"a12":16.61,"a3":12.71,"pxa":1841,"pxm":3256,"napp":246,"nmai":221,"ra":8.09,"rm":4.28},"geometry":{"type":"Polygon","coordinates":[[[4.9808,43.4453],[5.0148,43.438],[5.0214,43.4329],[5.0101,43.4313],[5.004,43.4202],[5.0047,43.4035],[4.9955,43.4035],[4.9776,43.4074],[4.9739,43.4123],[4.9722,43.4219],[4.9801,43.4349],[4.9808,43.4453]]]}},{"type":"Feature","properties":{"code":"13094","nom":"Saint-Étienne-du-Grès","app":14.47,"app_bas":11.74,"app_haut":17.84,"app_ech":"maille","app_obs":55,"mai":13.2,"mai_bas":9.69,"mai_haut":17.99,"mai_ech":"commune","mai_obs":113,"a12":17.83,"a3":14.35,"pxa":null,"pxm":3500,"napp":21,"nmai":57,"ra":null,"rm":3.82},"geometry":{"type":"Polygon","coordinates":[[[4.7729,43.7824],[4.7703,43.7602],[4.7626,43.7611],[4.739,43.7583],[4.7334,43.7542],[4.7066,43.7589],[4.7052,43.7716],[4.7017,43.7816],[4.7119,43.796],[4.7134,43.8134],[4.7188,43.8174],[4.732,43.8199],[4.7419,43.8168],[4.7502,43.8175],[4.7645,43.7985],[4.7675,43.7962],[4.7545,43.79],[4.7591,43.7812],[4.7729,43.7824]]]}},{"type":"Feature","properties":{"code":"13216","nom":"Marseille 16e  Arrondissement","app":16.13,"app_bas":12.38,"app_haut":21.02,"app_ech":"commune","app_obs":1228,"mai":13.74,"mai_bas":10.14,"mai_haut":18.62,"mai_ech":"commune","mai_obs":232,"a12":17.84,"a3":15.06,"pxa":2733,"pxm":3462,"napp":312,"nmai":225,"ra":5.89,"rm":4.02},"geometry":{"type":"Polygon","coordinates":[[[5.3323,43.3714],[5.3453,43.3634],[5.3519,43.3512],[5.3452,43.3466],[5.3481,43.3421],[5.3375,43.3395],[5.341,43.3448],[5.3319,43.35],[5.3173,43.3551],[5.311,43.3609],[5.2965,43.3596],[5.2822,43.3537],[5.2781,43.3643],[5.284,43.3751],[5.2788,43.3805],[5.297,43.389],[5.3246,43.3713],[5.3323,43.3714]]]}},{"type":"Feature","properties":{"code":"13017","nom":"Boulbon","app":12,"app_bas":9.52,"app_haut":15.12,"app_ech":"maille","app_obs":60,"mai":11.24,"mai_bas":8.77,"mai_haut":14.4,"mai_ech":"maille","mai_obs":51,"a12":14.26,"a3":12.7,"pxa":null,"pxm":3175,"napp":4,"nmai":47,"ra":null,"rm":3.67},"geometry":{"type":"Polygon","coordinates":[[[4.6681,43.8475],[4.6719,43.8557],[4.6624,43.8708],[4.6654,43.8751],[4.6905,43.8839],[4.6972,43.8875],[4.7093,43.898],[4.7199,43.882],[4.7278,43.8808],[4.7287,43.8659],[4.7209,43.8603],[4.7211,43.8535],[4.6982,43.8454],[4.6867,43.845],[4.6681,43.8475]]]}},{"type":"Feature","properties":{"code":"13042","nom":"Gémenos","app":17.16,"app_bas":13.27,"app_haut":22.19,"app_ech":"commune","app_obs":371,"mai":17.35,"mai_bas":12.61,"mai_haut":23.87,"mai_ech":"commune","mai_obs":116,"a12":19.62,"a3":16.76,"pxa":4109,"pxm":5313,"napp":43,"nmai":123,"ra":4.14,"rm":3.23},"geometry":{"type":"Polygon","coordinates":[[[5.6153,43.2701],[5.6089,43.2848],[5.608,43.2995],[5.6103,43.313],[5.6096,43.3238],[5.6189,43.3228],[5.6362,43.3267],[5.6579,43.3189],[5.6692,43.3194],[5.6839,43.3181],[5.6954,43.3105],[5.6947,43.3031],[5.679,43.2993],[5.6779,43.2925],[5.6637,43.278],[5.657,43.267],[5.6284,43.2702],[5.6153,43.2701]]]}},{"type":"Feature","properties":{"code":"13064","nom":"Mollégès","app":13.88,"app_bas":10.84,"app_haut":17.76,"app_ech":"commune","app_obs":105,"mai":13.51,"mai_bas":10.12,"mai_haut":18.04,"mai_ech":"maille","mai_obs":98,"a12":17.37,"a3":10.48,"pxa":null,"pxm":3529,"napp":5,"nmai":63,"ra":null,"rm":3.88},"geometry":{"type":"Polygon","coordinates":[[[4.9727,43.82],[4.9845,43.8016],[4.9668,43.7919],[4.9456,43.7869],[4.9342,43.7956],[4.9096,43.8032],[4.9085,43.812],[4.9234,43.8133],[4.9397,43.818],[4.9727,43.82]]]}},{"type":"Feature","properties":{"code":"13106","nom":"Septèmes-les-Vallons","app":16.64,"app_bas":13.72,"app_haut":20.17,"app_ech":"commune","app_obs":655,"mai":14.91,"mai_bas":11.01,"mai_haut":20.2,"mai_ech":"commune","mai_obs":170,"a12":19.86,"a3":14.67,"pxa":2987,"pxm":3574,"napp":181,"nmai":192,"ra":5.54,"rm":4.22},"geometry":{"type":"Polygon","coordinates":[[[5.3927,43.4165],[5.3971,43.4008],[5.4246,43.3834],[5.4154,43.3788],[5.3916,43.3721],[5.3815,43.3702],[5.3757,43.3721],[5.3784,43.3843],[5.3685,43.3896],[5.3504,43.3825],[5.343,43.4008],[5.3478,43.4088],[5.3606,43.409],[5.3793,43.4146],[5.3927,43.4165]]]}},{"type":"Feature","properties":{"code":"13011","nom":"Baux-de-Provence","app":15.26,"app_bas":11.98,"app_haut":19.44,"app_ech":"maille","app_obs":52,"mai":12.55,"mai_bas":9.2,"mai_haut":17.12,"mai_ech":"maille","mai_obs":3,"a12":17.83,"a3":11.65,"pxa":null,"pxm":null,"napp":16,"nmai":14,"ra":null,"rm":null},"geometry":{"type":"Polygon","coordinates":[[[4.7974,43.7302],[4.7898,43.733],[4.777,43.7327],[4.7668,43.7291],[4.7739,43.748],[4.7703,43.7602],[4.7798,43.7612],[4.7866,43.7657],[4.8007,43.7646],[4.8153,43.7586],[4.8325,43.7532],[4.8325,43.7462],[4.8424,43.7399],[4.8423,43.7343],[4.832,43.7292],[4.807,43.7292],[4.7974,43.7302]]]}},{"type":"Feature","properties":{"code":"13054","nom":"Marignane","app":15.47,"app_bas":12.51,"app_haut":19.12,"app_ech":"commune","app_obs":3126,"mai":14.87,"mai_bas":11.25,"mai_haut":19.66,"mai_ech":"commune","mai_obs":367,"a12":18.79,"a3":13.25,"pxa":2407,"pxm":3785,"napp":743,"nmai":408,"ra":6.46,"rm":3.97},"geometry":{"type":"Polygon","coordinates":[[[5.1719,43.4186],[5.1913,43.4349],[5.2084,43.4454],[5.2205,43.4492],[5.239,43.4231],[5.2265,43.4202],[5.2338,43.4131],[5.255,43.4085],[5.2639,43.402],[5.2437,43.3986],[5.207,43.3955],[5.1961,43.3925],[5.1888,43.3958],[5.1858,43.4052],[5.1719,43.4186]]]}},{"type":"Feature","properties":{"code":"13082","nom":"Rognes","app":15.3,"app_bas":11.96,"app_haut":19.58,"app_ech":"commune","app_obs":298,"mai":13.3,"mai_bas":9.74,"mai_haut":18.17,"mai_ech":"commune","mai_obs":172,"a12":17.55,"a3":14.15,"pxa":2833,"pxm":2989,"napp":32,"nmai":119,"ra":5.44,"rm":4.51},"geometry":{"type":"Polygon","coordinates":[[[5.4113,43.6227],[5.385,43.6256],[5.3653,43.6249],[5.3494,43.6266],[5.3175,43.6381],[5.3076,43.6549],[5.3022,43.6857],[5.298,43.6905],[5.3098,43.6957],[5.3219,43.7063],[5.3424,43.7099],[5.3555,43.7062],[5.3679,43.7066],[5.3708,43.6917],[5.3816,43.6878],[5.3963,43.6761],[5.3959,43.6663],[5.3984,43.6594],[5.3928,43.6503],[5.4006,43.6391],[5.406,43.6279],[5.4113,43.6227]]]}},{"type":"Feature","properties":{"code":"13069","nom":"Pélissanne","app":14.76,"app_bas":12.09,"app_haut":18.02,"app_ech":"commune","app_obs":967,"mai":14.89,"mai_bas":10.84,"mai_haut":20.45,"mai_ech":"commune","mai_obs":405,"a12":18.19,"a3":13.93,"pxa":3444,"pxm":3781,"napp":109,"nmai":283,"ra":4.34,"rm":3.98},"geometry":{"type":"Polygon","coordinates":[[[5.1811,43.6576],[5.1827,43.6414],[5.1814,43.6345],[5.1657,43.6283],[5.1659,43.6247],[5.1863,43.618],[5.1947,43.6129],[5.1964,43.6011],[5.1638,43.6107],[5.1423,43.6125],[5.14,43.6191],[5.13,43.6221],[5.1317,43.6302],[5.1278,43.6412],[5.1392,43.6539],[5.1543,43.6509],[5.1811,43.6576]]]}}]}