{"type":"FeatureCollection","features":[{"type":"Feature","properties":{"code":"2A100","nom":"Cristinacce","app":11.65,"app_bas":9.27,"app_haut":14.65,"app_ech":"maille","app_obs":0,"mai":11.53,"mai_bas":9.02,"mai_haut":14.75,"mai_ech":"maille","mai_obs":0,"a12":16.94,"a3":12.06},"geometry":{"type":"Polygon","coordinates":[[[8.8485,42.2197],[8.8248,42.2233],[8.8191,42.2216],[8.8105,42.2304],[8.8132,42.2392],[8.8245,42.2404],[8.8328,42.2521],[8.8535,42.256],[8.8645,42.2637],[8.8819,42.2717],[8.9048,42.2539],[8.8818,42.2471],[8.8735,42.2411],[8.8694,42.2322],[8.8626,42.2247],[8.8485,42.2197]]]}},{"type":"Feature","properties":{"code":"2A031","nom":"Bastelica","app":12.42,"app_bas":9.87,"app_haut":15.63,"app_ech":"maille","app_obs":14,"mai":11.17,"mai_bas":8.72,"mai_haut":14.31,"mai_ech":"maille","mai_obs":9,"a12":13.2,"a3":12.74},"geometry":{"type":"Polygon","coordinates":[[[8.9506,41.9211],[8.9502,41.931],[8.9629,41.9323],[8.9814,41.9443],[8.9842,41.9493],[8.9817,41.9559],[8.9915,41.9624],[8.999,41.9761],[9.0043,41.9819],[8.9931,41.9943],[8.9882,41.9969],[8.9756,41.9978],[8.9742,42.0047],[8.9784,42.0102],[9.0025,42.0203],[9.0148,42.0304],[9.0207,42.0415],[9.0303,42.0344],[9.0434,42.0346],[9.0502,42.0372],[9.0629,42.0372],[9.0805,42.0434],[9.0895,42.0409],[9.1034,42.0446],[9.1191,42.0545],[9.1336,42.0594],[9.1353,42.0511],[9.1481,42.041],[9.1602,42.0268],[9.1565,42.0252],[9.1466,42.0107],[9.1102,41.9912],[9.1033,41.986],[9.0976,41.9781],[9.0854,41.9736],[9.0806,41.9659],[9.0741,41.9626],[9.0656,41.9632],[9.0532,41.9594],[9.0461,41.949],[9.0324,41.9351],[9.0225,41.9284],[9.0064,41.9156],[8.988,41.9089],[8.9594,41.8968],[8.9521,41.9037],[8.9506,41.9211]]]}},{"type":"Feature","properties":{"code":"2A254","nom":"Quenza","app":11.84,"app_bas":9.72,"app_haut":14.41,"app_ech":"maille","app_obs":0,"mai":11.17,"mai_bas":8.72,"mai_haut":14.31,"mai_ech":"maille","mai_obs":1,"a12":16.36,"a3":12.74},"geometry":{"type":"Polygon","coordinates":[[[9.1635,41.8389],[9.1769,41.8415],[9.1931,41.8366],[9.2088,41.8516],[9.2275,41.8556],[9.2369,41.8465],[9.2446,41.8504],[9.2494,41.8463],[9.2597,41.8452],[9.2707,41.8406],[9.2879,41.8439],[9.3025,41.8442],[9.3074,41.8414],[9.3091,41.8321],[9.2977,41.8228],[9.2823,41.8151],[9.2724,41.8077],[9.2649,41.8052],[9.2423,41.7857],[9.2317,41.7745],[9.2299,41.7853],[9.2255,41.7917],[9.2183,41.7938],[9.1971,41.777],[9.1797,41.7713],[9.1636,41.7624],[9.1475,41.746],[9.1368,41.7382],[9.129,41.7338],[9.1247,41.7378],[9.1289,41.7473],[9.1286,41.761],[9.1312,41.7688],[9.1238,41.7744],[9.1225,41.7876],[9.1249,41.7972],[9.1364,41.816],[9.1528,41.8328],[9.1635,41.8389]]]}},{"type":"Feature","properties":{"code":"2A119","nom":"Frasseto","app":13.27,"app_bas":10.39,"app_haut":16.96,"app_ech":"maille","app_obs":0,"mai":10.56,"mai_bas":7.21,"mai_haut":15.48,"mai_ech":"maille","mai_obs":0,"a12":15.92,"a3":11.41},"geometry":{"type":"Polygon","coordinates":[[[9.0532,41.9594],[9.0552,41.957],[9.0649,41.9292],[9.0628,41.9248],[9.0552,41.9152],[9.042,41.9055],[9.0312,41.8939],[9.0297,41.8877],[9.0116,41.879],[9.0069,41.8804],[9.0156,41.8867],[9.0136,41.8964],[9.0228,41.9073],[9.026,41.9148],[9.0225,41.9284],[9.0324,41.9351],[9.0461,41.949],[9.0532,41.9594]]]}},{"type":"Feature","properties":{"code":"2A279","nom":"Serriera","app":12.69,"app_bas":9.84,"app_haut":16.35,"app_ech":"maille","app_obs":0,"mai":9.72,"mai_bas":6.93,"mai_haut":13.64,"mai_ech":"maille","mai_obs":0,"a12":16.94,"a3":12.06},"geometry":{"type":"Polygon","coordinates":[[[8.7248,42.3422],[8.7317,42.3396],[8.7596,42.3364],[8.7709,42.3248],[8.7708,42.3124],[8.7674,42.2909],[8.7554,42.2807],[8.7107,42.2771],[8.699,42.2744],[8.6906,42.2749],[8.6872,42.282],[8.6988,42.2919],[8.7006,42.3028],[8.698,42.3115],[8.7041,42.3275],[8.7166,42.3378],[8.7248,42.3422]]]}},{"type":"Feature","properties":{"code":"2A336","nom":"Valle-di-Mezzana","app":14.42,"app_bas":11.34,"app_haut":18.33,"app_ech":"maille","app_obs":16,"mai":14.63,"mai_bas":9.61,"mai_haut":22.29,"mai_ech":"maille","mai_obs":6,"a12":17.52,"a3":12.23},"geometry":{"type":"Polygon","coordinates":[[[8.7963,42.0236],[8.8057,42.0282],[8.8154,42.0313],[8.8256,42.039],[8.8351,42.0388],[8.8364,42.0169],[8.8248,42.0105],[8.8031,42.0128],[8.7963,42.0236]]]}},{"type":"Feature","properties":{"code":"2A028","nom":"Balogna","app":11.65,"app_bas":9.27,"app_haut":14.65,"app_ech":"maille","app_obs":4,"mai":11.53,"mai_bas":9.02,"mai_haut":14.75,"mai_ech":"maille","mai_obs":0,"a12":17.52,"a3":12.06},"geometry":{"type":"Polygon","coordinates":[[[8.7937,42.2071],[8.7984,42.1951],[8.795,42.1802],[8.7871,42.1694],[8.7759,42.1617],[8.7394,42.1709],[8.7208,42.1745],[8.7134,42.1804],[8.7027,42.1855],[8.7046,42.1916],[8.7112,42.1948],[8.7173,42.202],[8.7194,42.2089],[8.7327,42.2091],[8.7486,42.2061],[8.7638,42.1993],[8.7744,42.2036],[8.7937,42.2071]]]}},{"type":"Feature","properties":{"code":"2A056","nom":"Campo","app":13.27,"app_bas":10.39,"app_haut":16.96,"app_ech":"maille","app_obs":6,"mai":11.17,"mai_bas":8.72,"mai_haut":14.31,"mai_ech":"maille","mai_obs":1,"a12":15.92,"a3":11.41},"geometry":{"type":"Polygon","coordinates":[[[8.9884,41.9002],[9.0029,41.8963],[9.0136,41.8964],[9.0156,41.8867],[9.0092,41.8825],[8.9996,41.8812],[8.9888,41.8896],[8.9884,41.9002]]]}},{"type":"Feature","properties":{"code":"2A115","nom":"Foce","app":12.42,"app_bas":9.87,"app_haut":15.63,"app_ech":"maille","app_obs":3,"mai":10.56,"mai_bas":7.21,"mai_haut":15.48,"mai_ech":"maille","mai_obs":5,"a12":15.92,"a3":12.74},"geometry":{"type":"Polygon","coordinates":[[[9.0458,41.6095],[9.039,41.6093],[9.0248,41.5982],[9.0132,41.6037],[8.9933,41.6021],[8.9974,41.6154],[8.992,41.6202],[9.0102,41.6313],[9.0268,41.6275],[9.0286,41.6348],[9.035,41.6345],[9.0533,41.6429],[9.0628,41.6385],[9.0803,41.65],[9.0771,41.6321],[9.0737,41.623],[9.0603,41.615],[9.0458,41.6095]]]}},{"type":"Feature","properties":{"code":"2A228","nom":"Pietrosella","app":19.25,"app_bas":14.6,"app_haut":25.39,"app_ech":"commune","app_obs":118,"mai":14.63,"mai_bas":9.61,"mai_haut":22.29,"mai_ech":"maille","mai_obs":23,"a12":17.52,"a3":12.74},"geometry":{"type":"Polygon","coordinates":[[[8.7713,41.8112],[8.7748,41.825],[8.7824,41.8285],[8.7821,41.8337],[8.7708,41.8365],[8.7678,41.8459],[8.7841,41.8482],[8.7896,41.8531],[8.8011,41.8525],[8.8169,41.8577],[8.8342,41.8521],[8.8342,41.8476],[8.8452,41.8492],[8.8604,41.8226],[8.8602,41.8193],[8.8357,41.8073],[8.8298,41.7987],[8.821,41.7911],[8.8023,41.8037],[8.7885,41.8097],[8.7713,41.8112]]]}},{"type":"Feature","properties":{"code":"2A249","nom":"Propriano","app":17.42,"app_bas":13.6,"app_haut":22.32,"app_ech":"commune","app_obs":504,"mai":10.56,"mai_bas":7.21,"mai_haut":15.48,"mai_ech":"maille","mai_obs":38,"a12":18.47,"a3":13.59},"geometry":{"type":"Polygon","coordinates":[[[8.8866,41.6266],[8.8685,41.6198],[8.8587,41.6235],[8.8674,41.6374],[8.8695,41.6461],[8.8773,41.6525],[8.8809,41.6681],[8.8929,41.6741],[8.908,41.677],[8.9158,41.6816],[8.919,41.6807],[8.9199,41.6696],[8.9189,41.6552],[8.9195,41.6391],[8.914,41.6337],[8.9096,41.637],[8.8962,41.6382],[8.8866,41.6266]]]}},{"type":"Feature","properties":{"code":"2A357","nom":"Zérubia","app":12.42,"app_bas":9.87,"app_haut":15.63,"app_ech":"maille","app_obs":0,"mai":10.56,"mai_bas":7.21,"mai_haut":15.48,"mai_ech":"maille","mai_obs":0,"a12":16.36,"a3":11.41},"geometry":{"type":"Polygon","coordinates":[[[9.0822,41.7645],[9.083,41.745],[9.0742,41.7415],[9.0786,41.7315],[9.0699,41.7287],[9.056,41.7209],[9.0571,41.7409],[9.0507,41.7477],[9.0266,41.7518],[9.0242,41.7584],[9.0346,41.7708],[9.0421,41.771],[9.0592,41.7639],[9.0822,41.7645]]]}},{"type":"Feature","properties":{"code":"2A091","nom":"Cognocoli-Monticchi","app":13.27,"app_bas":10.39,"app_haut":16.96,"app_ech":"maille","app_obs":3,"mai":10.56,"mai_bas":7.21,"mai_haut":15.48,"mai_ech":"maille","mai_obs":2,"a12":15.92,"a3":11.41},"geometry":{"type":"Polygon","coordinates":[[[8.821,41.7911],[8.8298,41.7987],[8.8357,41.8073],[8.8602,41.8193],[8.8604,41.8226],[8.865,41.8273],[8.8729,41.8279],[8.8775,41.837],[8.8871,41.8401],[8.8986,41.855],[8.9044,41.8542],[8.908,41.8453],[8.9125,41.8444],[8.9133,41.8227],[8.9063,41.8197],[8.8976,41.8105],[8.8885,41.8084],[8.8776,41.7942],[8.8723,41.781],[8.8617,41.7774],[8.8625,41.7662],[8.8681,41.7605],[8.8573,41.7545],[8.8438,41.7603],[8.8244,41.7632],[8.8216,41.7746],[8.8294,41.7836],[8.821,41.7911]]]}},{"type":"Feature","properties":{"code":"2A351","nom":"Villanova","app":14.42,"app_bas":11.34,"app_haut":18.33,"app_ech":"maille","app_obs":5,"mai":14.63,"mai_bas":9.61,"mai_haut":22.29,"mai_ech":"maille","mai_obs":5,"a12":17.52,"a3":12.23},"geometry":{"type":"Polygon","coordinates":[[[8.6684,41.9821],[8.6753,41.9773],[8.689,41.9738],[8.6956,41.959],[8.7006,41.9533],[8.6797,41.9468],[8.6693,41.9473],[8.6661,41.952],[8.6486,41.9616],[8.6265,41.9645],[8.6229,41.9705],[8.639,41.9675],[8.6461,41.9681],[8.6578,41.9742],[8.6684,41.9821]]]}},{"type":"Feature","properties":{"code":"2A197","nom":"Osani","app":12.69,"app_bas":9.84,"app_haut":16.35,"app_ech":"maille","app_obs":3,"mai":9.72,"mai_bas":6.93,"mai_haut":13.64,"mai_ech":"maille","mai_obs":0,"a12":16.94,"a3":12.06},"geometry":{"type":"Polygon","coordinates":[[[8.6835,42.348],[8.6702,42.3328],[8.6762,42.3272],[8.6776,42.3187],[8.6721,42.3073],[8.6605,42.3023],[8.6487,42.3027],[8.6399,42.2994],[8.6304,42.3106],[8.6255,42.3123],[8.6104,42.3084],[8.5974,42.3161],[8.6046,42.3227],[8.6216,42.3275],[8.628,42.3323],[8.6264,42.3402],[8.6183,42.3407],[8.6119,42.3469],[8.6002,42.353],[8.5915,42.3528],[8.5816,42.3475],[8.5739,42.3384],[8.5649,42.3332],[8.5533,42.333],[8.5588,42.3438],[8.5518,42.3474],[8.5559,42.3647],[8.5432,42.367],[8.5479,42.3794],[8.5576,42.3708],[8.5667,42.3707],[8.5783,42.3755],[8.5734,42.3814],[8.5869,42.379],[8.5917,42.3729],[8.6,42.3693],[8.61,42.3736],[8.6202,42.3723],[8.6408,42.3734],[8.6504,42.3624],[8.6597,42.3594],[8.6749,42.3605],[8.682,42.3585],[8.6835,42.348]]]}},{"type":"Feature","properties":{"code":"2A276","nom":"Serra-di-Ferro","app":15.04,"app_bas":11.42,"app_haut":19.8,"app_ech":"maille","app_obs":5,"mai":14.63,"mai_bas":9.61,"mai_haut":22.29,"mai_ech":"maille","mai_obs":2,"a12":17.52,"a3":12.74},"geometry":{"type":"Polygon","coordinates":[[[8.8254,41.7094],[8.8127,41.7141],[8.7938,41.7079],[8.773,41.7119],[8.7741,41.7216],[8.7786,41.7219],[8.784,41.7354],[8.7899,41.7589],[8.8002,41.7716],[8.8177,41.7811],[8.8236,41.7894],[8.8294,41.7836],[8.8216,41.7746],[8.8244,41.7632],[8.8438,41.7603],[8.8573,41.7545],[8.8562,41.7437],[8.824,41.7208],[8.8285,41.7161],[8.8254,41.7094]]]}},{"type":"Feature","properties":{"code":"2A285","nom":"Sorbollano","app":13.27,"app_bas":10.39,"app_haut":16.96,"app_ech":"maille","app_obs":0,"mai":10.56,"mai_bas":7.21,"mai_haut":15.48,"mai_ech":"maille","mai_obs":0,"a12":16.36,"a3":11.41},"geometry":{"type":"Polygon","coordinates":[[[9.1238,41.7744],[9.1312,41.7688],[9.1286,41.761],[9.1289,41.7473],[9.1247,41.7378],[9.0984,41.7305],[9.0965,41.7389],[9.1116,41.7617],[9.1238,41.7744]]]}},{"type":"Feature","properties":{"code":"2A200","nom":"Palneca","app":11.84,"app_bas":9.72,"app_haut":14.41,"app_ech":"maille","app_obs":0,"mai":11.17,"mai_bas":8.72,"mai_haut":14.31,"mai_ech":"maille","mai_obs":0,"a12":15.92,"a3":10.66},"geometry":{"type":"Polygon","coordinates":[[[9.1664,41.9541],[9.1623,41.9657],[9.1619,41.977],[9.1539,41.9815],[9.1607,41.9987],[9.154,42.0023],[9.1466,42.0107],[9.1565,42.0252],[9.1602,42.0268],[9.1884,42.0311],[9.1947,42.0285],[9.2211,42.0276],[9.2189,42.0078],[9.2152,41.9936],[9.2202,41.9896],[9.2203,41.982],[9.2248,41.9565],[9.2227,41.9495],[9.1975,41.9572],[9.1815,41.9545],[9.1664,41.9541]]]}},{"type":"Feature","properties":{"code":"2A209","nom":"Peri","app":12.42,"app_bas":9.87,"app_haut":15.63,"app_ech":"maille","app_obs":47,"mai":14.63,"mai_bas":9.61,"mai_haut":22.29,"mai_ech":"maille","mai_obs":89,"a12":17.52,"a3":12.23},"geometry":{"type":"Polygon","coordinates":[[[8.9742,42.0047],[8.9467,41.9891],[8.9284,41.9919],[8.8947,41.9997],[8.883,42.0007],[8.8667,41.9904],[8.8426,41.9823],[8.8423,41.9859],[8.8494,42.0011],[8.8669,42.015],[8.8763,42.0148],[8.8834,42.011],[8.893,42.0167],[8.9104,42.0165],[8.9389,42.014],[8.9528,42.0197],[8.9628,42.0196],[8.9784,42.0102],[8.9742,42.0047]]]}},{"type":"Feature","properties":{"code":"2A262","nom":"Rosazia","app":14.6,"app_bas":11.37,"app_haut":18.74,"app_ech":"maille","app_obs":0,"mai":14.63,"mai_bas":9.61,"mai_haut":22.29,"mai_ech":"maille","mai_obs":0,"a12":16.94,"a3":10.3},"geometry":{"type":"Polygon","coordinates":[[[8.8869,42.1479],[8.8927,42.1477],[8.8973,42.1412],[8.8932,42.1362],[8.8946,42.131],[8.8912,42.1251],[8.8717,42.1047],[8.8699,42.0989],[8.8588,42.1001],[8.8477,42.1097],[8.8396,42.1132],[8.8209,42.1164],[8.8212,42.1194],[8.8344,42.1309],[8.8375,42.1392],[8.8709,42.1443],[8.8869,42.1479]]]}},{"type":"Feature","properties":{"code":"2A284","nom":"Sollacaro","app":13.27,"app_bas":10.39,"app_haut":16.96,"app_ech":"maille","app_obs":19,"mai":10.56,"mai_bas":7.21,"mai_haut":15.48,"mai_ech":"maille","mai_obs":5,"a12":15.92,"a3":11.41},"geometry":{"type":"Polygon","coordinates":[[[8.8681,41.7605],[8.8757,41.7684],[8.8848,41.7647],[8.9005,41.7625],[8.9139,41.7565],[8.9261,41.7476],[8.9212,41.7396],[8.9093,41.7286],[8.8943,41.7287],[8.8827,41.726],[8.8735,41.7217],[8.8553,41.7217],[8.8456,41.7246],[8.8285,41.7161],[8.824,41.7208],[8.8562,41.7437],[8.8573,41.7545],[8.8681,41.7605]]]}},{"type":"Feature","properties":{"code":"2A048","nom":"Calcatoggio","app":14.42,"app_bas":11.34,"app_haut":18.33,"app_ech":"maille","app_obs":35,"mai":14.63,"mai_bas":9.61,"mai_haut":22.29,"mai_ech":"maille","mai_obs":14,"a12":17.52,"a3":12.23},"geometry":{"type":"Polygon","coordinates":[[[8.6566,42.004],[8.6564,42.0093],[8.668,42.0175],[8.6903,42.0276],[8.702,42.0266],[8.7253,42.0344],[8.7227,42.0425],[8.7413,42.0409],[8.747,42.0502],[8.7434,42.0572],[8.754,42.0516],[8.7735,42.0457],[8.789,42.0361],[8.8057,42.0282],[8.7963,42.0236],[8.7737,42.0198],[8.7215,42.0202],[8.7006,42.0174],[8.6744,42.0065],[8.6566,42.004]]]}},{"type":"Feature","properties":{"code":"2A160","nom":"Moca-Croce","app":13.27,"app_bas":10.39,"app_haut":16.96,"app_ech":"maille","app_obs":9,"mai":10.56,"mai_bas":7.21,"mai_haut":15.48,"mai_ech":"maille","mai_obs":4,"a12":15.92,"a3":11.41},"geometry":{"type":"Polygon","coordinates":[[[9.0046,41.8264],[9.0054,41.8215],[9.0128,41.815],[9.0315,41.808],[9.046,41.7901],[9.0491,41.7903],[9.0485,41.787],[9.0376,41.7821],[9.0346,41.7708],[9.0242,41.7584],[9.0266,41.7518],[9.0185,41.7523],[9.0074,41.7396],[8.9886,41.728],[8.9863,41.7317],[9.0048,41.7463],[8.9959,41.7563],[9.0094,41.7692],[9.0056,41.7796],[8.9975,41.7924],[8.9814,41.8032],[8.9697,41.8054],[8.9625,41.8089],[8.9727,41.8106],[8.979,41.8178],[8.9924,41.8201],[9.0046,41.8264]]]}},{"type":"Feature","properties":{"code":"2A186","nom":"Olivese","app":12.42,"app_bas":9.87,"app_haut":15.63,"app_ech":"maille","app_obs":2,"mai":11.17,"mai_bas":8.72,"mai_haut":14.31,"mai_ech":"maille","mai_obs":3,"a12":16.36,"a3":12.74},"geometry":{"type":"Polygon","coordinates":[[[9.0606,41.8041],[9.054,41.8088],[9.047,41.8179],[9.022,41.8376],[9.0307,41.8418],[9.0363,41.8531],[9.0471,41.8603],[9.0521,41.8596],[9.0644,41.8689],[9.0799,41.863],[9.0866,41.8631],[9.1149,41.8549],[9.1184,41.8563],[9.1115,41.8438],[9.0874,41.8228],[9.0693,41.817],[9.0606,41.8041]]]}},{"type":"Feature","properties":{"code":"2A268","nom":"Sampolo","app":11.84,"app_bas":9.72,"app_haut":14.41,"app_ech":"maille","app_obs":0,"mai":10.56,"mai_bas":7.21,"mai_haut":15.48,"mai_ech":"maille","mai_obs":0,"a12":16.36,"a3":10.66},"geometry":{"type":"Polygon","coordinates":[[[9.127,41.9285],[9.1072,41.9283],[9.1131,41.9417],[9.1149,41.9622],[9.1079,41.9715],[9.1101,41.9744],[9.1279,41.9624],[9.1364,41.9467],[9.127,41.9285]]]}},{"type":"Feature","properties":{"code":"2A098","nom":"Coti-Chiavari","app":15.04,"app_bas":11.42,"app_haut":19.8,"app_ech":"maille","app_obs":6,"mai":14.63,"mai_bas":9.61,"mai_haut":22.29,"mai_ech":"maille","mai_obs":7,"a12":17.52,"a3":12.74},"geometry":{"type":"Polygon","coordinates":[[[8.7713,41.8112],[8.7885,41.8097],[8.8023,41.8037],[8.8236,41.7894],[8.8177,41.7811],[8.8002,41.7716],[8.7899,41.7589],[8.784,41.7354],[8.7725,41.7415],[8.7601,41.7384],[8.7366,41.7294],[8.7255,41.7275],[8.7172,41.7228],[8.7092,41.7223],[8.703,41.726],[8.7076,41.7362],[8.6976,41.7413],[8.682,41.7399],[8.6718,41.7437],[8.6586,41.7418],[8.6597,41.7495],[8.6683,41.7529],[8.6845,41.747],[8.6946,41.7512],[8.7044,41.7579],[8.7131,41.7608],[8.7191,41.7677],[8.7301,41.7759],[8.7272,41.7871],[8.7196,41.7889],[8.7175,41.7949],[8.7093,41.7994],[8.7172,41.8037],[8.7212,41.7978],[8.7409,41.7987],[8.74,41.8027],[8.7483,41.8108],[8.7575,41.809],[8.7713,41.8112]]]}},{"type":"Feature","properties":{"code":"2A114","nom":"Figari","app":15.24,"app_bas":11.88,"app_haut":19.55,"app_ech":"maille","app_obs":26,"mai":10.56,"mai_bas":7.21,"mai_haut":15.48,"mai_ech":"maille","mai_obs":35,"a12":16.36,"a3":11.41},"geometry":{"type":"Polygon","coordinates":[[[9.112,41.5961],[9.1226,41.5829],[9.1338,41.5659],[9.1479,41.5562],[9.1653,41.5487],[9.1755,41.5281],[9.1685,41.5211],[9.1657,41.5102],[9.174,41.504],[9.1871,41.4994],[9.1913,41.4952],[9.1783,41.4803],[9.1686,41.4739],[9.1646,41.4666],[9.1402,41.4565],[9.138,41.4665],[9.1208,41.4739],[9.0996,41.4736],[9.0916,41.4611],[9.0987,41.4567],[9.0954,41.4496],[9.0822,41.442],[9.0743,41.4429],[9.0664,41.451],[9.0704,41.4669],[9.0799,41.4775],[9.0807,41.4858],[9.0764,41.4981],[9.0762,41.5068],[9.0831,41.5172],[9.0739,41.5244],[9.0685,41.5247],[9.0631,41.5316],[9.066,41.5421],[9.0806,41.5586],[9.0948,41.5713],[9.0883,41.5767],[9.0866,41.5848],[9.0954,41.5855],[9.1044,41.5942],[9.112,41.5961]]]}},{"type":"Feature","properties":{"code":"2A128","nom":"Granace","app":13.27,"app_bas":10.39,"app_haut":16.96,"app_ech":"maille","app_obs":0,"mai":10.56,"mai_bas":7.21,"mai_haut":15.48,"mai_ech":"maille","mai_obs":1,"a12":16.36,"a3":11.41},"geometry":{"type":"Polygon","coordinates":[[[9.0102,41.6313],[8.996,41.6466],[9.0012,41.6519],[9.0123,41.6531],[9.0141,41.644],[9.0286,41.6348],[9.0268,41.6275],[9.0102,41.6313]]]}},{"type":"Feature","properties":{"code":"2A032","nom":"Bastelicaccia","app":16.56,"app_bas":12.57,"app_haut":21.82,"app_ech":"commune","app_obs":326,"mai":15.68,"mai_bas":10.29,"mai_haut":23.89,"mai_ech":"commune","mai_obs":109,"a12":18.46,"a3":13.71},"geometry":{"type":"Polygon","coordinates":[[[8.872,41.9539],[8.8606,41.9454],[8.8535,41.9429],[8.8556,41.9358],[8.8637,41.9263],[8.8375,41.9118],[8.8306,41.9137],[8.8192,41.9072],[8.8068,41.9058],[8.8023,41.9077],[8.8205,41.9201],[8.8136,41.9325],[8.821,41.9485],[8.8176,41.9514],[8.8222,41.9598],[8.8259,41.9612],[8.8463,41.9578],[8.8596,41.9573],[8.872,41.9539]]]}},{"type":"Feature","properties":{"code":"2A247","nom":"Porto-Vecchio","app":16.26,"app_bas":12.68,"app_haut":20.84,"app_ech":"commune","app_obs":791,"mai":13.86,"mai_bas":9.46,"mai_haut":20.31,"mai_ech":"commune","mai_obs":273,"a12":19.93,"a3":15.62},"geometry":{"type":"Polygon","coordinates":[[[9.3136,41.6286],[9.3045,41.6247],[9.306,41.6175],[9.297,41.6109],[9.2883,41.6091],[9.2865,41.6006],[9.2825,41.5964],[9.2864,41.5895],[9.2957,41.5833],[9.3084,41.594],[9.3131,41.6011],[9.3215,41.6048],[9.3351,41.602],[9.3408,41.5955],[9.3471,41.5944],[9.3686,41.5969],[9.3678,41.5911],[9.361,41.5889],[9.3534,41.5779],[9.3482,41.5754],[9.3502,41.5662],[9.3409,41.5592],[9.3342,41.5601],[9.324,41.5572],[9.3023,41.5452],[9.2876,41.5302],[9.2731,41.5302],[9.2737,41.5225],[9.2839,41.5205],[9.2836,41.5153],[9.2773,41.5061],[9.2689,41.5016],[9.2759,41.4964],[9.2835,41.5001],[9.2877,41.4948],[9.2873,41.4838],[9.2677,41.4859],[9.2599,41.4914],[9.25,41.4868],[9.2423,41.4894],[9.2348,41.5009],[9.2349,41.5157],[9.2394,41.5375],[9.2368,41.5446],[9.2254,41.5583],[9.2184,41.5632],[9.2061,41.5676],[9.1919,41.5762],[9.1862,41.5889],[9.182,41.6032],[9.1706,41.6108],[9.1696,41.6163],[9.1705,41.6435],[9.1638,41.6556],[9.1771,41.666],[9.1933,41.6742],[9.1893,41.6833],[9.2011,41.6862],[9.2133,41.6785],[9.2149,41.6672],[9.2207,41.6612],[9.2341,41.6633],[9.2465,41.659],[9.2579,41.6459],[9.2792,41.6315],[9.2906,41.6409],[9.3091,41.6499],[9.3224,41.6541],[9.3272,41.6474],[9.3293,41.6337],[9.3221,41.6279],[9.3136,41.6286]]]}},{"type":"Feature","properties":{"code":"2A014","nom":"Ambiegna","app":14.6,"app_bas":11.37,"app_haut":18.74,"app_ech":"maille","app_obs":0,"mai":14.63,"mai_bas":9.61,"mai_haut":22.29,"mai_ech":"maille","mai_obs":0,"a12":16.94,"a3":10.3},"geometry":{"type":"Polygon","coordinates":[[[8.7989,42.0834],[8.787,42.0783],[8.7724,42.0815],[8.7371,42.0836],[8.7399,42.0867],[8.757,42.0913],[8.7675,42.096],[8.7742,42.1019],[8.7791,42.0962],[8.7969,42.0877],[8.7989,42.0834]]]}},{"type":"Feature","properties":{"code":"2A085","nom":"Cauro","app":16.07,"app_bas":12.76,"app_haut":20.24,"app_ech":"commune","app_obs":118,"mai":14.63,"mai_bas":9.61,"mai_haut":22.29,"mai_ech":"maille","mai_obs":25,"a12":13.2,"a3":12.23},"geometry":{"type":"Polygon","coordinates":[[[8.8375,41.9118],[8.8412,41.9065],[8.8499,41.9039],[8.8762,41.9163],[8.8954,41.9203],[8.921,41.9186],[8.9506,41.9211],[8.9521,41.9037],[8.9455,41.8999],[8.9447,41.8935],[8.933,41.8891],[8.9279,41.8953],[8.9179,41.8945],[8.8972,41.8884],[8.8871,41.8874],[8.8675,41.8932],[8.8419,41.8863],[8.8336,41.8921],[8.8299,41.9042],[8.8192,41.9072],[8.8306,41.9137],[8.8375,41.9118]]]}},{"type":"Feature","properties":{"code":"2A141","nom":"Letia","app":11.65,"app_bas":9.27,"app_haut":14.65,"app_ech":"maille","app_obs":0,"mai":9.72,"mai_bas":6.93,"mai_haut":13.64,"mai_ech":"maille","mai_obs":0,"a12":16.94,"a3":10.83},"geometry":{"type":"Polygon","coordinates":[[[8.9401,42.2372],[8.9295,42.2317],[8.8973,42.2235],[8.8917,42.2199],[8.8823,42.1918],[8.8837,42.1772],[8.8644,42.1797],[8.8429,42.1767],[8.8281,42.1787],[8.82,42.1766],[8.8129,42.1791],[8.8122,42.1849],[8.8174,42.1915],[8.8382,42.1963],[8.8456,42.2036],[8.8485,42.2197],[8.8626,42.2247],[8.8694,42.2322],[8.8735,42.2411],[8.8818,42.2471],[8.9048,42.2539],[8.9199,42.2564],[8.9266,42.2542],[8.9331,42.2504],[8.9401,42.2372]]]}},{"type":"Feature","properties":{"code":"2A104","nom":"Eccica-Suarella","app":15.04,"app_bas":11.42,"app_haut":19.8,"app_ech":"maille","app_obs":32,"mai":14.63,"mai_bas":9.61,"mai_haut":22.29,"mai_ech":"maille","mai_obs":25,"a12":17.52,"a3":12.23},"geometry":{"type":"Polygon","coordinates":[[[8.8637,41.9263],[8.8766,41.9317],[8.8898,41.9294],[8.9037,41.9376],[8.9298,41.9342],[8.9371,41.9308],[8.9502,41.931],[8.9506,41.9211],[8.921,41.9186],[8.8954,41.9203],[8.8762,41.9163],[8.8499,41.9039],[8.8412,41.9065],[8.8375,41.9118],[8.8637,41.9263]]]}},{"type":"Feature","properties":{"code":"2A066","nom":"Cargiaca","app":13.27,"app_bas":10.39,"app_haut":16.96,"app_ech":"maille","app_obs":1,"mai":10.56,"mai_bas":7.21,"mai_haut":15.48,"mai_ech":"maille","mai_obs":0,"a12":16.36,"a3":11.41},"geometry":{"type":"Polygon","coordinates":[[[9.0254,41.7186],[9.0192,41.7244],[9.036,41.7501],[9.0507,41.7477],[9.0571,41.7409],[9.056,41.7209],[9.0495,41.7119],[9.0416,41.7103],[9.046,41.7221],[9.0315,41.7227],[9.0254,41.7186]]]}},{"type":"Feature","properties":{"code":"2A129","nom":"Grossa","app":13.27,"app_bas":10.39,"app_haut":16.96,"app_ech":"maille","app_obs":4,"mai":10.56,"mai_bas":7.21,"mai_haut":15.48,"mai_ech":"maille","mai_obs":1,"a12":15.92,"a3":11.41},"geometry":{"type":"Polygon","coordinates":[[[8.8866,41.6266],[8.8966,41.6208],[8.8909,41.6077],[8.9011,41.605],[8.8946,41.5934],[8.8678,41.586],[8.8328,41.584],[8.8143,41.5876],[8.8305,41.5978],[8.8404,41.6017],[8.8513,41.613],[8.8587,41.6235],[8.8685,41.6198],[8.8866,41.6266]]]}},{"type":"Feature","properties":{"code":"2A132","nom":"Guargualé","app":15.04,"app_bas":11.42,"app_haut":19.8,"app_ech":"maille","app_obs":1,"mai":10.56,"mai_bas":7.21,"mai_haut":15.48,"mai_ech":"maille","mai_obs":0,"a12":15.92,"a3":11.41},"geometry":{"type":"Polygon","coordinates":[[[8.9133,41.8227],[8.9125,41.8444],[8.9172,41.8538],[8.9299,41.8526],[8.9397,41.8446],[8.9418,41.841],[8.9331,41.8297],[8.9449,41.8183],[8.9452,41.8112],[8.9379,41.8083],[8.9372,41.7981],[8.929,41.7954],[8.924,41.8134],[8.9133,41.8227]]]}},{"type":"Feature","properties":{"code":"2A191","nom":"Olmiccia","app":13.27,"app_bas":10.39,"app_haut":16.96,"app_ech":"maille","app_obs":4,"mai":10.56,"mai_bas":7.21,"mai_haut":15.48,"mai_ech":"maille","mai_obs":1,"a12":16.36,"a3":11.41},"geometry":{"type":"Polygon","coordinates":[[[8.9995,41.6606],[9.0092,41.6634],[9.0209,41.6695],[9.0282,41.6721],[9.0391,41.6889],[9.045,41.6999],[9.0586,41.6975],[9.0629,41.6928],[9.0599,41.6869],[9.0493,41.6752],[9.0437,41.6665],[9.0477,41.6623],[9.0361,41.6577],[9.0232,41.6569],[9.0277,41.6481],[9.0209,41.6399],[9.0141,41.644],[9.0123,41.6531],[9.0012,41.6519],[8.9995,41.6606]]]}},{"type":"Feature","properties":{"code":"2A266","nom":"Salice","app":14.6,"app_bas":11.37,"app_haut":18.74,"app_ech":"maille","app_obs":0,"mai":14.63,"mai_bas":9.61,"mai_haut":22.29,"mai_ech":"maille","mai_obs":0,"a12":16.94,"a3":10.3},"geometry":{"type":"Polygon","coordinates":[[[8.8973,42.1412],[8.9133,42.1426],[8.9194,42.1266],[8.9137,42.1124],[8.9149,42.106],[8.9242,42.0986],[8.9245,42.091],[8.9337,42.0859],[8.9182,42.0754],[8.8967,42.0725],[8.8937,42.0802],[8.8856,42.0836],[8.8807,42.0894],[8.8829,42.0969],[8.8699,42.0989],[8.8717,42.1047],[8.8912,42.1251],[8.8946,42.131],[8.8932,42.1362],[8.8973,42.1412]]]}},{"type":"Feature","properties":{"code":"2A024","nom":"Aullène","app":12.42,"app_bas":9.87,"app_haut":15.63,"app_ech":"maille","app_obs":0,"mai":11.17,"mai_bas":8.72,"mai_haut":14.31,"mai_ech":"maille","mai_obs":0,"a12":16.36,"a3":12.74},"geometry":{"type":"Polygon","coordinates":[[[9.0822,41.7645],[9.0592,41.7639],[9.0421,41.771],[9.0346,41.7708],[9.0376,41.7821],[9.0485,41.787],[9.0491,41.7903],[9.0606,41.8041],[9.0693,41.817],[9.0874,41.8228],[9.1115,41.8438],[9.1184,41.8563],[9.1305,41.8562],[9.1426,41.8606],[9.1432,41.8493],[9.152,41.8442],[9.1282,41.8183],[9.1189,41.8114],[9.1103,41.7998],[9.1014,41.7931],[9.0921,41.7717],[9.0881,41.7651],[9.0822,41.7645]]]}},{"type":"Feature","properties":{"code":"2A026","nom":"Azilone-Ampaza","app":15.04,"app_bas":11.42,"app_haut":19.8,"app_ech":"maille","app_obs":4,"mai":11.17,"mai_bas":8.72,"mai_haut":14.31,"mai_ech":"maille","mai_obs":2,"a12":15.92,"a3":12.74},"geometry":{"type":"Polygon","coordinates":[[[8.9986,41.863],[8.9936,41.8632],[8.9936,41.8701],[9.0002,41.8787],[9.0069,41.8804],[9.0116,41.879],[9.0297,41.8877],[9.0342,41.878],[9.0331,41.8576],[9.0178,41.8579],[8.9986,41.863]]]}},{"type":"Feature","properties":{"code":"2A211","nom":"Petreto-Bicchisano","app":13.27,"app_bas":10.39,"app_haut":16.96,"app_ech":"maille","app_obs":19,"mai":11.17,"mai_bas":8.72,"mai_haut":14.31,"mai_ech":"maille","mai_obs":7,"a12":15.92,"a3":12.74},"geometry":{"type":"Polygon","coordinates":[[[8.9533,41.7431],[8.9581,41.7435],[8.9588,41.7541],[8.9413,41.7709],[8.9165,41.7804],[8.9194,41.7809],[8.929,41.7954],[8.9465,41.8002],[8.9575,41.8109],[8.9697,41.8054],[8.9814,41.8032],[8.9975,41.7924],[9.0056,41.7796],[9.0094,41.7692],[8.9959,41.7563],[9.0048,41.7463],[8.9863,41.7317],[8.9886,41.728],[8.9637,41.7206],[8.9639,41.7316],[8.9533,41.7431]]]}},{"type":"Feature","properties":{"code":"2A345","nom":"Vero","app":14.6,"app_bas":11.37,"app_haut":18.74,"app_ech":"maille","app_obs":22,"mai":9.72,"mai_bas":6.93,"mai_haut":13.64,"mai_ech":"maille","mai_obs":26,"a12":13.2,"a3":12.23},"geometry":{"type":"Polygon","coordinates":[[[8.9474,42.0897],[8.9623,42.0743],[8.9565,42.058],[8.9472,42.0546],[8.9287,42.043],[8.9245,42.0426],[8.9157,42.0304],[8.9061,42.0261],[8.9094,42.0358],[8.9039,42.0403],[8.884,42.0493],[8.8769,42.0558],[8.8967,42.0725],[8.9182,42.0754],[8.9337,42.0859],[8.9474,42.0897]]]}},{"type":"Feature","properties":{"code":"2A272","nom":"Sartène","app":14.17,"app_bas":11.07,"app_haut":18.14,"app_ech":"commune","app_obs":258,"mai":10.56,"mai_bas":7.21,"mai_haut":15.48,"mai_ech":"maille","mai_obs":26,"a12":14.57,"a3":11.3},"geometry":{"type":"Polygon","coordinates":[[[9.0458,41.6095],[9.062,41.5932],[9.0711,41.5873],[9.084,41.5841],[9.0773,41.579],[9.0758,41.5726],[9.069,41.5708],[9.0431,41.5706],[9.0367,41.5688],[9.0176,41.5556],[9.0141,41.5459],[8.9966,41.5362],[8.9804,41.5196],[8.9776,41.513],[8.9712,41.5086],[8.9585,41.5066],[8.9405,41.4901],[8.9318,41.4954],[8.9228,41.4891],[8.921,41.4975],[8.9147,41.5072],[8.9002,41.5088],[8.8846,41.5051],[8.882,41.5092],[8.8883,41.5171],[8.8778,41.5238],[8.8654,41.5201],[8.8451,41.518],[8.8414,41.5238],[8.8519,41.5332],[8.8512,41.5409],[8.8417,41.5466],[8.8229,41.5462],[8.8153,41.5481],[8.8149,41.5539],[8.7885,41.5577],[8.7855,41.5637],[8.802,41.5725],[8.7918,41.5804],[8.7922,41.5867],[8.7819,41.5877],[8.7961,41.5931],[8.8143,41.5876],[8.8328,41.584],[8.8678,41.586],[8.8946,41.5934],[8.9011,41.605],[8.9122,41.6092],[8.9207,41.616],[8.9227,41.6259],[8.914,41.6337],[8.9195,41.6391],[8.9189,41.6552],[8.9352,41.6532],[8.9485,41.6473],[8.9688,41.6477],[8.9721,41.6516],[8.9892,41.6597],[8.9995,41.6606],[9.0012,41.6519],[8.996,41.6466],[9.0102,41.6313],[8.992,41.6202],[8.9974,41.6154],[8.9933,41.6021],[9.0132,41.6037],[9.0248,41.5982],[9.039,41.6093],[9.0458,41.6095]],[[8.9388,41.5801],[8.9344,41.5737],[8.9476,41.5719],[8.9597,41.5775],[8.9817,41.5822],[8.9764,41.594],[8.9611,41.5989],[8.946,41.5999],[8.9427,41.5955],[8.9388,41.5801]]]}},{"type":"Feature","properties":{"code":"2A295","nom":"Sant'Andréa-d'Orcino","app":14.42,"app_bas":11.34,"app_haut":18.33,"app_ech":"maille","app_obs":0,"mai":14.63,"mai_bas":9.61,"mai_haut":22.29,"mai_ech":"maille","mai_obs":5,"a12":17.52,"a3":12.23},"geometry":{"type":"Polygon","coordinates":[[[8.7439,42.0595],[8.7573,42.0555],[8.7902,42.0551],[8.7903,42.0519],[8.8086,42.0487],[8.8256,42.039],[8.8154,42.0313],[8.8057,42.0282],[8.789,42.0361],[8.7735,42.0457],[8.754,42.0516],[8.7434,42.0572],[8.7439,42.0595]]]}},{"type":"Feature","properties":{"code":"2A027","nom":"Azzana","app":14.6,"app_bas":11.37,"app_haut":18.74,"app_ech":"maille","app_obs":0,"mai":14.63,"mai_bas":9.61,"mai_haut":22.29,"mai_ech":"maille","mai_obs":0,"a12":16.94,"a3":10.3},"geometry":{"type":"Polygon","coordinates":[[[8.9474,42.0897],[8.9337,42.0859],[8.9245,42.091],[8.9242,42.0986],[8.9149,42.106],[8.9137,42.1124],[8.9194,42.1266],[8.9133,42.1426],[8.9167,42.1448],[8.9395,42.1489],[8.9391,42.1441],[8.9289,42.1378],[8.9306,42.1257],[8.9361,42.1201],[8.9472,42.1036],[8.9557,42.1009],[8.9564,42.0927],[8.9474,42.0897]]]}},{"type":"Feature","properties":{"code":"2A065","nom":"Cargèse","app":11.65,"app_bas":9.27,"app_haut":14.65,"app_ech":"maille","app_obs":21,"mai":9.72,"mai_bas":6.93,"mai_haut":13.64,"mai_ech":"maille","mai_obs":4,"a12":16.94,"a3":12.06},"geometry":{"type":"Polygon","coordinates":[[[8.651,42.117],[8.647,42.1211],[8.6375,42.1198],[8.6346,42.1238],[8.6256,42.1227],[8.6176,42.1271],[8.6157,42.1332],[8.61,42.1345],[8.5959,42.1303],[8.5825,42.1293],[8.585,42.1359],[8.594,42.1432],[8.5897,42.1492],[8.5768,42.1527],[8.5597,42.146],[8.5612,42.1513],[8.5775,42.1566],[8.5902,42.1639],[8.5885,42.1714],[8.5682,42.169],[8.5612,42.1718],[8.5654,42.1773],[8.5829,42.1785],[8.5824,42.1833],[8.6036,42.196],[8.6081,42.196],[8.6207,42.1843],[8.6256,42.1766],[8.6347,42.1679],[8.6821,42.1716],[8.6875,42.166],[8.6771,42.1459],[8.6732,42.1332],[8.651,42.117]]]}},{"type":"Feature","properties":{"code":"2A278","nom":"Serra-di-Scopamène","app":13.27,"app_bas":10.39,"app_haut":16.96,"app_ech":"maille","app_obs":2,"mai":10.56,"mai_bas":7.21,"mai_haut":15.48,"mai_ech":"maille","mai_obs":1,"a12":16.36,"a3":11.41},"geometry":{"type":"Polygon","coordinates":[[[9.0822,41.7645],[9.0881,41.7651],[9.0921,41.7717],[9.1014,41.7931],[9.1103,41.7998],[9.1189,41.8114],[9.1282,41.8183],[9.152,41.8442],[9.1635,41.8389],[9.1528,41.8328],[9.1364,41.816],[9.1249,41.7972],[9.1225,41.7876],[9.1238,41.7744],[9.1116,41.7617],[9.0965,41.7389],[9.0984,41.7305],[9.0907,41.7213],[9.0872,41.7327],[9.0786,41.7315],[9.0742,41.7415],[9.083,41.745],[9.0822,41.7645]]]}},{"type":"Feature","properties":{"code":"2A348","nom":"Vico","app":14.6,"app_bas":11.37,"app_haut":18.74,"app_ech":"maille","app_obs":47,"mai":9.72,"mai_bas":6.93,"mai_haut":13.64,"mai_ech":"maille","mai_obs":11,"a12":17.52,"a3":12.23},"geometry":{"type":"Polygon","coordinates":[[[8.82,42.1766],[8.8188,42.1672],[8.8115,42.1545],[8.7999,42.1521],[8.7869,42.1518],[8.7802,42.147],[8.7715,42.1359],[8.7677,42.1346],[8.7597,42.1338],[8.7431,42.1416],[8.7266,42.1403],[8.716,42.142],[8.7051,42.1293],[8.7016,42.1202],[8.7012,42.1112],[8.6892,42.1151],[8.6807,42.106],[8.6713,42.1071],[8.6605,42.1036],[8.651,42.117],[8.6732,42.1332],[8.6771,42.1459],[8.6875,42.166],[8.6821,42.1716],[8.7027,42.1855],[8.7134,42.1804],[8.7208,42.1745],[8.7394,42.1709],[8.7759,42.1617],[8.7871,42.1694],[8.795,42.1802],[8.7972,42.1872],[8.8174,42.1915],[8.8122,42.1849],[8.8129,42.1791],[8.82,42.1766]]]}},{"type":"Feature","properties":{"code":"2A127","nom":"Giuncheto","app":13.27,"app_bas":10.39,"app_haut":16.96,"app_ech":"maille","app_obs":1,"mai":10.56,"mai_bas":7.21,"mai_haut":15.48,"mai_ech":"maille","mai_obs":1,"a12":15.92,"a3":11.41},"geometry":{"type":"Polygon","coordinates":[[[8.9388,41.5801],[8.9427,41.5955],[8.946,41.5999],[8.9611,41.5989],[8.9764,41.594],[8.9817,41.5822],[8.9597,41.5775],[8.9476,41.5719],[8.9344,41.5737],[8.9388,41.5801]]]}},{"type":"Feature","properties":{"code":"2A090","nom":"Coggia","app":14.6,"app_bas":11.37,"app_haut":18.74,"app_ech":"maille","app_obs":23,"mai":9.72,"mai_bas":6.93,"mai_haut":13.64,"mai_ech":"maille","mai_obs":3,"a12":17.52,"a3":12.23},"geometry":{"type":"Polygon","coordinates":[[[8.7172,42.0774],[8.7131,42.0837],[8.7047,42.0879],[8.7103,42.0958],[8.7012,42.1112],[8.7016,42.1202],[8.7051,42.1293],[8.716,42.142],[8.7266,42.1403],[8.7431,42.1416],[8.7597,42.1338],[8.7677,42.1346],[8.774,42.1248],[8.7781,42.1142],[8.7694,42.1091],[8.7612,42.1011],[8.757,42.0913],[8.7399,42.0867],[8.7301,42.0774],[8.7172,42.0774]]]}},{"type":"Feature","properties":{"code":"2A117","nom":"Forciolo","app":13.27,"app_bas":10.39,"app_haut":16.96,"app_ech":"maille","app_obs":0,"mai":10.56,"mai_bas":7.21,"mai_haut":15.48,"mai_ech":"maille","mai_obs":0,"a12":15.92,"a3":11.41},"geometry":{"type":"Polygon","coordinates":[[[9.0331,41.8576],[9.0363,41.8531],[9.0307,41.8418],[9.0078,41.8314],[8.9981,41.8599],[8.9986,41.863],[9.0178,41.8579],[9.0331,41.8576]]]}},{"type":"Feature","properties":{"code":"2A146","nom":"Loreto-di-Tallano","app":13.27,"app_bas":10.39,"app_haut":16.96,"app_ech":"maille","app_obs":0,"mai":10.56,"mai_bas":7.21,"mai_haut":15.48,"mai_ech":"maille","mai_obs":0,"a12":16.36,"a3":11.41},"geometry":{"type":"Polygon","coordinates":[[[9.0254,41.7186],[9.0315,41.7227],[9.046,41.7221],[9.0416,41.7103],[9.0374,41.6918],[9.0391,41.6889],[9.0282,41.6721],[9.0209,41.6695],[9.0157,41.6748],[9.0285,41.6883],[9.0324,41.6944],[9.0291,41.7012],[9.0204,41.7092],[9.0254,41.7186]]]}},{"type":"Feature","properties":{"code":"2A018","nom":"Arbellara","app":13.27,"app_bas":10.39,"app_haut":16.96,"app_ech":"maille","app_obs":35,"mai":10.56,"mai_bas":7.21,"mai_haut":15.48,"mai_ech":"maille","mai_obs":4,"a12":15.92,"a3":11.41},"geometry":{"type":"Polygon","coordinates":[[[9.0157,41.6748],[9.0209,41.6695],[9.0092,41.6634],[8.9995,41.6606],[8.9892,41.6597],[8.9721,41.6516],[8.9689,41.6591],[8.9667,41.6732],[8.9695,41.6803],[8.9764,41.6881],[8.9881,41.689],[8.9987,41.6852],[9.0157,41.6748]]]}},{"type":"Feature","properties":{"code":"2A040","nom":"Bocognano","app":14.6,"app_bas":11.37,"app_haut":18.74,"app_ech":"maille","app_obs":6,"mai":11.17,"mai_bas":8.72,"mai_haut":14.31,"mai_ech":"maille","mai_obs":24,"a12":16.94,"a3":12.74},"geometry":{"type":"Polygon","coordinates":[[[9.003,42.1128],[9.0151,42.1186],[9.0371,42.1267],[9.0554,42.1246],[9.0616,42.1282],[9.072,42.13],[9.0818,42.1259],[9.0933,42.1152],[9.1037,42.1165],[9.1197,42.1078],[9.1337,42.0905],[9.1337,42.0796],[9.1286,42.0673],[9.1336,42.0594],[9.1191,42.0545],[9.1034,42.0446],[9.0929,42.0499],[9.0786,42.0477],[9.0422,42.0597],[9.0334,42.0757],[9.0251,42.0797],[9.0067,42.0796],[9.0006,42.0847],[9.0049,42.0981],[9.003,42.1128]]]}},{"type":"Feature","properties":{"code":"2A258","nom":"Renno","app":11.65,"app_bas":9.27,"app_haut":14.65,"app_ech":"maille","app_obs":0,"mai":11.53,"mai_bas":9.02,"mai_haut":14.75,"mai_ech":"maille","mai_obs":0,"a12":16.94,"a3":12.06},"geometry":{"type":"Polygon","coordinates":[[[8.8485,42.2197],[8.8456,42.2036],[8.8382,42.1963],[8.7972,42.1872],[8.7984,42.1951],[8.7937,42.2071],[8.8041,42.2161],[8.8248,42.2233],[8.8485,42.2197]]]}},{"type":"Feature","properties":{"code":"2A070","nom":"Casaglione","app":14.6,"app_bas":11.37,"app_haut":18.74,"app_ech":"maille","app_obs":11,"mai":9.72,"mai_bas":6.93,"mai_haut":13.64,"mai_ech":"maille","mai_obs":7,"a12":17.52,"a3":12.23},"geometry":{"type":"Polygon","coordinates":[[[8.787,42.0783],[8.7971,42.0706],[8.7975,42.061],[8.7935,42.056],[8.7902,42.0551],[8.7573,42.0555],[8.7439,42.0595],[8.7328,42.065],[8.7199,42.0635],[8.7172,42.0774],[8.7301,42.0774],[8.7371,42.0836],[8.7724,42.0815],[8.787,42.0783]]]}},{"type":"Feature","properties":{"code":"2A038","nom":"Bilia","app":13.27,"app_bas":10.39,"app_haut":16.96,"app_ech":"maille","app_obs":1,"mai":10.56,"mai_bas":7.21,"mai_haut":15.48,"mai_ech":"maille","mai_obs":2,"a12":15.92,"a3":11.41},"geometry":{"type":"Polygon","coordinates":[[[8.914,41.6337],[8.9227,41.6259],[8.9207,41.616],[8.9122,41.6092],[8.9011,41.605],[8.8909,41.6077],[8.8966,41.6208],[8.8866,41.6266],[8.8962,41.6382],[8.9096,41.637],[8.914,41.6337]]]}},{"type":"Feature","properties":{"code":"2A154","nom":"Marignana","app":11.65,"app_bas":9.27,"app_haut":14.65,"app_ech":"maille","app_obs":0,"mai":11.53,"mai_bas":9.02,"mai_haut":14.75,"mai_ech":"maille","mai_obs":0,"a12":16.94,"a3":12.06},"geometry":{"type":"Polygon","coordinates":[[[8.8191,42.2216],[8.8041,42.2161],[8.7937,42.2071],[8.7744,42.2036],[8.7638,42.1993],[8.7486,42.2061],[8.7327,42.2091],[8.7194,42.2089],[8.7173,42.202],[8.7112,42.1948],[8.7046,42.1916],[8.7027,42.1855],[8.6821,42.1716],[8.6347,42.1679],[8.6256,42.1766],[8.6207,42.1843],[8.6391,42.1926],[8.6599,42.2081],[8.6752,42.2126],[8.6883,42.2239],[8.6985,42.2283],[8.7106,42.2239],[8.7217,42.2241],[8.7267,42.2167],[8.7381,42.2193],[8.7515,42.2322],[8.7558,42.2465],[8.7677,42.2515],[8.7976,42.2394],[8.8106,42.2413],[8.8132,42.2392],[8.8105,42.2304],[8.8191,42.2216]]]}},{"type":"Feature","properties":{"code":"2A212","nom":"Piana","app":12.69,"app_bas":9.84,"app_haut":16.35,"app_ech":"maille","app_obs":8,"mai":9.72,"mai_bas":6.93,"mai_haut":13.64,"mai_ech":"maille","mai_obs":2,"a12":16.94,"a3":12.06},"geometry":{"type":"Polygon","coordinates":[[[8.6207,42.1843],[8.6081,42.196],[8.6036,42.196],[8.5824,42.1833],[8.5778,42.1937],[8.5814,42.2059],[8.5697,42.208],[8.5753,42.2164],[8.5671,42.2196],[8.5735,42.2258],[8.5703,42.2303],[8.5482,42.2289],[8.5401,42.235],[8.5492,42.24],[8.5561,42.236],[8.5731,42.2387],[8.5783,42.2443],[8.5893,42.2445],[8.6073,42.2504],[8.6167,42.2555],[8.6267,42.2518],[8.6397,42.2532],[8.6418,42.2564],[8.6656,42.2593],[8.6716,42.2621],[8.6889,42.2634],[8.6914,42.2487],[8.7007,42.2414],[8.6985,42.2283],[8.6883,42.2239],[8.6752,42.2126],[8.6599,42.2081],[8.6391,42.1926],[8.6207,42.1843]]]}},{"type":"Feature","properties":{"code":"2A259","nom":"Rezza","app":14.6,"app_bas":11.37,"app_haut":18.74,"app_ech":"maille","app_obs":0,"mai":9.72,"mai_bas":6.93,"mai_haut":13.64,"mai_ech":"maille","mai_obs":0,"a12":16.94,"a3":10.3},"geometry":{"type":"Polygon","coordinates":[[[8.9557,42.1009],[8.9472,42.1036],[8.9361,42.1201],[8.9306,42.1257],[8.9289,42.1378],[8.9391,42.1441],[8.9395,42.1489],[8.9529,42.1511],[8.9591,42.1429],[8.9594,42.1337],[8.9635,42.1246],[8.9826,42.1118],[8.971,42.1026],[8.9557,42.1009]]]}},{"type":"Feature","properties":{"code":"2A139","nom":"Lecci","app":15.24,"app_bas":11.88,"app_haut":19.55,"app_ech":"maille","app_obs":42,"mai":10.56,"mai_bas":7.21,"mai_haut":15.48,"mai_ech":"maille","mai_obs":48,"a12":16.36,"a3":11.41},"geometry":{"type":"Polygon","coordinates":[[[9.3136,41.6286],[9.3221,41.6279],[9.3293,41.6337],[9.3272,41.6474],[9.3224,41.6541],[9.3105,41.6611],[9.2967,41.6768],[9.2789,41.6928],[9.2732,41.6921],[9.259,41.6859],[9.2438,41.6825],[9.2579,41.691],[9.2764,41.6986],[9.2935,41.7012],[9.3072,41.6958],[9.3204,41.6994],[9.327,41.697],[9.3353,41.687],[9.3422,41.6841],[9.3441,41.6745],[9.3381,41.6683],[9.343,41.6528],[9.3512,41.6396],[9.3464,41.63],[9.3538,41.6266],[9.3535,41.6212],[9.3464,41.6175],[9.3367,41.6215],[9.3272,41.6164],[9.3135,41.6258],[9.3136,41.6286]]]}},{"type":"Feature","properties":{"code":"2A349","nom":"Viggianello","app":13.27,"app_bas":10.39,"app_haut":16.96,"app_ech":"maille","app_obs":38,"mai":10.56,"mai_bas":7.21,"mai_haut":15.48,"mai_ech":"maille","mai_obs":12,"a12":15.92,"a3":12.74},"geometry":{"type":"Polygon","coordinates":[[[8.9695,41.6803],[8.9667,41.6732],[8.9689,41.6591],[8.9721,41.6516],[8.9688,41.6477],[8.9485,41.6473],[8.9352,41.6532],[8.9189,41.6552],[8.9199,41.6696],[8.919,41.6807],[8.9283,41.6844],[8.9438,41.6949],[8.9489,41.6957],[8.9533,41.6859],[8.9695,41.6803]]]}},{"type":"Feature","properties":{"code":"2A363","nom":"Zoza","app":12.42,"app_bas":9.87,"app_haut":15.63,"app_ech":"maille","app_obs":0,"mai":10.56,"mai_bas":7.21,"mai_haut":15.48,"mai_ech":"maille","mai_obs":1,"a12":16.36,"a3":11.41},"geometry":{"type":"Polygon","coordinates":[[[9.056,41.7209],[9.0699,41.7287],[9.0786,41.7315],[9.0872,41.7327],[9.0907,41.7213],[9.0765,41.7139],[9.0667,41.7141],[9.0506,41.71],[9.0495,41.7119],[9.056,41.7209]]]}},{"type":"Feature","properties":{"code":"2A130","nom":"Grosseto-Prugna","app":18.16,"app_bas":13.8,"app_haut":23.91,"app_ech":"commune","app_obs":362,"mai":14.63,"mai_bas":9.61,"mai_haut":22.29,"mai_ech":"maille","mai_obs":55,"a12":19.51,"a3":18.05},"geometry":{"type":"Polygon","coordinates":[[[8.9594,41.8968],[8.955,41.8925],[8.9673,41.8781],[8.9684,41.8685],[8.9744,41.8697],[8.9754,41.8603],[8.9664,41.854],[8.9605,41.8553],[8.96,41.8618],[8.9517,41.8646],[8.9324,41.8774],[8.9127,41.8784],[8.9073,41.8764],[8.8876,41.8848],[8.8597,41.8877],[8.8554,41.882],[8.8586,41.878],[8.8553,41.8691],[8.8438,41.8738],[8.8312,41.8743],[8.8235,41.8723],[8.8093,41.875],[8.7983,41.8669],[8.7885,41.8683],[8.7812,41.8807],[8.8031,41.8914],[8.7977,41.9054],[8.8023,41.9077],[8.8068,41.9058],[8.8192,41.9072],[8.8299,41.9042],[8.8336,41.8921],[8.8419,41.8863],[8.8675,41.8932],[8.8871,41.8874],[8.8972,41.8884],[8.9179,41.8945],[8.9279,41.8953],[8.933,41.8891],[8.9447,41.8935],[8.9455,41.8999],[8.9521,41.9037],[8.9594,41.8968]]]}},{"type":"Feature","properties":{"code":"2A330","nom":"Ucciani","app":12.42,"app_bas":9.87,"app_haut":15.63,"app_ech":"maille","app_obs":14,"mai":9.72,"mai_bas":6.93,"mai_haut":13.64,"mai_ech":"maille","mai_obs":6,"a12":13.2,"a3":10.3},"geometry":{"type":"Polygon","coordinates":[[[8.9474,42.0897],[8.9564,42.0927],[8.967,42.0906],[8.972,42.0822],[8.9859,42.0703],[8.989,42.0652],[9.0072,42.0588],[9.0132,42.055],[9.0145,42.0478],[9.0207,42.0415],[9.0148,42.0304],[9.0025,42.0203],[8.9784,42.0102],[8.9628,42.0196],[8.965,42.0275],[8.9588,42.0434],[8.9545,42.0499],[8.9472,42.0546],[8.9565,42.058],[8.9623,42.0743],[8.9474,42.0897]]]}},{"type":"Feature","properties":{"code":"2A021","nom":"Argiusta-Moriccio","app":13.27,"app_bas":10.39,"app_haut":16.96,"app_ech":"maille","app_obs":0,"mai":10.56,"mai_bas":7.21,"mai_haut":15.48,"mai_ech":"maille","mai_obs":0,"a12":15.92,"a3":11.41},"geometry":{"type":"Polygon","coordinates":[[[9.0046,41.8264],[9.0078,41.8314],[9.022,41.8376],[9.047,41.8179],[9.054,41.8088],[9.0606,41.8041],[9.0491,41.7903],[9.046,41.7901],[9.0315,41.808],[9.0128,41.815],[9.0054,41.8215],[9.0046,41.8264]]]}},{"type":"Feature","properties":{"code":"2A041","nom":"Bonifacio","app":15.63,"app_bas":12.19,"app_haut":20.04,"app_ech":"commune","app_obs":129,"mai":10.56,"mai_bas":7.21,"mai_haut":15.48,"mai_ech":"maille","mai_obs":27,"a12":16.36,"a3":11.41},"geometry":{"type":"MultiPolygon","coordinates":[[[[9.0954,41.4496],[9.0987,41.4567],[9.0916,41.4611],[9.0996,41.4736],[9.1208,41.4739],[9.138,41.4665],[9.1402,41.4565],[9.1646,41.4666],[9.1686,41.4739],[9.1783,41.4803],[9.1913,41.4952],[9.2072,41.5011],[9.2243,41.5094],[9.235,41.5069],[9.2348,41.5009],[9.2423,41.4894],[9.25,41.4868],[9.2599,41.4914],[9.2677,41.4859],[9.2873,41.4838],[9.284,41.4776],[9.2773,41.4754],[9.2777,41.465],[9.2738,41.4617],[9.2659,41.466],[9.2429,41.4467],[9.224,41.4425],[9.2233,41.436],[9.2289,41.4253],[9.2264,41.417],[9.216,41.4095],[9.219,41.4056],[9.2281,41.4091],[9.2442,41.4212],[9.2651,41.4283],[9.2592,41.4134],[9.2507,41.4096],[9.2459,41.4019],[9.2362,41.3936],[9.2331,41.3866],[9.2215,41.3763],[9.2197,41.3682],[9.1988,41.3659],[9.1804,41.3664],[9.1744,41.3793],[9.1672,41.3856],[9.1446,41.3872],[9.1363,41.3918],[9.1209,41.3964],[9.0938,41.3938],[9.0912,41.4018],[9.0955,41.4124],[9.1089,41.4199],[9.1043,41.4255],[9.1207,41.4376],[9.1192,41.4408],[9.0973,41.4438],[9.0954,41.4496]]],[[[9.2709,41.365],[9.2657,41.3622],[9.2559,41.3688],[9.2602,41.3737],[9.2737,41.3692],[9.2709,41.365]]]]}},{"type":"Feature","properties":{"code":"2A300","nom":"San-Gavino-di-Carbini","app":12.42,"app_bas":9.87,"app_haut":15.63,"app_ech":"maille","app_obs":7,"mai":10.56,"mai_bas":7.21,"mai_haut":15.48,"mai_ech":"maille","mai_obs":3,"a12":16.36,"a3":12.74},"geometry":{"type":"Polygon","coordinates":[[[9.3224,41.6541],[9.3091,41.6499],[9.2906,41.6409],[9.2792,41.6315],[9.2579,41.6459],[9.2465,41.659],[9.2341,41.6633],[9.2207,41.6612],[9.2149,41.6672],[9.2133,41.6785],[9.2011,41.6862],[9.1893,41.6833],[9.1789,41.6919],[9.1648,41.7006],[9.156,41.7003],[9.145,41.7097],[9.1376,41.7251],[9.1368,41.7382],[9.1492,41.7397],[9.163,41.7326],[9.1752,41.7155],[9.1913,41.7067],[9.2004,41.6975],[9.2094,41.6936],[9.2438,41.6825],[9.259,41.6859],[9.2732,41.6921],[9.2789,41.6928],[9.2967,41.6768],[9.3105,41.6611],[9.3224,41.6541]]]}},{"type":"Feature","properties":{"code":"2A326","nom":"Tolla","app":14.6,"app_bas":11.37,"app_haut":18.74,"app_ech":"maille","app_obs":0,"mai":14.63,"mai_bas":9.61,"mai_haut":22.29,"mai_ech":"maille","mai_obs":2,"a12":13.2,"a3":12.23},"geometry":{"type":"Polygon","coordinates":[[[8.9742,42.0047],[8.9756,41.9978],[8.9882,41.9969],[8.9931,41.9943],[9.0043,41.9819],[8.999,41.9761],[8.9915,41.9624],[8.9817,41.9559],[8.9842,41.9493],[8.9814,41.9443],[8.9629,41.9323],[8.9371,41.9308],[8.9298,41.9342],[8.9467,41.9415],[8.9514,41.9463],[8.9488,41.9624],[8.9495,41.9723],[8.9437,41.9831],[8.9467,41.9891],[8.9742,42.0047]]]}},{"type":"Feature","properties":{"code":"2A322","nom":"Tasso","app":12.42,"app_bas":9.87,"app_haut":15.63,"app_ech":"maille","app_obs":0,"mai":10.56,"mai_bas":7.21,"mai_haut":15.48,"mai_ech":"maille","mai_obs":0,"a12":15.92,"a3":10.66},"geometry":{"type":"Polygon","coordinates":[[[9.0656,41.9632],[9.0741,41.9626],[9.0806,41.9659],[9.0854,41.9736],[9.0976,41.9781],[9.1101,41.9744],[9.1079,41.9715],[9.1149,41.9622],[9.1131,41.9417],[9.1072,41.9283],[9.1092,41.9219],[9.1048,41.9174],[9.0952,41.9251],[9.0701,41.9355],[9.0746,41.9467],[9.0735,41.9519],[9.0669,41.9569],[9.0656,41.9632]]]}},{"type":"Feature","properties":{"code":"2A060","nom":"Cannelle","app":14.42,"app_bas":11.34,"app_haut":18.33,"app_ech":"maille","app_obs":0,"mai":14.63,"mai_bas":9.61,"mai_haut":22.29,"mai_ech":"maille","mai_obs":0,"a12":17.52,"a3":12.23},"geometry":{"type":"Polygon","coordinates":[[[8.8256,42.039],[8.8086,42.0487],[8.7903,42.0519],[8.7902,42.0551],[8.7935,42.056],[8.7943,42.0543],[8.8199,42.0532],[8.8422,42.0427],[8.8351,42.0388],[8.8256,42.039]]]}},{"type":"Feature","properties":{"code":"2A189","nom":"Olmeto","app":13.27,"app_bas":10.39,"app_haut":16.96,"app_ech":"maille","app_obs":45,"mai":10.56,"mai_bas":7.21,"mai_haut":15.48,"mai_ech":"maille","mai_obs":13,"a12":15.92,"a3":11.41},"geometry":{"type":"Polygon","coordinates":[[[8.9533,41.7431],[8.9639,41.7316],[8.9637,41.7206],[8.9598,41.7093],[8.9489,41.6957],[8.9438,41.6949],[8.9283,41.6844],[8.919,41.6807],[8.9158,41.6816],[8.9145,41.6897],[8.8857,41.6908],[8.8783,41.696],[8.8413,41.6976],[8.8254,41.7094],[8.8285,41.7161],[8.8456,41.7246],[8.8553,41.7217],[8.8735,41.7217],[8.8827,41.726],[8.8943,41.7287],[8.9093,41.7286],[8.9212,41.7396],[8.9417,41.7384],[8.9533,41.7431]]]}},{"type":"Feature","properties":{"code":"2A142","nom":"Levie","app":12.42,"app_bas":9.87,"app_haut":15.63,"app_ech":"maille","app_obs":17,"mai":11.17,"mai_bas":8.72,"mai_haut":14.31,"mai_ech":"maille","mai_obs":1,"a12":16.36,"a3":12.74},"geometry":{"type":"Polygon","coordinates":[[[9.112,41.5961],[9.1044,41.5942],[9.0954,41.5855],[9.084,41.5841],[9.0711,41.5873],[9.062,41.5932],[9.0458,41.6095],[9.0603,41.615],[9.0737,41.623],[9.0771,41.6321],[9.0803,41.65],[9.0925,41.6564],[9.1016,41.6591],[9.0973,41.6728],[9.0991,41.6909],[9.0945,41.7063],[9.0965,41.7149],[9.0907,41.7213],[9.0984,41.7305],[9.1247,41.7378],[9.129,41.7338],[9.1368,41.7382],[9.1376,41.7251],[9.145,41.7097],[9.156,41.7003],[9.1648,41.7006],[9.1614,41.6946],[9.1463,41.6891],[9.1408,41.6844],[9.1316,41.686],[9.1267,41.6805],[9.1309,41.6773],[9.1333,41.666],[9.1374,41.6611],[9.1479,41.6557],[9.1638,41.6556],[9.1705,41.6435],[9.1696,41.6163],[9.1512,41.6143],[9.1374,41.6027],[9.1271,41.5989],[9.112,41.5961]]]}},{"type":"Feature","properties":{"code":"2A203","nom":"Partinello","app":12.69,"app_bas":9.84,"app_haut":16.35,"app_ech":"maille","app_obs":1,"mai":9.72,"mai_bas":6.93,"mai_haut":13.64,"mai_ech":"maille","mai_obs":0,"a12":16.94,"a3":12.06},"geometry":{"type":"Polygon","coordinates":[[[8.7248,42.3422],[8.7166,42.3378],[8.7041,42.3275],[8.698,42.3115],[8.7006,42.3028],[8.6988,42.2919],[8.6872,42.282],[8.6785,42.2808],[8.674,42.2943],[8.6651,42.2965],[8.6605,42.3023],[8.6721,42.3073],[8.6776,42.3187],[8.6762,42.3272],[8.6702,42.3328],[8.6835,42.348],[8.7111,42.3471],[8.7248,42.3422]]]}},{"type":"Feature","properties":{"code":"2A359","nom":"Zicavo","app":11.84,"app_bas":9.72,"app_haut":14.41,"app_ech":"maille","app_obs":1,"mai":11.17,"mai_bas":8.72,"mai_haut":14.31,"mai_ech":"maille","mai_obs":2,"a12":16.36,"a3":12.74},"geometry":{"type":"Polygon","coordinates":[[[9.1635,41.8389],[9.1432,41.8493],[9.1426,41.8606],[9.1305,41.8562],[9.1184,41.8563],[9.1149,41.8549],[9.0866,41.8631],[9.0891,41.8758],[9.1,41.8838],[9.0924,41.8888],[9.1027,41.9055],[9.1048,41.9174],[9.1092,41.9219],[9.1072,41.9283],[9.127,41.9285],[9.1391,41.9314],[9.1411,41.9269],[9.1543,41.9241],[9.1654,41.9186],[9.1801,41.9067],[9.2001,41.9162],[9.2133,41.9175],[9.2184,41.9136],[9.2296,41.9163],[9.2488,41.9089],[9.2522,41.899],[9.235,41.8793],[9.2361,41.8754],[9.2275,41.8556],[9.2088,41.8516],[9.1931,41.8366],[9.1769,41.8415],[9.1635,41.8389]]]}},{"type":"Feature","properties":{"code":"2A001","nom":"Afa","app":15.57,"app_bas":12.26,"app_haut":19.78,"app_ech":"commune","app_obs":176,"mai":14.63,"mai_bas":9.61,"mai_haut":22.29,"mai_ech":"maille","mai_obs":86,"a12":17.52,"a3":12.23},"geometry":{"type":"Polygon","coordinates":[[[8.7846,41.9526],[8.7843,41.9554],[8.7882,41.9576],[8.7882,41.9695],[8.7898,41.9801],[8.7872,41.9872],[8.7808,41.9937],[8.7782,42.0011],[8.7894,42.0074],[8.7988,42.0047],[8.8075,42.0093],[8.812,42.0007],[8.8166,41.9852],[8.8143,41.9772],[8.8054,41.9677],[8.8088,41.9629],[8.8046,41.9588],[8.7846,41.9526]]]}},{"type":"Feature","properties":{"code":"2A064","nom":"Cardo-Torgia","app":15.04,"app_bas":11.42,"app_haut":19.8,"app_ech":"maille","app_obs":0,"mai":10.56,"mai_bas":7.21,"mai_haut":15.48,"mai_ech":"maille","mai_obs":0,"a12":17.52,"a3":12.74},"geometry":{"type":"Polygon","coordinates":[[[8.9646,41.8369],[8.9579,41.8469],[8.9605,41.8553],[8.9664,41.854],[8.9754,41.8603],[8.9744,41.8697],[8.9815,41.8692],[8.9894,41.8586],[8.9834,41.8565],[8.973,41.842],[8.9646,41.8369]]]}},{"type":"Feature","properties":{"code":"2A323","nom":"Tavaco","app":14.6,"app_bas":11.37,"app_haut":18.74,"app_ech":"maille","app_obs":10,"mai":14.63,"mai_bas":9.61,"mai_haut":22.29,"mai_ech":"maille","mai_obs":16,"a12":17.52,"a3":12.23},"geometry":{"type":"Polygon","coordinates":[[[8.8769,42.0558],[8.884,42.0493],[8.9039,42.0403],[8.9094,42.0358],[8.9061,42.0261],[8.893,42.0167],[8.8834,42.011],[8.8763,42.0148],[8.8669,42.015],[8.8653,42.0305],[8.8684,42.0382],[8.8694,42.0489],[8.8769,42.0558]]]}},{"type":"Feature","properties":{"code":"2A253","nom":"Quasquara","app":13.27,"app_bas":10.39,"app_haut":16.96,"app_ech":"maille","app_obs":0,"mai":11.17,"mai_bas":8.72,"mai_haut":14.31,"mai_ech":"maille","mai_obs":0,"a12":15.92,"a3":11.41},"geometry":{"type":"Polygon","coordinates":[[[9.0136,41.8964],[9.0029,41.8963],[8.9884,41.9002],[8.988,41.9089],[9.0064,41.9156],[9.0225,41.9284],[9.026,41.9148],[9.0228,41.9073],[9.0136,41.8964]]]}},{"type":"Feature","properties":{"code":"2A196","nom":"Orto","app":11.65,"app_bas":9.27,"app_haut":14.65,"app_ech":"maille","app_obs":1,"mai":14.63,"mai_bas":9.61,"mai_haut":22.29,"mai_ech":"maille","mai_obs":0,"a12":16.94,"a3":10.3},"geometry":{"type":"Polygon","coordinates":[[[8.9188,42.1805],[8.9283,42.1958],[8.94,42.2047],[8.9529,42.2115],[8.9708,42.2177],[8.9798,42.224],[8.9836,42.2252],[8.9915,42.2166],[9.0059,42.2123],[9.0065,42.2087],[8.9965,42.2072],[8.9824,42.2092],[8.97,42.1872],[8.9548,42.1808],[8.9429,42.1817],[8.9298,42.1735],[8.9208,42.1713],[8.9188,42.1805]]]}},{"type":"Feature","properties":{"code":"2A215","nom":"Pianottoli-Caldarello","app":15.24,"app_bas":11.88,"app_haut":19.55,"app_ech":"maille","app_obs":10,"mai":10.56,"mai_bas":7.21,"mai_haut":15.48,"mai_ech":"maille","mai_obs":4,"a12":16.36,"a3":11.41},"geometry":{"type":"Polygon","coordinates":[[[9.084,41.5841],[9.0866,41.5848],[9.0883,41.5767],[9.0948,41.5713],[9.0806,41.5586],[9.066,41.5421],[9.0631,41.5316],[9.0685,41.5247],[9.0739,41.5244],[9.0831,41.5172],[9.0762,41.5068],[9.0764,41.4981],[9.0807,41.4858],[9.0799,41.4775],[9.0703,41.4757],[9.0508,41.4596],[9.0383,41.4596],[9.0397,41.4686],[9.0352,41.4709],[9.0278,41.4632],[9.018,41.4677],[9.0129,41.4761],[9.0022,41.4758],[8.9948,41.4855],[9,41.4973],[9.0134,41.5034],[9.0327,41.5049],[9.0319,41.5202],[9.0594,41.5448],[9.0614,41.5579],[9.0672,41.5658],[9.0758,41.5726],[9.0773,41.579],[9.084,41.5841]]]}},{"type":"Feature","properties":{"code":"2A331","nom":"Urbalacone","app":15.04,"app_bas":11.42,"app_haut":19.8,"app_ech":"maille","app_obs":0,"mai":10.56,"mai_bas":7.21,"mai_haut":15.48,"mai_ech":"maille","mai_obs":0,"a12":17.52,"a3":12.74},"geometry":{"type":"Polygon","coordinates":[[[8.9646,41.8369],[8.9575,41.8166],[8.9575,41.8109],[8.9465,41.8002],[8.9372,41.7981],[8.9379,41.8083],[8.9452,41.8112],[8.9449,41.8183],[8.9331,41.8297],[8.9418,41.841],[8.9397,41.8446],[8.9458,41.8477],[8.9579,41.8469],[8.9646,41.8369]]]}},{"type":"Feature","properties":{"code":"2A144","nom":"Lopigna","app":14.6,"app_bas":11.37,"app_haut":18.74,"app_ech":"maille","app_obs":0,"mai":14.63,"mai_bas":9.61,"mai_haut":22.29,"mai_ech":"maille","mai_obs":0,"a12":16.94,"a3":10.3},"geometry":{"type":"Polygon","coordinates":[[[8.8967,42.0725],[8.8868,42.0644],[8.876,42.0615],[8.8674,42.0647],[8.865,42.073],[8.858,42.0797],[8.8484,42.0819],[8.8378,42.0785],[8.8267,42.083],[8.8267,42.0914],[8.8165,42.1049],[8.8096,42.1116],[8.8209,42.1164],[8.8396,42.1132],[8.8477,42.1097],[8.8588,42.1001],[8.8829,42.0969],[8.8807,42.0894],[8.8856,42.0836],[8.8937,42.0802],[8.8967,42.0725]]]}},{"type":"Feature","properties":{"code":"2A022","nom":"Arro","app":14.6,"app_bas":11.37,"app_haut":18.74,"app_ech":"maille","app_obs":0,"mai":14.63,"mai_bas":9.61,"mai_haut":22.29,"mai_ech":"maille","mai_obs":0,"a12":16.94,"a3":10.3},"geometry":{"type":"Polygon","coordinates":[[[8.7989,42.0834],[8.7969,42.0877],[8.7791,42.0962],[8.7742,42.1019],[8.786,42.1035],[8.8003,42.1122],[8.8096,42.1116],[8.8165,42.1049],[8.8267,42.0914],[8.8267,42.083],[8.8074,42.0823],[8.7989,42.0834]]]}},{"type":"Feature","properties":{"code":"2A062","nom":"Carbuccia","app":14.6,"app_bas":11.37,"app_haut":18.74,"app_ech":"maille","app_obs":16,"mai":14.63,"mai_bas":9.61,"mai_haut":22.29,"mai_ech":"maille","mai_obs":17,"a12":13.2,"a3":10.3},"geometry":{"type":"Polygon","coordinates":[[[8.9061,42.0261],[8.9157,42.0304],[8.9245,42.0426],[8.9287,42.043],[8.9472,42.0546],[8.9545,42.0499],[8.9588,42.0434],[8.965,42.0275],[8.9628,42.0196],[8.9528,42.0197],[8.9389,42.014],[8.9104,42.0165],[8.893,42.0167],[8.9061,42.0261]]]}},{"type":"Feature","properties":{"code":"2A269","nom":"Sari-Solenzara","app":12.42,"app_bas":9.87,"app_haut":15.63,"app_ech":"maille","app_obs":95,"mai":11.17,"mai_bas":8.72,"mai_haut":14.31,"mai_ech":"maille","mai_obs":14,"a12":15.92,"a3":11.41},"geometry":{"type":"Polygon","coordinates":[[[9.3966,41.7737],[9.3836,41.7673],[9.3602,41.7645],[9.3521,41.7782],[9.3343,41.7856],[9.3224,41.7824],[9.3118,41.7837],[9.2769,41.7942],[9.2724,41.8077],[9.2823,41.8151],[9.2977,41.8228],[9.3091,41.8321],[9.3292,41.8368],[9.3374,41.8451],[9.3448,41.8453],[9.3557,41.8553],[9.3719,41.865],[9.3867,41.8672],[9.4023,41.8587],[9.4021,41.8458],[9.4063,41.8224],[9.3941,41.7989],[9.3992,41.7901],[9.3966,41.7737]]]}},{"type":"Feature","properties":{"code":"2A004","nom":"Ajaccio","app":15.22,"app_bas":11.98,"app_haut":19.33,"app_ech":"commune","app_obs":7460,"mai":16.01,"mai_bas":10.51,"mai_haut":24.39,"mai_ech":"commune","mai_obs":278,"a12":18.97,"a3":15.48},"geometry":{"type":"Polygon","coordinates":[[[8.7843,41.9554],[8.7846,41.9526],[8.7882,41.9496],[8.8053,41.9488],[8.8176,41.9514],[8.821,41.9485],[8.8136,41.9325],[8.8205,41.9201],[8.7977,41.9054],[8.7858,41.9203],[8.7726,41.9274],[8.7609,41.9245],[8.7549,41.9326],[8.7451,41.9332],[8.7399,41.9283],[8.7411,41.9175],[8.731,41.9159],[8.7214,41.9093],[8.7033,41.9076],[8.6869,41.9086],[8.6705,41.9051],[8.6643,41.9074],[8.6415,41.9099],[8.6149,41.9023],[8.6092,41.9072],[8.6103,41.9131],[8.6219,41.9278],[8.6208,41.9395],[8.609,41.9402],[8.6057,41.9511],[8.5977,41.9532],[8.5959,41.9661],[8.607,41.9677],[8.6148,41.9713],[8.6229,41.9705],[8.6265,41.9645],[8.6486,41.9616],[8.6661,41.952],[8.6693,41.9473],[8.6797,41.9468],[8.7006,41.9533],[8.7031,41.9471],[8.7106,41.9468],[8.7175,41.9514],[8.7226,41.9586],[8.7365,41.9588],[8.7424,41.9608],[8.7573,41.9572],[8.766,41.957],[8.769,41.9618],[8.7805,41.9592],[8.7843,41.9554]]]}},{"type":"Feature","properties":{"code":"2A158","nom":"Mela","app":13.27,"app_bas":10.39,"app_haut":16.96,"app_ech":"maille","app_obs":0,"mai":10.56,"mai_bas":7.21,"mai_haut":15.48,"mai_ech":"maille","mai_obs":0,"a12":16.36,"a3":11.41},"geometry":{"type":"Polygon","coordinates":[[[9.1016,41.6591],[9.0868,41.6628],[9.0844,41.6735],[9.0897,41.6842],[9.082,41.6986],[9.0945,41.7063],[9.0991,41.6909],[9.0973,41.6728],[9.1016,41.6591]]]}},{"type":"Feature","properties":{"code":"2A092","nom":"Conca","app":12.42,"app_bas":9.87,"app_haut":15.63,"app_ech":"maille","app_obs":39,"mai":11.17,"mai_bas":8.72,"mai_haut":14.31,"mai_ech":"maille","mai_obs":32,"a12":16.36,"a3":11.41},"geometry":{"type":"Polygon","coordinates":[[[9.3966,41.7737],[9.4048,41.7725],[9.4073,41.7676],[9.4053,41.7546],[9.4062,41.7392],[9.4014,41.7177],[9.3795,41.7246],[9.3678,41.7207],[9.3662,41.7086],[9.3474,41.7021],[9.3377,41.703],[9.3327,41.7069],[9.3215,41.7071],[9.305,41.7137],[9.3107,41.7212],[9.3121,41.7333],[9.3179,41.7458],[9.2862,41.7552],[9.2659,41.7601],[9.2441,41.7676],[9.2317,41.7745],[9.2423,41.7857],[9.2649,41.8052],[9.2724,41.8077],[9.2769,41.7942],[9.3118,41.7837],[9.3224,41.7824],[9.3343,41.7856],[9.3521,41.7782],[9.3602,41.7645],[9.3836,41.7673],[9.3966,41.7737]]]}},{"type":"Feature","properties":{"code":"2A163","nom":"Monacia-d'Aullène","app":15.24,"app_bas":11.88,"app_haut":19.55,"app_ech":"maille","app_obs":15,"mai":10.56,"mai_bas":7.21,"mai_haut":15.48,"mai_ech":"maille","mai_obs":6,"a12":16.36,"a3":11.41},"geometry":{"type":"Polygon","coordinates":[[[8.9948,41.4855],[8.9844,41.4749],[8.9809,41.4793],[8.9595,41.4921],[8.9405,41.4901],[8.9585,41.5066],[8.9712,41.5086],[8.9776,41.513],[8.9804,41.5196],[8.9966,41.5362],[9.0141,41.5459],[9.0176,41.5556],[9.0367,41.5688],[9.0431,41.5706],[9.069,41.5708],[9.0758,41.5726],[9.0672,41.5658],[9.0614,41.5579],[9.0594,41.5448],[9.0319,41.5202],[9.0327,41.5049],[9.0134,41.5034],[9,41.4973],[8.9948,41.4855]]]}},{"type":"Feature","properties":{"code":"2A362","nom":"Zonza","app":12.42,"app_bas":9.87,"app_haut":15.63,"app_ech":"maille","app_obs":59,"mai":10.56,"mai_bas":7.21,"mai_haut":15.48,"mai_ech":"maille","mai_obs":65,"a12":16.36,"a3":11.41},"geometry":{"type":"Polygon","coordinates":[[[9.3512,41.6396],[9.343,41.6528],[9.3381,41.6683],[9.3441,41.6745],[9.3422,41.6841],[9.3353,41.687],[9.327,41.697],[9.3204,41.6994],[9.3072,41.6958],[9.2935,41.7012],[9.2764,41.6986],[9.2579,41.691],[9.2438,41.6825],[9.2094,41.6936],[9.2004,41.6975],[9.1913,41.7067],[9.1752,41.7155],[9.163,41.7326],[9.1492,41.7397],[9.1369,41.7385],[9.1475,41.746],[9.1636,41.7624],[9.1797,41.7713],[9.1971,41.777],[9.2183,41.7938],[9.2255,41.7917],[9.2299,41.7853],[9.2317,41.7745],[9.2441,41.7676],[9.2659,41.7601],[9.2862,41.7552],[9.3179,41.7458],[9.3121,41.7333],[9.3107,41.7212],[9.305,41.7137],[9.3215,41.7071],[9.3327,41.7069],[9.3377,41.703],[9.3474,41.7021],[9.3662,41.7086],[9.3678,41.7207],[9.3795,41.7246],[9.4014,41.7177],[9.4035,41.7108],[9.3998,41.6928],[9.3811,41.688],[9.3723,41.6788],[9.3757,41.6706],[9.3824,41.6659],[9.3875,41.6574],[9.3851,41.653],[9.3644,41.6362],[9.362,41.64],[9.3512,41.6396]]]}},{"type":"Feature","properties":{"code":"2A019","nom":"Arbori","app":14.6,"app_bas":11.37,"app_haut":18.74,"app_ech":"maille","app_obs":0,"mai":14.63,"mai_bas":9.61,"mai_haut":22.29,"mai_ech":"maille","mai_obs":0,"a12":16.94,"a3":10.3},"geometry":{"type":"Polygon","coordinates":[[[8.8344,42.1309],[8.8212,42.1194],[8.8209,42.1164],[8.8096,42.1116],[8.8003,42.1122],[8.786,42.1035],[8.7742,42.1019],[8.7675,42.096],[8.757,42.0913],[8.7612,42.1011],[8.7694,42.1091],[8.7781,42.1142],[8.774,42.1248],[8.7677,42.1346],[8.7715,42.1359],[8.7802,42.147],[8.7869,42.1518],[8.7999,42.1521],[8.8115,42.1545],[8.8269,42.1418],[8.8204,42.1356],[8.8237,42.1318],[8.8344,42.1309]]]}},{"type":"Feature","properties":{"code":"2A232","nom":"Pila-Canale","app":15.04,"app_bas":11.42,"app_haut":19.8,"app_ech":"maille","app_obs":5,"mai":10.56,"mai_bas":7.21,"mai_haut":15.48,"mai_ech":"maille","mai_obs":7,"a12":15.92,"a3":11.41},"geometry":{"type":"Polygon","coordinates":[[[8.9133,41.8227],[8.924,41.8134],[8.929,41.7954],[8.9194,41.7809],[8.9034,41.7758],[8.8825,41.772],[8.8757,41.7684],[8.8681,41.7605],[8.8625,41.7662],[8.8617,41.7774],[8.8723,41.781],[8.8776,41.7942],[8.8885,41.8084],[8.8976,41.8105],[8.9063,41.8197],[8.9133,41.8227]]]}},{"type":"Feature","properties":{"code":"2A099","nom":"Cozzano","app":11.84,"app_bas":9.72,"app_haut":14.41,"app_ech":"maille","app_obs":0,"mai":11.17,"mai_bas":8.72,"mai_haut":14.31,"mai_ech":"maille","mai_obs":0,"a12":16.36,"a3":10.66},"geometry":{"type":"Polygon","coordinates":[[[9.1391,41.9314],[9.1461,41.9381],[9.1609,41.9446],[9.1664,41.9541],[9.1815,41.9545],[9.1975,41.9572],[9.2227,41.9495],[9.2155,41.942],[9.2211,41.9356],[9.2306,41.9326],[9.2238,41.9251],[9.2133,41.9175],[9.2001,41.9162],[9.1801,41.9067],[9.1654,41.9186],[9.1543,41.9241],[9.1411,41.9269],[9.1391,41.9314]]]}},{"type":"Feature","properties":{"code":"2A103","nom":"Cuttoli-Corticchiato","app":14.6,"app_bas":11.37,"app_haut":18.74,"app_ech":"maille","app_obs":34,"mai":14.63,"mai_bas":9.61,"mai_haut":22.29,"mai_ech":"maille","mai_obs":34,"a12":17.52,"a3":12.23},"geometry":{"type":"Polygon","coordinates":[[[8.872,41.9539],[8.8596,41.9573],[8.8463,41.9578],[8.8259,41.9612],[8.8222,41.9598],[8.8362,41.9782],[8.8426,41.9823],[8.8667,41.9904],[8.883,42.0007],[8.8947,41.9997],[8.9284,41.9919],[8.9467,41.9891],[8.9437,41.9831],[8.9365,41.9779],[8.9192,41.9702],[8.9114,41.9688],[8.8908,41.9563],[8.872,41.9539]]]}},{"type":"Feature","properties":{"code":"2A198","nom":"Ota","app":12.69,"app_bas":9.84,"app_haut":16.35,"app_ech":"maille","app_obs":4,"mai":9.72,"mai_bas":6.93,"mai_haut":13.64,"mai_ech":"maille","mai_obs":0,"a12":16.94,"a3":12.06},"geometry":{"type":"Polygon","coordinates":[[[8.6889,42.2634],[8.6906,42.2749],[8.699,42.2744],[8.7107,42.2771],[8.7554,42.2807],[8.7674,42.2909],[8.7784,42.285],[8.7788,42.2734],[8.7834,42.2675],[8.7805,42.2604],[8.7677,42.2515],[8.7558,42.2465],[8.7515,42.2322],[8.7381,42.2193],[8.7267,42.2167],[8.7217,42.2241],[8.7106,42.2239],[8.6985,42.2283],[8.7007,42.2414],[8.6914,42.2487],[8.6889,42.2634]]]}},{"type":"Feature","properties":{"code":"2A204","nom":"Pastricciola","app":14.6,"app_bas":11.37,"app_haut":18.74,"app_ech":"maille","app_obs":0,"mai":11.17,"mai_bas":8.72,"mai_haut":14.31,"mai_ech":"maille","mai_obs":0,"a12":16.94,"a3":10.3},"geometry":{"type":"Polygon","coordinates":[[[8.9826,42.1118],[8.9635,42.1246],[8.9594,42.1337],[8.9591,42.1429],[8.9529,42.1511],[8.9649,42.1532],[9.0065,42.1661],[9.0138,42.171],[9.0481,42.1757],[9.0506,42.17],[9.0653,42.1645],[9.0752,42.1393],[9.072,42.13],[9.0616,42.1282],[9.0554,42.1246],[9.0371,42.1267],[9.0151,42.1186],[9.003,42.1128],[8.9869,42.1139],[8.9826,42.1118]]]}},{"type":"Feature","properties":{"code":"2A270","nom":"Sari-d'Orcino","app":14.6,"app_bas":11.37,"app_haut":18.74,"app_ech":"maille","app_obs":8,"mai":14.63,"mai_bas":9.61,"mai_haut":22.29,"mai_ech":"maille","mai_obs":0,"a12":13.2,"a3":10.3},"geometry":{"type":"Polygon","coordinates":[[[8.7989,42.0834],[8.8074,42.0823],[8.8267,42.083],[8.8378,42.0785],[8.8484,42.0819],[8.858,42.0797],[8.865,42.073],[8.8674,42.0647],[8.876,42.0615],[8.8868,42.0644],[8.8694,42.0489],[8.8488,42.0461],[8.8422,42.0427],[8.8199,42.0532],[8.7943,42.0543],[8.7935,42.056],[8.7975,42.061],[8.7971,42.0706],[8.787,42.0783],[8.7989,42.0834]]]}},{"type":"Feature","properties":{"code":"2A035","nom":"Belvédère-Campomoro","app":13.27,"app_bas":10.39,"app_haut":16.96,"app_ech":"maille","app_obs":0,"mai":10.56,"mai_bas":7.21,"mai_haut":15.48,"mai_ech":"maille","mai_obs":2,"a12":15.92,"a3":11.41},"geometry":{"type":"Polygon","coordinates":[[[8.8143,41.5876],[8.7961,41.5931],[8.7819,41.5877],[8.7772,41.5928],[8.7839,41.5964],[8.7909,41.6085],[8.7931,41.6296],[8.8025,41.6332],[8.8218,41.6301],[8.8265,41.636],[8.8412,41.6407],[8.8541,41.647],[8.8695,41.6461],[8.8674,41.6374],[8.8513,41.613],[8.8404,41.6017],[8.8305,41.5978],[8.8143,41.5876]]]}},{"type":"Feature","properties":{"code":"2A174","nom":"Murzo","app":11.65,"app_bas":9.27,"app_haut":14.65,"app_ech":"maille","app_obs":1,"mai":14.63,"mai_bas":9.61,"mai_haut":22.29,"mai_ech":"maille","mai_obs":0,"a12":16.94,"a3":10.3},"geometry":{"type":"Polygon","coordinates":[[[8.8869,42.1479],[8.8709,42.1443],[8.8375,42.1392],[8.8344,42.1309],[8.8237,42.1318],[8.8204,42.1356],[8.8269,42.1418],[8.8115,42.1545],[8.8188,42.1672],[8.82,42.1766],[8.8281,42.1787],[8.8429,42.1767],[8.8644,42.1797],[8.8796,42.1781],[8.8745,42.1576],[8.8869,42.1479]]]}},{"type":"Feature","properties":{"code":"2A061","nom":"Carbini","app":15.24,"app_bas":11.88,"app_haut":19.55,"app_ech":"maille","app_obs":0,"mai":10.56,"mai_bas":7.21,"mai_haut":15.48,"mai_ech":"maille","mai_obs":0,"a12":16.36,"a3":11.41},"geometry":{"type":"Polygon","coordinates":[[[9.1638,41.6556],[9.1479,41.6557],[9.1374,41.6611],[9.1333,41.666],[9.1309,41.6773],[9.1267,41.6805],[9.1316,41.686],[9.1408,41.6844],[9.1463,41.6891],[9.1614,41.6946],[9.1648,41.7006],[9.1789,41.6919],[9.1893,41.6833],[9.1933,41.6742],[9.1771,41.666],[9.1638,41.6556]]]}},{"type":"Feature","properties":{"code":"2A011","nom":"Altagène","app":13.27,"app_bas":10.39,"app_haut":16.96,"app_ech":"maille","app_obs":0,"mai":10.56,"mai_bas":7.21,"mai_haut":15.48,"mai_ech":"maille","mai_obs":0,"a12":16.36,"a3":11.41},"geometry":{"type":"Polygon","coordinates":[[[9.0945,41.7063],[9.082,41.6986],[9.0744,41.7019],[9.0525,41.7057],[9.0506,41.71],[9.0667,41.7141],[9.0765,41.7139],[9.0907,41.7213],[9.0965,41.7149],[9.0945,41.7063]]]}},{"type":"Feature","properties":{"code":"2A308","nom":"Sainte-Lucie-de-Tallano","app":13.27,"app_bas":10.39,"app_haut":16.96,"app_ech":"maille","app_obs":20,"mai":10.56,"mai_bas":7.21,"mai_haut":15.48,"mai_ech":"maille","mai_obs":3,"a12":16.36,"a3":11.41},"geometry":{"type":"Polygon","coordinates":[[[9.0416,41.7103],[9.0495,41.7119],[9.0525,41.7057],[9.0744,41.7019],[9.082,41.6986],[9.0897,41.6842],[9.0844,41.6735],[9.0868,41.6628],[9.1016,41.6591],[9.0925,41.6564],[9.0803,41.65],[9.0628,41.6385],[9.0533,41.6429],[9.035,41.6345],[9.0286,41.6348],[9.0209,41.6399],[9.0277,41.6481],[9.0232,41.6569],[9.0361,41.6577],[9.0477,41.6623],[9.0437,41.6665],[9.0493,41.6752],[9.0599,41.6869],[9.0629,41.6928],[9.0586,41.6975],[9.045,41.6999],[9.0391,41.6889],[9.0374,41.6918],[9.0416,41.7103]]]}},{"type":"Feature","properties":{"code":"2A324","nom":"Tavera","app":14.6,"app_bas":11.37,"app_haut":18.74,"app_ech":"maille","app_obs":22,"mai":9.72,"mai_bas":6.93,"mai_haut":13.64,"mai_ech":"maille","mai_obs":11,"a12":13.2,"a3":10.3},"geometry":{"type":"Polygon","coordinates":[[[8.9826,42.1118],[8.9869,42.1139],[9.003,42.1128],[9.0049,42.0981],[9.0006,42.0847],[9.0067,42.0796],[9.0251,42.0797],[9.0334,42.0757],[9.0422,42.0597],[9.0786,42.0477],[9.0929,42.0499],[9.1034,42.0446],[9.0895,42.0409],[9.0805,42.0434],[9.0629,42.0372],[9.0502,42.0372],[9.0434,42.0346],[9.0303,42.0344],[9.0207,42.0415],[9.0145,42.0478],[9.0132,42.055],[9.0072,42.0588],[8.989,42.0652],[8.9859,42.0703],[8.972,42.0822],[8.967,42.0906],[8.9564,42.0927],[8.9557,42.1009],[8.971,42.1026],[8.9826,42.1118]]]}},{"type":"Feature","properties":{"code":"2A118","nom":"Fozzano","app":13.27,"app_bas":10.39,"app_haut":16.96,"app_ech":"maille","app_obs":1,"mai":11.17,"mai_bas":8.72,"mai_haut":14.31,"mai_ech":"maille","mai_obs":0,"a12":16.36,"a3":12.74},"geometry":{"type":"Polygon","coordinates":[[[8.9695,41.6803],[8.9533,41.6859],[8.9489,41.6957],[8.9598,41.7093],[8.9637,41.7206],[8.9886,41.728],[8.9901,41.7234],[8.9857,41.718],[8.9832,41.7082],[8.9854,41.7025],[9.0184,41.7048],[9.0204,41.7092],[9.0291,41.7012],[9.0324,41.6944],[9.0285,41.6883],[9.0157,41.6748],[8.9987,41.6852],[8.9881,41.689],[8.9764,41.6881],[8.9695,41.6803]]]}},{"type":"Feature","properties":{"code":"2A358","nom":"Zévaco","app":13.27,"app_bas":10.39,"app_haut":16.96,"app_ech":"maille","app_obs":0,"mai":11.17,"mai_bas":8.72,"mai_haut":14.31,"mai_ech":"maille","mai_obs":0,"a12":16.36,"a3":11.41},"geometry":{"type":"Polygon","coordinates":[[[9.0331,41.8576],[9.0342,41.878],[9.0297,41.8877],[9.0312,41.8939],[9.042,41.9055],[9.0552,41.9152],[9.0628,41.9248],[9.0581,41.8935],[9.0496,41.8759],[9.0471,41.8603],[9.0363,41.8531],[9.0331,41.8576]]]}},{"type":"Feature","properties":{"code":"2A271","nom":"Sarrola-Carcopino","app":17.96,"app_bas":13.99,"app_haut":23.06,"app_ech":"commune","app_obs":246,"mai":14.63,"mai_bas":9.61,"mai_haut":22.29,"mai_ech":"maille","mai_obs":37,"a12":18.53,"a3":12.87},"geometry":{"type":"Polygon","coordinates":[[[8.8669,42.015],[8.8494,42.0011],[8.8423,41.9859],[8.8426,41.9823],[8.8362,41.9782],[8.8222,41.9598],[8.8176,41.9514],[8.8053,41.9488],[8.7882,41.9496],[8.7846,41.9526],[8.8046,41.9588],[8.8088,41.9629],[8.8054,41.9677],[8.8143,41.9772],[8.8166,41.9852],[8.812,42.0007],[8.8075,42.0093],[8.8031,42.0128],[8.8248,42.0105],[8.8364,42.0169],[8.8351,42.0388],[8.8488,42.0461],[8.8694,42.0489],[8.8684,42.0382],[8.8653,42.0305],[8.8669,42.015]]]}},{"type":"Feature","properties":{"code":"2A282","nom":"Soccia","app":11.65,"app_bas":9.27,"app_haut":14.65,"app_ech":"maille","app_obs":0,"mai":9.72,"mai_bas":6.93,"mai_haut":13.64,"mai_ech":"maille","mai_obs":0,"a12":16.94,"a3":10.83},"geometry":{"type":"Polygon","coordinates":[[[8.9188,42.1805],[8.9068,42.1819],[8.8913,42.1765],[8.8837,42.1772],[8.8823,42.1918],[8.8917,42.2199],[8.8973,42.2235],[8.9295,42.2317],[8.9401,42.2372],[8.9471,42.2342],[8.973,42.2326],[8.9798,42.224],[8.9708,42.2177],[8.9529,42.2115],[8.94,42.2047],[8.9283,42.1958],[8.9188,42.1805]]]}},{"type":"Feature","properties":{"code":"2A008","nom":"Albitreccia","app":18.43,"app_bas":14.04,"app_haut":24.2,"app_ech":"commune","app_obs":138,"mai":14.63,"mai_bas":9.61,"mai_haut":22.29,"mai_ech":"maille","mai_obs":23,"a12":17.52,"a3":12.74},"geometry":{"type":"Polygon","coordinates":[[[8.9605,41.8553],[8.9579,41.8469],[8.9458,41.8477],[8.9397,41.8446],[8.9299,41.8526],[8.9172,41.8538],[8.9125,41.8444],[8.908,41.8453],[8.9044,41.8542],[8.8986,41.855],[8.8871,41.8401],[8.8775,41.837],[8.8729,41.8279],[8.865,41.8273],[8.8604,41.8226],[8.8452,41.8492],[8.8342,41.8476],[8.8342,41.8521],[8.8169,41.8577],[8.8011,41.8525],[8.7896,41.8531],[8.7908,41.8589],[8.7885,41.8683],[8.7983,41.8669],[8.8093,41.875],[8.8235,41.8723],[8.8312,41.8743],[8.8438,41.8738],[8.8553,41.8691],[8.8586,41.878],[8.8554,41.882],[8.8597,41.8877],[8.8876,41.8848],[8.9073,41.8764],[8.9127,41.8784],[8.9324,41.8774],[8.9517,41.8646],[8.96,41.8618],[8.9605,41.8553]]]}},{"type":"Feature","properties":{"code":"2A089","nom":"Ciamannacce","app":11.84,"app_bas":9.72,"app_haut":14.41,"app_ech":"maille","app_obs":0,"mai":11.17,"mai_bas":8.72,"mai_haut":14.31,"mai_ech":"maille","mai_obs":0,"a12":15.92,"a3":10.66},"geometry":{"type":"Polygon","coordinates":[[[9.1391,41.9314],[9.127,41.9285],[9.1364,41.9467],[9.1279,41.9624],[9.1101,41.9744],[9.0976,41.9781],[9.1033,41.986],[9.1102,41.9912],[9.1466,42.0107],[9.154,42.0023],[9.1607,41.9987],[9.1539,41.9815],[9.1619,41.977],[9.1623,41.9657],[9.1664,41.9541],[9.1609,41.9446],[9.1461,41.9381],[9.1391,41.9314]]]}},{"type":"Feature","properties":{"code":"2A094","nom":"Corrano","app":12.42,"app_bas":9.87,"app_haut":15.63,"app_ech":"maille","app_obs":0,"mai":10.56,"mai_bas":7.21,"mai_haut":15.48,"mai_ech":"maille","mai_obs":0,"a12":16.36,"a3":11.41},"geometry":{"type":"Polygon","coordinates":[[[9.0471,41.8603],[9.0496,41.8759],[9.0581,41.8935],[9.0595,41.9055],[9.077,41.9021],[9.0861,41.8972],[9.0924,41.8888],[9.1,41.8838],[9.0891,41.8758],[9.0866,41.8631],[9.0799,41.863],[9.0644,41.8689],[9.0521,41.8596],[9.0471,41.8603]]]}},{"type":"Feature","properties":{"code":"2A133","nom":"Guitera-les-Bains","app":12.42,"app_bas":9.87,"app_haut":15.63,"app_ech":"maille","app_obs":0,"mai":10.56,"mai_bas":7.21,"mai_haut":15.48,"mai_ech":"maille","mai_obs":0,"a12":15.92,"a3":12.74},"geometry":{"type":"Polygon","coordinates":[[[9.0656,41.9632],[9.0669,41.9569],[9.0735,41.9519],[9.0746,41.9467],[9.0701,41.9355],[9.0952,41.9251],[9.1048,41.9174],[9.1027,41.9055],[9.0924,41.8888],[9.0861,41.8972],[9.077,41.9021],[9.0595,41.9055],[9.0628,41.9248],[9.0649,41.9292],[9.0552,41.957],[9.0532,41.9594],[9.0656,41.9632]]]}},{"type":"Feature","properties":{"code":"2A240","nom":"Poggiolo","app":11.65,"app_bas":9.27,"app_haut":14.65,"app_ech":"maille","app_obs":0,"mai":14.63,"mai_bas":9.61,"mai_haut":22.29,"mai_ech":"maille","mai_obs":0,"a12":16.94,"a3":10.3},"geometry":{"type":"Polygon","coordinates":[[[8.8837,42.1772],[8.8913,42.1765],[8.9068,42.1819],[8.9188,42.1805],[8.9208,42.1713],[8.9145,42.1662],[8.9116,42.1578],[8.9167,42.1448],[8.9133,42.1426],[8.8973,42.1412],[8.8927,42.1477],[8.8869,42.1479],[8.8745,42.1576],[8.8796,42.1781],[8.8837,42.1772]]]}},{"type":"Feature","properties":{"code":"2A006","nom":"Alata","app":14.42,"app_bas":11.34,"app_haut":18.33,"app_ech":"maille","app_obs":92,"mai":14.63,"mai_bas":9.61,"mai_haut":22.29,"mai_ech":"maille","mai_obs":84,"a12":17.52,"a3":12.23},"geometry":{"type":"Polygon","coordinates":[[[8.7843,41.9554],[8.7805,41.9592],[8.769,41.9618],[8.766,41.957],[8.7573,41.9572],[8.7424,41.9608],[8.7365,41.9588],[8.7226,41.9586],[8.7175,41.9514],[8.7106,41.9468],[8.7031,41.9471],[8.7006,41.9533],[8.6956,41.959],[8.689,41.9738],[8.6753,41.9773],[8.6684,41.9821],[8.669,41.9902],[8.6833,41.9868],[8.6931,41.9863],[8.7233,41.993],[8.7377,41.9941],[8.7491,41.9932],[8.7583,41.989],[8.7715,41.989],[8.7813,41.9756],[8.7882,41.9695],[8.7882,41.9576],[8.7843,41.9554]]]}},{"type":"Feature","properties":{"code":"2A017","nom":"Appietto","app":14.42,"app_bas":11.34,"app_haut":18.33,"app_ech":"maille","app_obs":31,"mai":14.63,"mai_bas":9.61,"mai_haut":22.29,"mai_ech":"maille","mai_obs":53,"a12":17.52,"a3":12.23},"geometry":{"type":"Polygon","coordinates":[[[8.6566,42.004],[8.6744,42.0065],[8.7006,42.0174],[8.7215,42.0202],[8.7737,42.0198],[8.7963,42.0236],[8.8031,42.0128],[8.8075,42.0093],[8.7988,42.0047],[8.7894,42.0074],[8.7782,42.0011],[8.7808,41.9937],[8.7872,41.9872],[8.7898,41.9801],[8.7882,41.9695],[8.7813,41.9756],[8.7715,41.989],[8.7583,41.989],[8.7491,41.9932],[8.7377,41.9941],[8.7233,41.993],[8.6931,41.9863],[8.6833,41.9868],[8.6576,41.9934],[8.6566,42.004]]]}},{"type":"Feature","properties":{"code":"2A312","nom":"Santa-Maria-Siché","app":13.27,"app_bas":10.39,"app_haut":16.96,"app_ech":"maille","app_obs":39,"mai":10.56,"mai_bas":7.21,"mai_haut":15.48,"mai_ech":"maille","mai_obs":7,"a12":15.92,"a3":11.41},"geometry":{"type":"Polygon","coordinates":[[[8.988,41.9089],[8.9888,41.8896],[8.9996,41.8812],[9.0092,41.8825],[9.0069,41.8804],[9.0002,41.8787],[8.9936,41.8701],[8.9936,41.8632],[8.9894,41.8586],[8.9815,41.8692],[8.9744,41.8697],[8.9684,41.8685],[8.9673,41.8781],[8.955,41.8925],[8.9594,41.8968],[8.988,41.9089]]]}},{"type":"Feature","properties":{"code":"2A360","nom":"Zigliara","app":15.04,"app_bas":11.42,"app_haut":19.8,"app_ech":"maille","app_obs":0,"mai":11.17,"mai_bas":8.72,"mai_haut":14.31,"mai_ech":"maille","mai_obs":1,"a12":17.52,"a3":12.74},"geometry":{"type":"Polygon","coordinates":[[[8.9646,41.8369],[8.973,41.842],[8.9834,41.8565],[8.9894,41.8586],[8.9936,41.8632],[8.9986,41.863],[8.9981,41.8599],[9.0078,41.8314],[9.0046,41.8264],[8.9924,41.8201],[8.979,41.8178],[8.9727,41.8106],[8.9625,41.8089],[8.9575,41.8109],[8.9575,41.8166],[8.9646,41.8369]]]}},{"type":"Feature","properties":{"code":"2A131","nom":"Guagno","app":14.6,"app_bas":11.37,"app_haut":18.74,"app_ech":"maille","app_obs":0,"mai":9.72,"mai_bas":6.93,"mai_haut":13.64,"mai_ech":"maille","mai_obs":0,"a12":16.94,"a3":10.3},"geometry":{"type":"Polygon","coordinates":[[[8.9208,42.1713],[8.9298,42.1735],[8.9429,42.1817],[8.9548,42.1808],[8.97,42.1872],[8.9824,42.2092],[8.9965,42.2072],[9.0065,42.2087],[9.0298,42.2048],[9.0457,42.2077],[9.049,42.193],[9.0481,42.1757],[9.0138,42.171],[9.0065,42.1661],[8.9649,42.1532],[8.9167,42.1448],[8.9116,42.1578],[8.9145,42.1662],[8.9208,42.1713]]]}},{"type":"Feature","properties":{"code":"2A288","nom":"Sotta","app":15.24,"app_bas":11.88,"app_haut":19.55,"app_ech":"maille","app_obs":40,"mai":10.56,"mai_bas":7.21,"mai_haut":15.48,"mai_ech":"maille","mai_obs":37,"a12":16.36,"a3":12.74},"geometry":{"type":"Polygon","coordinates":[[[9.1913,41.4952],[9.1871,41.4994],[9.174,41.504],[9.1657,41.5102],[9.1685,41.5211],[9.1755,41.5281],[9.1653,41.5487],[9.1479,41.5562],[9.1338,41.5659],[9.1226,41.5829],[9.112,41.5961],[9.1271,41.5989],[9.1374,41.6027],[9.1512,41.6143],[9.1696,41.6163],[9.1706,41.6108],[9.182,41.6032],[9.1862,41.5889],[9.1919,41.5762],[9.2061,41.5676],[9.2184,41.5632],[9.2254,41.5583],[9.2368,41.5446],[9.2394,41.5375],[9.2349,41.5157],[9.235,41.5069],[9.2243,41.5094],[9.2072,41.5011],[9.1913,41.4952]]]}},{"type":"Feature","properties":{"code":"2A071","nom":"Casalabriva","app":15.04,"app_bas":11.42,"app_haut":19.8,"app_ech":"maille","app_obs":3,"mai":10.56,"mai_bas":7.21,"mai_haut":15.48,"mai_ech":"maille","mai_obs":8,"a12":15.92,"a3":12.74},"geometry":{"type":"Polygon","coordinates":[[[8.8757,41.7684],[8.8825,41.772],[8.9034,41.7758],[8.9165,41.7804],[8.9413,41.7709],[8.9588,41.7541],[8.9581,41.7435],[8.9533,41.7431],[8.9417,41.7384],[8.9212,41.7396],[8.9261,41.7476],[8.9139,41.7565],[8.9005,41.7625],[8.8848,41.7647],[8.8757,41.7684]]]}},{"type":"Feature","properties":{"code":"2A181","nom":"Ocana","app":14.6,"app_bas":11.37,"app_haut":18.74,"app_ech":"maille","app_obs":11,"mai":14.63,"mai_bas":9.61,"mai_haut":22.29,"mai_ech":"maille","mai_obs":10,"a12":13.2,"a3":12.23},"geometry":{"type":"Polygon","coordinates":[[[8.872,41.9539],[8.8908,41.9563],[8.9114,41.9688],[8.9192,41.9702],[8.9365,41.9779],[8.9437,41.9831],[8.9495,41.9723],[8.9488,41.9624],[8.9514,41.9463],[8.9467,41.9415],[8.9298,41.9342],[8.9037,41.9376],[8.8898,41.9294],[8.8766,41.9317],[8.8637,41.9263],[8.8556,41.9358],[8.8535,41.9429],[8.8606,41.9454],[8.872,41.9539]]]}},{"type":"Feature","properties":{"code":"2A310","nom":"Santa-Maria-Figaniella","app":13.27,"app_bas":10.39,"app_haut":16.96,"app_ech":"maille","app_obs":2,"mai":11.17,"mai_bas":8.72,"mai_haut":14.31,"mai_ech":"maille","mai_obs":1,"a12":16.36,"a3":11.41},"geometry":{"type":"Polygon","coordinates":[[[9.0254,41.7186],[9.0184,41.7048],[8.9854,41.7025],[8.9832,41.7082],[8.9857,41.718],[8.9901,41.7234],[8.9886,41.728],[9.0074,41.7396],[9.0185,41.7523],[9.036,41.7501],[9.0192,41.7244],[9.0254,41.7186]]]}},{"type":"Feature","properties":{"code":"2A108","nom":"Évisa","app":11.74,"app_bas":9.49,"app_haut":14.52,"app_ech":"maille","app_obs":2,"mai":11.53,"mai_bas":9.02,"mai_haut":14.75,"mai_ech":"maille","mai_obs":0,"a12":13.98,"a3":10.83},"geometry":{"type":"Polygon","coordinates":[[[8.7677,42.2515],[8.7805,42.2604],[8.7834,42.2675],[8.7788,42.2734],[8.7784,42.285],[8.7674,42.2909],[8.7708,42.3124],[8.7709,42.3248],[8.79,42.326],[8.7975,42.3229],[8.8196,42.3176],[8.8293,42.3193],[8.8572,42.331],[8.8613,42.3299],[8.8603,42.3059],[8.8627,42.2969],[8.8752,42.2943],[8.8835,42.2855],[8.8846,42.2786],[8.8819,42.2717],[8.8645,42.2637],[8.8535,42.256],[8.8328,42.2521],[8.8245,42.2404],[8.8132,42.2392],[8.8106,42.2413],[8.7976,42.2394],[8.7677,42.2515]]]}}]}