{"type":"FeatureCollection","features":[{"type":"Feature","properties":{"code":"75118","nom":"Paris 18e  Arrondissement","app":29.81,"app_bas":23.1,"app_haut":38.46,"app_ech":"commune","app_obs":22857,"mai":24.79,"mai_bas":14.12,"mai_haut":43.55,"mai_ech":"maille","mai_obs":28,"a12":31.6,"a3":28.09,"pxa":8857,"pxm":15011,"napp":8853,"nmai":34,"ra":3.2,"rm":1.57},"geometry":{"type":"Polygon","coordinates":[[[2.3647,48.8843],[2.338,48.8822],[2.3271,48.8835],[2.3261,48.8891],[2.33,48.9012],[2.3703,48.9017],[2.3698,48.8934],[2.3647,48.8843]]]}},{"type":"Feature","properties":{"code":"75116","nom":"Paris 16e  Arrondissement","app":33.4,"app_bas":26.27,"app_haut":42.46,"app_ech":"commune","app_obs":24208,"mai":26.45,"mai_bas":12.63,"mai_haut":55.37,"mai_ech":"maille","mai_obs":58,"a12":35.49,"a3":33.65,"pxa":10958,"pxm":16621,"napp":7117,"nmai":70,"ra":2.9,"rm":1.51},"geometry":{"type":"Polygon","coordinates":[[[2.2257,48.8594],[2.2317,48.8691],[2.2457,48.8765],[2.2548,48.8741],[2.2585,48.8804],[2.2799,48.8786],[2.2951,48.8739],[2.3016,48.8635],[2.2898,48.8581],[2.2725,48.8437],[2.2628,48.8339],[2.2551,48.8348],[2.2506,48.8456],[2.2242,48.8535],[2.2257,48.8594]]]}},{"type":"Feature","properties":{"code":"75117","nom":"Paris 17e  Arrondissement","app":32.69,"app_bas":25.96,"app_haut":41.15,"app_ech":"commune","app_obs":24365,"mai":26.45,"mai_bas":12.63,"mai_haut":55.37,"mai_ech":"maille","mai_obs":42,"a12":34.56,"a3":31.86,"pxa":10206,"pxm":null,"napp":7442,"nmai":16,"ra":3.05,"rm":null},"geometry":{"type":"Polygon","coordinates":[[[2.2845,48.8856],[2.3199,48.9005],[2.33,48.9012],[2.3261,48.8891],[2.3271,48.8835],[2.2981,48.878],[2.2951,48.8739],[2.2799,48.8786],[2.2845,48.8856]]]}},{"type":"Feature","properties":{"code":"75115","nom":"Paris 15e  Arrondissement","app":31.72,"app_bas":25.95,"app_haut":38.77,"app_ech":"commune","app_obs":37153,"mai":26.45,"mai_bas":12.63,"mai_haut":55.37,"mai_ech":"maille","mai_obs":54,"a12":33.49,"a3":30.75,"pxa":9578,"pxm":null,"napp":9033,"nmai":28,"ra":3.15,"rm":null},"geometry":{"type":"Polygon","coordinates":[[[2.2898,48.8581],[2.3022,48.8503],[2.3166,48.8468],[2.3247,48.8435],[2.3013,48.8251],[2.2894,48.8284],[2.2791,48.8325],[2.2728,48.8279],[2.2628,48.8339],[2.2725,48.8437],[2.2898,48.8581]]]}},{"type":"Feature","properties":{"code":"75101","nom":"Paris 1er Arrondissement","app":35.38,"app_bas":21.9,"app_haut":57.17,"app_ech":"commune","app_obs":3451,"mai":26.45,"mai_bas":12.63,"mai_haut":55.37,"mai_ech":"maille","mai_obs":81,"a12":38.11,"a3":36.11,"pxa":12386,"pxm":null,"napp":893,"nmai":0,"ra":2.72,"rm":null},"geometry":{"type":"Polygon","coordinates":[[[2.3258,48.8695],[2.3279,48.8699],[2.3508,48.8633],[2.3446,48.854],[2.3328,48.8593],[2.3208,48.8631],[2.3258,48.8695]]]}},{"type":"Feature","properties":{"code":"75104","nom":"Paris 4e  Arrondissement","app":37.76,"app_bas":28.19,"app_haut":50.57,"app_ech":"commune","app_obs":4942,"mai":18.51,"mai_bas":11.01,"mai_haut":31.12,"mai_ech":"maille","mai_obs":7,"a12":40.43,"a3":36.49,"pxa":12748,"pxm":null,"napp":1576,"nmai":0,"ra":2.82,"rm":null},"geometry":{"type":"Polygon","coordinates":[[[2.3446,48.854],[2.3501,48.862],[2.3684,48.8557],[2.369,48.8532],[2.3643,48.8462],[2.3446,48.854]]]}},{"type":"Feature","properties":{"code":"75108","nom":"Paris 8e  Arrondissement","app":36.09,"app_bas":27.26,"app_haut":47.77,"app_ech":"commune","app_obs":8293,"mai":26.45,"mai_bas":12.63,"mai_haut":55.37,"mai_ech":"maille","mai_obs":15,"a12":39.07,"a3":35.88,"pxa":12153,"pxm":null,"napp":1944,"nmai":3,"ra":2.83,"rm":null},"geometry":{"type":"Polygon","coordinates":[[[2.3271,48.8835],[2.3258,48.8695],[2.3208,48.8631],[2.3016,48.8635],[2.2951,48.8739],[2.2981,48.878],[2.3271,48.8835]]]}},{"type":"Feature","properties":{"code":"75111","nom":"Paris 11e  Arrondissement","app":31.72,"app_bas":25.17,"app_haut":39.98,"app_ech":"commune","app_obs":17411,"mai":24.79,"mai_bas":14.12,"mai_haut":43.55,"mai_ech":"maille","mai_obs":33,"a12":33.28,"a3":30.42,"pxa":10000,"pxm":null,"napp":7136,"nmai":2,"ra":3.02,"rm":null},"geometry":{"type":"Polygon","coordinates":[[[2.377,48.8719],[2.3943,48.8565],[2.3991,48.8481],[2.369,48.8532],[2.3639,48.8674],[2.377,48.8719]]]}},{"type":"Feature","properties":{"code":"75113","nom":"Paris 13e  Arrondissement","app":30.36,"app_bas":24.4,"app_haut":37.78,"app_ech":"commune","app_obs":14211,"mai":22.56,"mai_bas":13.29,"mai_haut":38.32,"mai_ech":"maille","mai_obs":54,"a12":32.67,"a3":28.03,"pxa":8740,"pxm":12369,"napp":4352,"nmai":46,"ra":3.31,"rm":1.74},"geometry":{"type":"Polygon","coordinates":[[[2.366,48.8449],[2.3901,48.8257],[2.3642,48.8164],[2.3439,48.8158],[2.3415,48.8286],[2.342,48.8383],[2.3517,48.8368],[2.3614,48.8398],[2.366,48.8449]]]}},{"type":"Feature","properties":{"code":"75105","nom":"Paris 5e  Arrondissement","app":34.62,"app_bas":27.39,"app_haut":43.76,"app_ech":"commune","app_obs":7975,"mai":26.45,"mai_bas":12.63,"mai_haut":55.37,"mai_ech":"maille","mai_obs":5,"a12":36.28,"a3":34.24,"pxa":11833,"pxm":null,"napp":2651,"nmai":6,"ra":2.78,"rm":null},"geometry":{"type":"Polygon","coordinates":[[[2.3446,48.854],[2.366,48.8449],[2.3614,48.8398],[2.3517,48.8368],[2.3366,48.8397],[2.3446,48.854]]]}},{"type":"Feature","properties":{"code":"75103","nom":"Paris 3e  Arrondissement","app":36.27,"app_bas":27.95,"app_haut":47.06,"app_ech":"commune","app_obs":5198,"mai":18.51,"mai_bas":11.01,"mai_haut":31.12,"mai_ech":"maille","mai_obs":4,"a12":38.7,"a3":34.48,"pxa":11826,"pxm":null,"napp":2038,"nmai":1,"ra":2.92,"rm":null},"geometry":{"type":"Polygon","coordinates":[[[2.3501,48.862],[2.3541,48.8693],[2.3639,48.8674],[2.3684,48.8557],[2.3501,48.862]]]}},{"type":"Feature","properties":{"code":"75109","nom":"Paris 9e  Arrondissement","app":33.55,"app_bas":26.3,"app_haut":42.8,"app_ech":"commune","app_obs":7870,"mai":26.45,"mai_bas":12.63,"mai_haut":55.37,"mai_ech":"maille","mai_obs":14,"a12":36.21,"a3":32.13,"pxa":10827,"pxm":null,"napp":3306,"nmai":0,"ra":2.95,"rm":null},"geometry":{"type":"Polygon","coordinates":[[[2.3258,48.8695],[2.3271,48.8835],[2.338,48.8822],[2.3496,48.8836],[2.3478,48.8706],[2.3399,48.8719],[2.3258,48.8695]]]}},{"type":"Feature","properties":{"code":"75107","nom":"Paris 7e  Arrondissement","app":36.54,"app_bas":28.32,"app_haut":47.15,"app_ech":"commune","app_obs":9637,"mai":26.45,"mai_bas":12.63,"mai_haut":55.37,"mai_ech":"maille","mai_obs":19,"a12":39.19,"a3":36.04,"pxa":13963,"pxm":null,"napp":2692,"nmai":7,"ra":2.49,"rm":null},"geometry":{"type":"Polygon","coordinates":[[[2.3208,48.8631],[2.3328,48.8593],[2.3283,48.8518],[2.3166,48.8468],[2.3022,48.8503],[2.2898,48.8581],[2.3016,48.8635],[2.3208,48.8631]]]}},{"type":"Feature","properties":{"code":"75119","nom":"Paris 19e  Arrondissement","app":27.7,"app_bas":21.94,"app_haut":34.97,"app_ech":"commune","app_obs":13305,"mai":24.79,"mai_bas":14.12,"mai_haut":43.55,"mai_ech":"maille","mai_obs":40,"a12":30.02,"a3":26.05,"pxa":8125,"pxm":13000,"napp":4543,"nmai":71,"ra":3.24,"rm":1.81},"geometry":{"type":"Polygon","coordinates":[[[2.377,48.8719],[2.3647,48.8843],[2.3698,48.8934],[2.3703,48.9017],[2.3894,48.9012],[2.3949,48.8984],[2.3986,48.8894],[2.4107,48.8785],[2.377,48.8719]]]}},{"type":"Feature","properties":{"code":"75120","nom":"Paris 20e  Arrondissement","app":28.64,"app_bas":23.01,"app_haut":35.66,"app_ech":"commune","app_obs":13525,"mai":24.79,"mai_bas":14.12,"mai_haut":43.55,"mai_ech":"maille","mai_obs":73,"a12":30.96,"a3":26.51,"pxa":8421,"pxm":11455,"napp":5720,"nmai":64,"ra":3.24,"rm":2.06},"geometry":{"type":"Polygon","coordinates":[[[2.4133,48.8731],[2.4163,48.8492],[2.416,48.8466],[2.3991,48.8481],[2.3943,48.8565],[2.377,48.8719],[2.4107,48.8785],[2.4133,48.8731]]]}},{"type":"Feature","properties":{"code":"75112","nom":"Paris 12e  Arrondissement","app":30.26,"app_bas":24.49,"app_haut":37.4,"app_ech":"commune","app_obs":15569,"mai":18.51,"mai_bas":11.01,"mai_haut":31.12,"mai_ech":"maille","mai_obs":33,"a12":32.32,"a3":28.43,"pxa":9060,"pxm":null,"napp":4835,"nmai":14,"ra":3.18,"rm":null},"geometry":{"type":"Polygon","coordinates":[[[2.366,48.8449],[2.3643,48.8462],[2.369,48.8532],[2.3991,48.8481],[2.416,48.8466],[2.4122,48.8345],[2.4221,48.8358],[2.4276,48.8416],[2.4478,48.8448],[2.4634,48.8421],[2.4672,48.8391],[2.4657,48.8262],[2.4612,48.8184],[2.4384,48.8182],[2.406,48.8276],[2.3901,48.8257],[2.366,48.8449]]]}},{"type":"Feature","properties":{"code":"75106","nom":"Paris 6e  Arrondissement","app":37.89,"app_bas":28.59,"app_haut":50.22,"app_ech":"commune","app_obs":6501,"mai":26.45,"mai_bas":12.63,"mai_haut":55.37,"mai_ech":"maille","mai_obs":11,"a12":40.17,"a3":37.61,"pxa":14339,"pxm":null,"napp":2314,"nmai":3,"ra":2.51,"rm":null},"geometry":{"type":"Polygon","coordinates":[[[2.3166,48.8468],[2.3283,48.8518],[2.3328,48.8593],[2.3446,48.854],[2.3366,48.8397],[2.3166,48.8468]]]}},{"type":"Feature","properties":{"code":"75110","nom":"Paris 10e  Arrondissement","app":31.22,"app_bas":24.48,"app_haut":39.81,"app_ech":"commune","app_obs":12038,"mai":24.79,"mai_bas":14.12,"mai_haut":43.55,"mai_ech":"maille","mai_obs":19,"a12":32.74,"a3":30.21,"pxa":9425,"pxm":null,"napp":4428,"nmai":0,"ra":3.15,"rm":null},"geometry":{"type":"Polygon","coordinates":[[[2.3647,48.8843],[2.377,48.8719],[2.3639,48.8674],[2.3478,48.8706],[2.3496,48.8836],[2.3647,48.8843]]]}},{"type":"Feature","properties":{"code":"75114","nom":"Paris 14e  Arrondissement","app":31.26,"app_bas":25.25,"app_haut":38.7,"app_ech":"commune","app_obs":16820,"mai":22.56,"mai_bas":13.29,"mai_haut":38.32,"mai_ech":"maille","mai_obs":65,"a12":33.1,"a3":30.21,"pxa":9488,"pxm":12127,"napp":4621,"nmai":55,"ra":3.14,"rm":1.77},"geometry":{"type":"Polygon","coordinates":[[[2.3141,48.8223],[2.3013,48.8251],[2.3247,48.8435],[2.342,48.8383],[2.3415,48.8286],[2.3439,48.8158],[2.3319,48.817],[2.3141,48.8223]]]}},{"type":"Feature","properties":{"code":"75102","nom":"Paris 2e  Arrondissement","app":34.98,"app_bas":27.1,"app_haut":45.14,"app_ech":"commune","app_obs":4463,"mai":18.51,"mai_bas":11.01,"mai_haut":31.12,"mai_ech":"maille","mai_obs":7,"a12":36.87,"a3":33.34,"pxa":11233,"pxm":null,"napp":1183,"nmai":0,"ra":2.96,"rm":null},"geometry":{"type":"Polygon","coordinates":[[[2.3508,48.8633],[2.3279,48.8699],[2.3399,48.8719],[2.3541,48.8693],[2.3508,48.8633]]]}}]}