{"type":"FeatureCollection","features":[{"type":"Feature","properties":{"code":"84047","nom":"Gargas","app":14.84,"app_bas":11.74,"app_haut":18.74,"app_ech":"maille","app_obs":44,"mai":10.83,"mai_bas":8.34,"mai_haut":14.05,"mai_ech":"maille","mai_obs":71},"geometry":{"type":"Polygon","coordinates":[[[5.3111,43.8826],[5.32,43.8942],[5.3301,43.9011],[5.3354,43.9152],[5.3462,43.9199],[5.3568,43.9169],[5.3723,43.9093],[5.3741,43.9064],[5.3743,43.8998],[5.3666,43.887],[5.3505,43.8894],[5.3402,43.8801],[5.3189,43.8677],[5.3111,43.8826]]]}},{"type":"Feature","properties":{"code":"84078","nom":"Mondragon","app":10.72,"app_bas":8.47,"app_haut":13.58,"app_ech":"commune","app_obs":310,"mai":11.17,"mai_bas":8.27,"mai_haut":15.1,"mai_ech":"commune","mai_obs":140},"geometry":{"type":"Polygon","coordinates":[[[4.6737,44.2147],[4.6729,44.2186],[4.6784,44.2294],[4.6748,44.2385],[4.6619,44.2471],[4.6515,44.2591],[4.6766,44.261],[4.6999,44.2667],[4.7168,44.2647],[4.7223,44.2621],[4.7203,44.2562],[4.7528,44.2538],[4.758,44.2512],[4.7758,44.2506],[4.7804,44.2569],[4.7923,44.2613],[4.804,44.2692],[4.8127,44.2577],[4.8121,44.2421],[4.7878,44.2406],[4.7704,44.2414],[4.7751,44.2357],[4.7653,44.2359],[4.7551,44.2282],[4.7326,44.2265],[4.7202,44.2242],[4.7135,44.2206],[4.7081,44.2131],[4.7018,44.2161],[4.6836,44.2124],[4.6737,44.2147]]]}},{"type":"Feature","properties":{"code":"84084","nom":"Motte-d'Aigues","app":12.91,"app_bas":10.13,"app_haut":16.44,"app_ech":"maille","app_obs":86,"mai":11.78,"mai_bas":8.81,"mai_haut":15.77,"mai_ech":"maille","mai_obs":58},"geometry":{"type":"Polygon","coordinates":[[[5.5043,43.7583],[5.5135,43.7736],[5.5129,43.7865],[5.5096,43.795],[5.5092,43.8068],[5.5119,43.8189],[5.5312,43.8188],[5.5314,43.8058],[5.54,43.7935],[5.5426,43.7846],[5.5304,43.7789],[5.5288,43.7713],[5.5299,43.7581],[5.5217,43.7432],[5.5111,43.747],[5.5043,43.7583]]]}},{"type":"Feature","properties":{"code":"84128","nom":"Sivergues","app":12.5,"app_bas":9.73,"app_haut":16.05,"app_ech":"maille","app_obs":0,"mai":13.58,"mai_bas":9.95,"mai_haut":18.53,"mai_ech":"maille","mai_obs":0},"geometry":{"type":"Polygon","coordinates":[[[5.4214,43.839],[5.4443,43.8197],[5.4453,43.8176],[5.4374,43.8115],[5.4284,43.8104],[5.4189,43.8135],[5.3995,43.8075],[5.3904,43.8258],[5.3952,43.8316],[5.4073,43.8366],[5.4214,43.839]]]}},{"type":"Feature","properties":{"code":"84127","nom":"Sérignan-du-Comtat","app":11.26,"app_bas":8.83,"app_haut":14.36,"app_ech":"commune","app_obs":107,"mai":10.57,"mai_bas":8.05,"mai_haut":13.87,"mai_ech":"commune","mai_obs":121},"geometry":{"type":"Polygon","coordinates":[[[4.8154,44.1877],[4.8262,44.2081],[4.825,44.2221],[4.8469,44.215],[4.8675,44.2117],[4.8689,44.2084],[4.8836,44.2044],[4.8784,44.1943],[4.8769,44.1788],[4.8721,44.1756],[4.8565,44.1742],[4.8518,44.1759],[4.8378,44.1761],[4.8236,44.1644],[4.8208,44.166],[4.8215,44.1828],[4.8154,44.1877]]]}},{"type":"Feature","properties":{"code":"84150","nom":"Visan","app":11.27,"app_bas":8.55,"app_haut":14.84,"app_ech":"commune","app_obs":106,"mai":9.46,"mai_bas":7.1,"mai_haut":12.6,"mai_ech":"maille","mai_obs":67},"geometry":{"type":"Polygon","coordinates":[[[4.8953,44.3381],[4.9073,44.3386],[4.9186,44.3483],[4.9221,44.3538],[4.9373,44.3612],[4.9482,44.3644],[4.9536,44.3556],[4.9663,44.3555],[4.9735,44.3483],[4.9706,44.3398],[4.9945,44.3263],[5.0064,44.3295],[5.009,44.3338],[5.0138,44.3258],[4.9997,44.3197],[4.9931,44.3143],[4.9889,44.3053],[4.987,44.2927],[4.9786,44.2975],[4.9592,44.3004],[4.9451,44.3049],[4.9218,44.3088],[4.8895,44.304],[4.8898,44.3146],[4.8816,44.3249],[4.8953,44.3381]]]}},{"type":"Feature","properties":{"code":"84027","nom":"Caderousse","app":10.84,"app_bas":8.87,"app_haut":13.24,"app_ech":"commune","app_obs":223,"mai":10.06,"mai_bas":7.7,"mai_haut":13.14,"mai_ech":"maille","mai_obs":90},"geometry":{"type":"Polygon","coordinates":[[[4.7276,44.146],[4.7339,44.1379],[4.7411,44.138],[4.7585,44.1308],[4.767,44.1255],[4.7793,44.122],[4.7847,44.1109],[4.7835,44.0913],[4.7731,44.0824],[4.7605,44.0789],[4.7609,44.0863],[4.7549,44.0883],[4.7407,44.0845],[4.7301,44.079],[4.7206,44.0818],[4.7197,44.0856],[4.7061,44.1077],[4.7143,44.1378],[4.7175,44.1415],[4.7182,44.1524],[4.7276,44.146]]]}},{"type":"Feature","properties":{"code":"84033","nom":"Castellet","app":11.14,"app_bas":8.92,"app_haut":13.93,"app_ech":"maille","app_obs":3,"mai":13.58,"mai_bas":9.95,"mai_haut":18.53,"mai_ech":"maille","mai_obs":4},"geometry":{"type":"Polygon","coordinates":[[[5.4672,43.8153],[5.4623,43.8274],[5.4641,43.8414],[5.4688,43.8478],[5.4766,43.8519],[5.5077,43.847],[5.509,43.8401],[5.4976,43.8413],[5.4891,43.8183],[5.4672,43.8153]]]}},{"type":"Feature","properties":{"code":"84100","nom":"Roque-Alric","app":10.12,"app_bas":7.99,"app_haut":12.81,"app_ech":"maille","app_obs":0,"mai":10.91,"mai_bas":8.18,"mai_haut":14.56,"mai_ech":"maille","mai_obs":3},"geometry":{"type":"Polygon","coordinates":[[[5.071,44.1322],[5.0556,44.1378],[5.0575,44.1503],[5.0656,44.1593],[5.0746,44.1584],[5.0849,44.1325],[5.071,44.1322]]]}},{"type":"Feature","properties":{"code":"84052","nom":"Grambois","app":12.46,"app_bas":9.98,"app_haut":15.55,"app_ech":"maille","app_obs":27,"mai":11.24,"mai_bas":7.91,"mai_haut":15.96,"mai_ech":"maille","mai_obs":45},"geometry":{"type":"Polygon","coordinates":[[[5.5928,43.7829],[5.6101,43.7769],[5.6263,43.7834],[5.6387,43.7837],[5.6539,43.7676],[5.6416,43.7607],[5.6428,43.7498],[5.6409,43.7406],[5.6137,43.7325],[5.5937,43.7418],[5.5786,43.7441],[5.5564,43.7565],[5.5507,43.7739],[5.5637,43.7748],[5.5822,43.7822],[5.5928,43.7829]]]}},{"type":"Feature","properties":{"code":"84144","nom":"Viens","app":12.91,"app_bas":10.13,"app_haut":16.44,"app_ech":"maille","app_obs":18,"mai":11.14,"mai_bas":8.22,"mai_haut":15.09,"mai_ech":"maille","mai_obs":15},"geometry":{"type":"Polygon","coordinates":[[[5.5613,43.8575],[5.5541,43.8675],[5.5472,43.8913],[5.5368,43.8914],[5.5183,43.8882],[5.511,43.8937],[5.5222,43.9091],[5.5374,43.9126],[5.531,43.9267],[5.545,43.9391],[5.5588,43.9426],[5.5676,43.9426],[5.5745,43.931],[5.5815,43.923],[5.5816,43.915],[5.5943,43.9168],[5.6066,43.9161],[5.6071,43.9138],[5.5977,43.9012],[5.5903,43.8872],[5.5738,43.8665],[5.5613,43.8575]]]}},{"type":"Feature","properties":{"code":"84004","nom":"Aubignan","app":10.47,"app_bas":8.27,"app_haut":13.25,"app_ech":"commune","app_obs":334,"mai":10.93,"mai_bas":8.19,"mai_haut":14.6,"mai_ech":"commune","mai_obs":220},"geometry":{"type":"Polygon","coordinates":[[[5.0703,44.1063],[5.074,44.1016],[5.0736,44.0959],[5.0663,44.0934],[5.0531,44.0971],[5.0465,44.0961],[5.0511,44.0821],[5.041,44.0746],[5.0339,44.0762],[5.025,44.0857],[5.0036,44.0902],[4.9936,44.0953],[4.992,44.1007],[5.0021,44.1072],[5.0197,44.1073],[5.0195,44.1127],[5.0279,44.1174],[5.0354,44.1166],[5.0394,44.1098],[5.0703,44.1063]]]}},{"type":"Feature","properties":{"code":"84050","nom":"Gordes","app":13.53,"app_bas":10.88,"app_haut":16.82,"app_ech":"maille","app_obs":29,"mai":10.83,"mai_bas":8.34,"mai_haut":14.05,"mai_ech":"maille","mai_obs":42},"geometry":{"type":"Polygon","coordinates":[[[5.196,43.9503],[5.207,43.9471],[5.2151,43.9386],[5.23,43.9331],[5.2374,43.9261],[5.2489,43.9028],[5.2457,43.8961],[5.2384,43.8868],[5.2202,43.8847],[5.21,43.8765],[5.1988,43.8712],[5.1883,43.8601],[5.1666,43.8644],[5.1664,43.8843],[5.1649,43.9049],[5.1661,43.9255],[5.1593,43.9422],[5.1597,43.95],[5.164,43.9513],[5.18,43.9524],[5.196,43.9503]]]}},{"type":"Feature","properties":{"code":"84096","nom":"Rasteau","app":10.86,"app_bas":9.12,"app_haut":12.93,"app_ech":"maille","app_obs":9,"mai":9.09,"mai_bas":7.01,"mai_haut":11.79,"mai_ech":"maille","mai_obs":41},"geometry":{"type":"Polygon","coordinates":[[[4.9491,44.2023],[4.9632,44.2256],[4.961,44.2483],[4.9686,44.2479],[4.97,44.2542],[4.9768,44.2626],[4.9895,44.2648],[4.9942,44.259],[5.0072,44.2492],[5.0037,44.2444],[5.0099,44.2382],[4.9948,44.2215],[4.9887,44.2058],[4.9491,44.2023]]]}},{"type":"Feature","properties":{"code":"84109","nom":"Saint-Hippolyte-le-Graveyron","app":10.12,"app_bas":7.99,"app_haut":12.81,"app_ech":"maille","app_obs":1,"mai":10.91,"mai_bas":8.18,"mai_haut":14.56,"mai_ech":"maille","mai_obs":1},"geometry":{"type":"Polygon","coordinates":[[[5.071,44.1322],[5.0849,44.1325],[5.0921,44.1298],[5.0888,44.1221],[5.0805,44.1124],[5.0768,44.1032],[5.074,44.1016],[5.0703,44.1063],[5.063,44.1199],[5.0635,44.1275],[5.071,44.1322]]]}},{"type":"Feature","properties":{"code":"84116","nom":"Saint-Romain-en-Viennois","app":10.72,"app_bas":8.7,"app_haut":13.22,"app_ech":"maille","app_obs":15,"mai":7.73,"mai_bas":5.84,"mai_haut":10.22,"mai_ech":"maille","mai_obs":41},"geometry":{"type":"Polygon","coordinates":[[[5.1186,44.2456],[5.1143,44.2442],[5.0959,44.2483],[5.0885,44.2543],[5.084,44.2698],[5.0741,44.277],[5.0955,44.2801],[5.1146,44.2702],[5.119,44.2615],[5.1247,44.255],[5.1186,44.2456]]]}},{"type":"Feature","properties":{"code":"84090","nom":"Peypin-d'Aigues","app":12.91,"app_bas":10.13,"app_haut":16.44,"app_ech":"maille","app_obs":12,"mai":11.78,"mai_bas":8.81,"mai_haut":15.77,"mai_ech":"maille","mai_obs":18},"geometry":{"type":"Polygon","coordinates":[[[5.5426,43.7846],[5.54,43.7935],[5.5314,43.8058],[5.5312,43.8188],[5.5509,43.8174],[5.5632,43.8181],[5.5771,43.8083],[5.5933,43.7926],[5.5928,43.7829],[5.5822,43.7822],[5.5637,43.7748],[5.5393,43.7741],[5.5426,43.7846]]]}},{"type":"Feature","properties":{"code":"84072","nom":"Mazan","app":10.7,"app_bas":8.67,"app_haut":13.21,"app_ech":"commune","app_obs":455,"mai":11.04,"mai_bas":8.41,"mai_haut":14.51,"mai_ech":"commune","mai_obs":246},"geometry":{"type":"Polygon","coordinates":[[[5.1019,44.0793],[5.1297,44.0853],[5.1319,44.0841],[5.1591,44.0875],[5.1645,44.0755],[5.1613,44.0631],[5.1644,44.0539],[5.1781,44.0462],[5.1861,44.0365],[5.1712,44.0342],[5.1504,44.0338],[5.1367,44.0281],[5.1324,44.0221],[5.1225,44.0192],[5.1067,44.0248],[5.0941,44.0273],[5.095,44.0376],[5.0982,44.04],[5.0982,44.0526],[5.0857,44.0621],[5.0826,44.0679],[5.0884,44.0746],[5.1019,44.0793]]]}},{"type":"Feature","properties":{"code":"84080","nom":"Monteux","app":12.98,"app_bas":10.71,"app_haut":15.75,"app_ech":"commune","app_obs":2154,"mai":10.76,"mai_bas":8.37,"mai_haut":13.84,"mai_ech":"commune","mai_obs":561},"geometry":{"type":"Polygon","coordinates":[[[4.9789,44.0651],[4.99,44.0696],[4.9965,44.0612],[5.0055,44.0573],[5.0152,44.0597],[5.0237,44.0466],[5.0276,44.0307],[5.0357,44.0224],[5.0171,44.0111],[4.981,43.9963],[4.9733,44.0054],[4.952,44.0199],[4.9365,44.0245],[4.9397,44.0452],[4.9424,44.054],[4.9789,44.0651]]]}},{"type":"Feature","properties":{"code":"84139","nom":"Fontaine-de-Vaucluse","app":13.53,"app_bas":10.88,"app_haut":16.82,"app_ech":"maille","app_obs":66,"mai":10.83,"mai_bas":8.34,"mai_haut":14.05,"mai_ech":"maille","mai_obs":21},"geometry":{"type":"Polygon","coordinates":[[[5.1545,43.9417],[5.1445,43.915],[5.1222,43.9071],[5.1062,43.9117],[5.1233,43.9299],[5.1467,43.9398],[5.1545,43.9417]]]}},{"type":"Feature","properties":{"code":"84114","nom":"Saint-Pantaléon","app":14.84,"app_bas":11.74,"app_haut":18.74,"app_ech":"maille","app_obs":6,"mai":10.83,"mai_bas":8.34,"mai_haut":14.05,"mai_ech":"maille","mai_obs":14},"geometry":{"type":"Polygon","coordinates":[[[5.2202,43.8847],[5.2196,43.8723],[5.21,43.8765],[5.2202,43.8847]]]}},{"type":"Feature","properties":{"code":"84018","nom":"Blauvac","app":10.59,"app_bas":8.57,"app_haut":13.09,"app_ech":"maille","app_obs":27,"mai":10.83,"mai_bas":8.34,"mai_haut":14.05,"mai_ech":"maille","mai_obs":43},"geometry":{"type":"Polygon","coordinates":[[[5.1712,44.0342],[5.1861,44.0365],[5.211,44.0424],[5.2233,44.0439],[5.2419,44.0424],[5.254,44.0458],[5.2703,44.0542],[5.2843,44.0539],[5.2941,44.0558],[5.301,44.0651],[5.3064,44.065],[5.312,44.0422],[5.3063,44.0414],[5.3008,44.0315],[5.294,44.0323],[5.2887,44.0425],[5.2799,44.0464],[5.2682,44.0361],[5.2581,44.0322],[5.2216,44.0244],[5.2086,44.0163],[5.205,44.0102],[5.1906,44.0062],[5.1875,44.0096],[5.1979,44.0184],[5.1824,44.0308],[5.1712,44.0342]]]}},{"type":"Feature","properties":{"code":"84073","nom":"Ménerbes","app":12.63,"app_bas":9.6,"app_haut":16.63,"app_ech":"maille","app_obs":17,"mai":12.21,"mai_bas":9.48,"mai_haut":15.73,"mai_ech":"maille","mai_obs":12},"geometry":{"type":"Polygon","coordinates":[[[5.2275,43.7922],[5.198,43.7946],[5.1972,43.8131],[5.1987,43.8189],[5.1914,43.8417],[5.1848,43.8541],[5.1774,43.8622],[5.2022,43.8565],[5.2233,43.8556],[5.2398,43.8448],[5.2449,43.8396],[5.2563,43.8186],[5.2569,43.7991],[5.2275,43.7922]]]}},{"type":"Feature","properties":{"code":"84087","nom":"Orange","app":11.21,"app_bas":8.92,"app_haut":14.08,"app_ech":"commune","app_obs":4443,"mai":11.25,"mai_bas":8.65,"mai_haut":14.62,"mai_ech":"commune","mai_obs":964},"geometry":{"type":"Polygon","coordinates":[[[4.8015,44.1768],[4.8131,44.1821],[4.8154,44.1877],[4.8215,44.1828],[4.8208,44.166],[4.8236,44.1644],[4.8378,44.1761],[4.8518,44.1759],[4.8485,44.171],[4.8464,44.1591],[4.8518,44.1502],[4.864,44.1475],[4.8787,44.1338],[4.8754,44.1169],[4.8709,44.1179],[4.8544,44.1097],[4.8396,44.0985],[4.8395,44.0798],[4.8297,44.0837],[4.816,44.0865],[4.801,44.0836],[4.7928,44.0698],[4.788,44.0651],[4.7851,44.0674],[4.7596,44.0751],[4.7605,44.0789],[4.7731,44.0824],[4.7835,44.0913],[4.7847,44.1109],[4.7793,44.122],[4.767,44.1255],[4.7585,44.1308],[4.7411,44.138],[4.7339,44.1379],[4.7276,44.146],[4.7422,44.1559],[4.7604,44.1539],[4.7775,44.1562],[4.8015,44.1724],[4.8015,44.1768]]]}},{"type":"Feature","properties":{"code":"84112","nom":"Saint-Martin-de-Castillon","app":11.14,"app_bas":8.92,"app_haut":13.93,"app_ech":"maille","app_obs":23,"mai":11.14,"mai_bas":8.22,"mai_haut":15.09,"mai_ech":"maille","mai_obs":50},"geometry":{"type":"Polygon","coordinates":[[[5.467,43.8607],[5.473,43.8664],[5.487,43.8729],[5.5043,43.8853],[5.511,43.8937],[5.5183,43.8882],[5.5368,43.8914],[5.5472,43.8913],[5.5541,43.8675],[5.5613,43.8575],[5.5497,43.8512],[5.5448,43.8176],[5.5312,43.8188],[5.4891,43.8183],[5.4976,43.8413],[5.509,43.8401],[5.5077,43.847],[5.4766,43.8519],[5.4732,43.8587],[5.467,43.8607]]]}},{"type":"Feature","properties":{"code":"84014","nom":"Beaumont-de-Pertuis","app":12.46,"app_bas":9.98,"app_haut":15.55,"app_ech":"maille","app_obs":41,"mai":11.24,"mai_bas":7.91,"mai_haut":15.96,"mai_ech":"maille","mai_obs":53},"geometry":{"type":"Polygon","coordinates":[[[5.7136,43.7811],[5.7161,43.7574],[5.7273,43.7503],[5.7492,43.7405],[5.7573,43.7294],[5.7536,43.7246],[5.7475,43.7196],[5.7369,43.716],[5.7174,43.6935],[5.7052,43.6899],[5.6828,43.6928],[5.6919,43.6984],[5.6814,43.7163],[5.6772,43.7188],[5.6466,43.7244],[5.6409,43.7406],[5.6428,43.7498],[5.6416,43.7607],[5.6539,43.7676],[5.6672,43.7656],[5.6788,43.7723],[5.695,43.7842],[5.7136,43.7811]]]}},{"type":"Feature","properties":{"code":"84113","nom":"Saint-Martin-de-la-Brasque","app":12.46,"app_bas":9.98,"app_haut":15.55,"app_ech":"maille","app_obs":25,"mai":11.24,"mai_bas":7.91,"mai_haut":15.96,"mai_ech":"maille","mai_obs":21},"geometry":{"type":"Polygon","coordinates":[[[5.5244,43.747],[5.5299,43.7581],[5.5288,43.7713],[5.5304,43.7789],[5.5426,43.7846],[5.5393,43.7741],[5.5507,43.7739],[5.5564,43.7565],[5.5446,43.7541],[5.5244,43.747]]]}},{"type":"Feature","properties":{"code":"84007","nom":"Avignon","app":12.27,"app_bas":9.55,"app_haut":15.77,"app_ech":"commune","app_obs":18575,"mai":11.52,"mai_bas":8.61,"mai_haut":15.41,"mai_ech":"commune","mai_obs":1512},"geometry":{"type":"Polygon","coordinates":[[[4.9272,43.9053],[4.9213,43.8996],[4.922,43.8868],[4.9023,43.8879],[4.8813,43.9016],[4.8531,43.9114],[4.8217,43.9128],[4.7391,43.9241],[4.75,43.9322],[4.7615,43.9349],[4.7688,43.9338],[4.779,43.9379],[4.792,43.9523],[4.7972,43.9567],[4.808,43.96],[4.8151,43.9676],[4.8101,43.977],[4.8113,43.9856],[4.816,43.9888],[4.832,43.9853],[4.8421,43.9865],[4.8456,43.9967],[4.8516,43.9891],[4.8544,43.9832],[4.854,43.9713],[4.8468,43.961],[4.8389,43.9579],[4.838,43.9524],[4.8601,43.951],[4.8723,43.9532],[4.884,43.9528],[4.8879,43.9498],[4.8995,43.9305],[4.8971,43.9177],[4.8988,43.9147],[4.9272,43.9053]]]}},{"type":"Feature","properties":{"code":"84029","nom":"Camaret-sur-Aigues","app":11.4,"app_bas":8.96,"app_haut":14.52,"app_ech":"commune","app_obs":222,"mai":10.89,"mai_bas":8.27,"mai_haut":14.34,"mai_ech":"commune","mai_obs":247},"geometry":{"type":"Polygon","coordinates":[[[4.8787,44.1338],[4.864,44.1475],[4.8518,44.1502],[4.8464,44.1591],[4.8485,44.171],[4.8518,44.1759],[4.8565,44.1742],[4.8721,44.1756],[4.8728,44.1718],[4.8847,44.1712],[4.8897,44.175],[4.9107,44.1713],[4.9354,44.1733],[4.9323,44.162],[4.9161,44.1606],[4.8924,44.1466],[4.8787,44.1338]]]}},{"type":"Feature","properties":{"code":"84043","nom":"Entraigues-sur-la-Sorgue","app":12.62,"app_bas":10.16,"app_haut":15.66,"app_ech":"commune","app_obs":624,"mai":10.24,"mai_bas":8.04,"mai_haut":13.04,"mai_ech":"commune","mai_obs":274},"geometry":{"type":"Polygon","coordinates":[[[4.9112,43.9933],[4.9069,44.0048],[4.9082,44.012],[4.9153,44.0188],[4.936,44.0244],[4.94,44.0146],[4.9535,43.9991],[4.9626,43.9856],[4.951,43.9746],[4.937,43.968],[4.9289,43.9676],[4.9112,43.9933]]]}},{"type":"Feature","properties":{"code":"84148","nom":"Villes-sur-Auzon","app":10.59,"app_bas":8.57,"app_haut":13.09,"app_ech":"maille","app_obs":64,"mai":10.83,"mai_bas":8.34,"mai_haut":14.05,"mai_ech":"maille","mai_obs":66},"geometry":{"type":"Polygon","coordinates":[[[5.2247,44.0794],[5.2322,44.0822],[5.2674,44.0856],[5.2832,44.0887],[5.2989,44.0893],[5.3002,44.0813],[5.3064,44.065],[5.301,44.0651],[5.2941,44.0558],[5.2843,44.0539],[5.2703,44.0542],[5.254,44.0458],[5.2419,44.0424],[5.2233,44.0439],[5.211,44.0424],[5.2083,44.0473],[5.2177,44.0608],[5.2198,44.073],[5.2247,44.0794]]]}},{"type":"Feature","properties":{"code":"84049","nom":"Gigondas","app":10.12,"app_bas":7.99,"app_haut":12.81,"app_ech":"maille","app_obs":29,"mai":9.93,"mai_bas":7.39,"mai_haut":13.34,"mai_ech":"maille","mai_obs":21},"geometry":{"type":"Polygon","coordinates":[[[5.0683,44.19],[5.0721,44.1877],[5.0625,44.1816],[5.05,44.1787],[5.0393,44.1729],[5.0328,44.1649],[5.0412,44.1614],[5.0386,44.1595],[5.0414,44.1437],[5.0341,44.143],[5.0149,44.1345],[4.9954,44.1383],[4.9937,44.1568],[4.9796,44.1629],[4.9693,44.1623],[4.9643,44.156],[4.9583,44.1571],[4.9678,44.1697],[4.9766,44.1851],[4.9814,44.1888],[4.9945,44.1873],[5.0136,44.1799],[5.0256,44.1802],[5.0331,44.1881],[5.0625,44.1936],[5.0683,44.19]]]}},{"type":"Feature","properties":{"code":"84140","nom":"Vaugines","app":12.5,"app_bas":9.73,"app_haut":16.05,"app_ech":"maille","app_obs":19,"mai":11.14,"mai_bas":8.22,"mai_haut":15.09,"mai_ech":"maille","mai_obs":29},"geometry":{"type":"Polygon","coordinates":[[[5.4236,43.734],[5.4142,43.7374],[5.3907,43.7565],[5.3861,43.7575],[5.3863,43.7619],[5.3936,43.7866],[5.3901,43.8024],[5.3995,43.8075],[5.4189,43.8135],[5.4205,43.802],[5.4247,43.7926],[5.4197,43.7767],[5.4071,43.7679],[5.4054,43.7562],[5.4169,43.7468],[5.4302,43.7424],[5.4236,43.734]]]}},{"type":"Feature","properties":{"code":"84015","nom":"Beaumont-du-Ventoux","app":8.59,"app_bas":6.67,"app_haut":11.07,"app_ech":"maille","app_obs":1,"mai":9.93,"mai_bas":7.39,"mai_haut":13.34,"mai_ech":"maille","mai_obs":6},"geometry":{"type":"Polygon","coordinates":[[[5.2427,44.2015],[5.2476,44.1937],[5.2621,44.1924],[5.2812,44.1853],[5.2783,44.174],[5.2446,44.1728],[5.22,44.1681],[5.1727,44.1626],[5.1659,44.1699],[5.1587,44.184],[5.1595,44.1965],[5.1683,44.1955],[5.1932,44.1969],[5.2053,44.2012],[5.2172,44.1975],[5.2371,44.1975],[5.2427,44.2015]]]}},{"type":"Feature","properties":{"code":"84071","nom":"Maubec","app":13.53,"app_bas":10.88,"app_haut":16.82,"app_ech":"maille","app_obs":62,"mai":11.46,"mai_bas":8.53,"mai_haut":15.4,"mai_ech":"maille","mai_obs":53},"geometry":{"type":"Polygon","coordinates":[[[5.1455,43.8082],[5.1437,43.8081],[5.1358,43.8157],[5.1332,43.8222],[5.1204,43.8394],[5.1269,43.8547],[5.1339,43.8584],[5.1366,43.8686],[5.1483,43.8679],[5.1481,43.8591],[5.1509,43.8471],[5.1426,43.8238],[5.1455,43.8082]]]}},{"type":"Feature","properties":{"code":"84142","nom":"Velleron","app":13.18,"app_bas":10.48,"app_haut":16.57,"app_ech":"commune","app_obs":179,"mai":11.67,"mai_bas":9.07,"mai_haut":15.02,"mai_ech":"maille","mai_obs":71},"geometry":{"type":"Polygon","coordinates":[[[4.9589,43.9722],[4.9946,43.9709],[5.0091,43.9714],[5.0192,43.9746],[5.0425,43.9763],[5.0633,43.9707],[5.0688,43.9644],[5.0591,43.9532],[5.0417,43.9449],[5.0252,43.9462],[5.0172,43.9444],[5.0061,43.9464],[5.0012,43.9579],[4.9938,43.9632],[4.9589,43.9722]]]}},{"type":"Feature","properties":{"code":"84011","nom":"Beaucet","app":12.18,"app_bas":9.74,"app_haut":15.24,"app_ech":"maille","app_obs":8,"mai":11.35,"mai_bas":8.63,"mai_haut":14.92,"mai_ech":"maille","mai_obs":9},"geometry":{"type":"Polygon","coordinates":[[[5.1597,43.95],[5.131,43.956],[5.13,43.9654],[5.119,43.9727],[5.1116,43.9825],[5.1038,43.9975],[5.1133,44.0022],[5.1222,43.9967],[5.1365,43.9767],[5.1495,43.9667],[5.164,43.9513],[5.1597,43.95]]]}},{"type":"Feature","properties":{"code":"84066","nom":"Lioux","app":10.59,"app_bas":8.57,"app_haut":13.09,"app_ech":"maille","app_obs":1,"mai":10.83,"mai_bas":8.34,"mai_haut":14.05,"mai_ech":"maille","mai_obs":0},"geometry":{"type":"Polygon","coordinates":[[[5.2823,43.935],[5.2748,43.9392],[5.2671,43.9478],[5.2663,43.9603],[5.2764,43.9763],[5.2903,43.9883],[5.2863,43.9974],[5.2913,44.0055],[5.3056,44.018],[5.3138,44.0223],[5.3213,44.0162],[5.3347,44.0129],[5.3498,44.006],[5.3586,43.9998],[5.3593,43.9956],[5.3416,43.9739],[5.3328,43.9704],[5.3191,43.9566],[5.2996,43.9436],[5.2927,43.9356],[5.2823,43.935]]]}},{"type":"Feature","properties":{"code":"84134","nom":"Travaillan","app":10.86,"app_bas":9.12,"app_haut":12.93,"app_ech":"maille","app_obs":9,"mai":10.62,"mai_bas":8.11,"mai_haut":13.92,"mai_ech":"maille","mai_obs":26},"geometry":{"type":"Polygon","coordinates":[[[4.9156,44.2081],[4.9317,44.2111],[4.935,44.2088],[4.9358,44.1983],[4.939,44.1825],[4.9354,44.1733],[4.9107,44.1713],[4.8897,44.175],[4.8847,44.1712],[4.8728,44.1718],[4.8721,44.1756],[4.8769,44.1788],[4.8784,44.1943],[4.8836,44.2044],[4.9156,44.2081]]]}},{"type":"Feature","properties":{"code":"84037","nom":"Châteauneuf-du-Pape","app":12.22,"app_bas":9.84,"app_haut":15.18,"app_ech":"commune","app_obs":219,"mai":9.47,"mai_bas":6.85,"mai_haut":13.09,"mai_ech":"commune","mai_obs":113},"geometry":{"type":"Polygon","coordinates":[[[4.8623,44.036],[4.8447,44.0349],[4.8318,44.0361],[4.8237,44.0396],[4.8105,44.0496],[4.7959,44.0479],[4.7872,44.0557],[4.788,44.0651],[4.7928,44.0698],[4.801,44.0836],[4.816,44.0865],[4.8297,44.0837],[4.8395,44.0798],[4.8548,44.0683],[4.8654,44.057],[4.8623,44.036]]]}},{"type":"Feature","properties":{"code":"84048","nom":"Gignac","app":11.14,"app_bas":8.92,"app_haut":13.93,"app_ech":"maille","app_obs":1,"mai":11.14,"mai_bas":8.22,"mai_haut":15.09,"mai_ech":"maille","mai_obs":3},"geometry":{"type":"Polygon","coordinates":[[[5.5222,43.9091],[5.514,43.91],[5.5069,43.9167],[5.5111,43.9316],[5.5127,43.9454],[5.53,43.9457],[5.545,43.9391],[5.531,43.9267],[5.5374,43.9126],[5.5222,43.9091]]]}},{"type":"Feature","properties":{"code":"84102","nom":"Roussillon","app":13.53,"app_bas":10.88,"app_haut":16.82,"app_ech":"maille","app_obs":31,"mai":10.83,"mai_bas":8.34,"mai_haut":14.05,"mai_ech":"maille","mai_obs":39},"geometry":{"type":"Polygon","coordinates":[[[5.2457,43.8961],[5.2489,43.9028],[5.2719,43.9235],[5.274,43.9274],[5.3021,43.9306],[5.3105,43.925],[5.3278,43.921],[5.3354,43.9152],[5.3301,43.9011],[5.32,43.8942],[5.3111,43.8826],[5.2985,43.872],[5.2997,43.8611],[5.2908,43.8609],[5.2863,43.8716],[5.2743,43.878],[5.2703,43.8834],[5.252,43.896],[5.2457,43.8961]]]}},{"type":"Feature","properties":{"code":"84123","nom":"Sault","app":9.93,"app_bas":8.04,"app_haut":12.25,"app_ech":"commune","app_obs":100,"mai":8.85,"mai_bas":6.67,"mai_haut":11.76,"mai_ech":"maille","mai_obs":34},"geometry":{"type":"Polygon","coordinates":[[[5.4394,44.0141],[5.4222,44.0133],[5.3856,44.0029],[5.3671,43.9958],[5.3593,43.9956],[5.3586,43.9998],[5.3498,44.006],[5.3586,44.015],[5.3644,44.0309],[5.3732,44.045],[5.3813,44.0528],[5.3904,44.0672],[5.3896,44.0718],[5.3645,44.0884],[5.3374,44.0957],[5.3189,44.0972],[5.3032,44.0951],[5.31,44.0999],[5.3152,44.109],[5.3166,44.1176],[5.3146,44.1288],[5.3173,44.1362],[5.3257,44.1434],[5.3264,44.1596],[5.346,44.1359],[5.4112,44.1203],[5.4318,44.112],[5.4464,44.11],[5.4589,44.0937],[5.4658,44.0892],[5.4741,44.0785],[5.4753,44.0699],[5.4702,44.0516],[5.4619,44.0401],[5.4608,44.0308],[5.4514,44.0257],[5.4394,44.0141]]]}},{"type":"Feature","properties":{"code":"84003","nom":"Apt","app":11.69,"app_bas":9.36,"app_haut":14.61,"app_ech":"commune","app_obs":1676,"mai":11.34,"mai_bas":8.38,"mai_haut":15.35,"mai_ech":"commune","mai_obs":197},"geometry":{"type":"Polygon","coordinates":[[[5.3189,43.8677],[5.3402,43.8801],[5.3505,43.8894],[5.3666,43.887],[5.3743,43.8998],[5.3741,43.9064],[5.3787,43.9116],[5.3928,43.9122],[5.4052,43.9018],[5.4101,43.9021],[5.4378,43.9209],[5.4435,43.9138],[5.4527,43.9077],[5.455,43.9013],[5.4525,43.8957],[5.4424,43.891],[5.4156,43.8721],[5.41,43.861],[5.4095,43.8545],[5.4042,43.8457],[5.3834,43.8452],[5.3764,43.8474],[5.3589,43.8441],[5.3577,43.8418],[5.346,43.855],[5.3452,43.8633],[5.3386,43.8664],[5.3239,43.8587],[5.3076,43.8628],[5.3189,43.8677]]]}},{"type":"Feature","properties":{"code":"84135","nom":"Uchaux","app":11.21,"app_bas":8.9,"app_haut":14.11,"app_ech":"maille","app_obs":18,"mai":10.74,"mai_bas":8.26,"mai_haut":13.96,"mai_ech":"maille","mai_obs":84},"geometry":{"type":"Polygon","coordinates":[[[4.8154,44.1877],[4.8131,44.1821],[4.8015,44.1768],[4.8009,44.1953],[4.7954,44.1951],[4.7866,44.2082],[4.7786,44.2106],[4.7775,44.2226],[4.7802,44.2306],[4.7704,44.2414],[4.7878,44.2406],[4.8121,44.2421],[4.8141,44.2323],[4.8255,44.2286],[4.825,44.2221],[4.8262,44.2081],[4.8154,44.1877]]]}},{"type":"Feature","properties":{"code":"84017","nom":"Bédoin","app":11.82,"app_bas":9.16,"app_haut":15.26,"app_ech":"commune","app_obs":161,"mai":10.73,"mai_bas":8.06,"mai_haut":14.28,"mai_ech":"commune","mai_obs":144},"geometry":{"type":"Polygon","coordinates":[[[5.1426,44.1393],[5.1413,44.1436],[5.158,44.1561],[5.1727,44.1626],[5.22,44.1681],[5.2446,44.1728],[5.2783,44.174],[5.2904,44.1714],[5.3053,44.1644],[5.3264,44.1596],[5.3257,44.1434],[5.3173,44.1362],[5.3146,44.1288],[5.3166,44.1176],[5.3034,44.1179],[5.2793,44.1118],[5.2633,44.1115],[5.2555,44.1071],[5.23,44.1021],[5.2058,44.1006],[5.1638,44.0924],[5.1598,44.0991],[5.1685,44.1149],[5.1635,44.1259],[5.1426,44.1393]]]}},{"type":"Feature","properties":{"code":"84095","nom":"Puyvert","app":12.5,"app_bas":9.73,"app_haut":16.05,"app_ech":"maille","app_obs":9,"mai":12.8,"mai_bas":9.1,"mai_haut":18.01,"mai_ech":"maille","mai_obs":31},"geometry":{"type":"Polygon","coordinates":[[[5.3259,43.7292],[5.3332,43.7411],[5.3221,43.7793],[5.322,43.783],[5.3316,43.7851],[5.3395,43.7694],[5.3537,43.754],[5.3477,43.7387],[5.3551,43.7296],[5.3437,43.7188],[5.3259,43.7292]]]}},{"type":"Feature","properties":{"code":"84111","nom":"Saint-Marcellin-lès-Vaison","app":10.72,"app_bas":8.7,"app_haut":13.22,"app_ech":"maille","app_obs":7,"mai":9.93,"mai_bas":7.39,"mai_haut":13.34,"mai_ech":"maille","mai_obs":16},"geometry":{"type":"Polygon","coordinates":[[[5.1124,44.2313],[5.1017,44.2287],[5.0891,44.2294],[5.09,44.2388],[5.0959,44.2483],[5.1143,44.2442],[5.1124,44.2313]]]}},{"type":"Feature","properties":{"code":"84046","nom":"Flassan","app":10.59,"app_bas":8.57,"app_haut":13.09,"app_ech":"maille","app_obs":3,"mai":9.93,"mai_bas":7.39,"mai_haut":13.34,"mai_ech":"maille","mai_obs":20},"geometry":{"type":"Polygon","coordinates":[[[5.2247,44.0794],[5.2096,44.0924],[5.2058,44.1006],[5.23,44.1021],[5.2555,44.1071],[5.2633,44.1115],[5.2793,44.1118],[5.3034,44.1179],[5.3166,44.1176],[5.3152,44.109],[5.31,44.0999],[5.3032,44.0951],[5.2989,44.0893],[5.2832,44.0887],[5.2674,44.0856],[5.2322,44.0822],[5.2247,44.0794]]]}},{"type":"Feature","properties":{"code":"84063","nom":"Lamotte-du-Rhône","app":12.07,"app_bas":9.59,"app_haut":15.19,"app_ech":"maille","app_obs":18,"mai":10.5,"mai_bas":7.94,"mai_haut":13.89,"mai_ech":"maille","mai_obs":9},"geometry":{"type":"Polygon","coordinates":[[[4.6492,44.2704],[4.6529,44.291],[4.6901,44.285],[4.6952,44.285],[4.7004,44.3002],[4.7115,44.2962],[4.7086,44.2919],[4.6957,44.2831],[4.6999,44.2667],[4.6766,44.261],[4.6515,44.2591],[4.6492,44.2704]]]}},{"type":"Feature","properties":{"code":"84105","nom":"Saignon","app":12.5,"app_bas":9.73,"app_haut":16.05,"app_ech":"maille","app_obs":7,"mai":11.14,"mai_bas":8.22,"mai_haut":15.09,"mai_ech":"maille","mai_obs":27},"geometry":{"type":"Polygon","coordinates":[[[5.4766,43.8519],[5.4688,43.8478],[5.4641,43.8414],[5.4328,43.8431],[5.4214,43.839],[5.4073,43.8366],[5.4042,43.8457],[5.4095,43.8545],[5.41,43.861],[5.4156,43.8721],[5.4424,43.891],[5.4525,43.8957],[5.4474,43.8833],[5.4481,43.8776],[5.4538,43.8711],[5.467,43.8607],[5.4732,43.8587],[5.4766,43.8519]]]}},{"type":"Feature","properties":{"code":"84001","nom":"Althen-des-Paluds","app":13.68,"app_bas":11.27,"app_haut":16.6,"app_ech":"commune","app_obs":380,"mai":11.04,"mai_bas":8.68,"mai_haut":14.04,"mai_ech":"commune","mai_obs":215},"geometry":{"type":"Polygon","coordinates":[[[4.936,44.0244],[4.952,44.0199],[4.9733,44.0054],[4.981,43.9963],[4.9749,43.9911],[4.9626,43.9856],[4.9535,43.9991],[4.94,44.0146],[4.936,44.0244]]]}},{"type":"Feature","properties":{"code":"84032","nom":"Caseneuve","app":11.14,"app_bas":8.92,"app_haut":13.93,"app_ech":"maille","app_obs":14,"mai":11.14,"mai_bas":8.22,"mai_haut":15.09,"mai_ech":"maille","mai_obs":15},"geometry":{"type":"Polygon","coordinates":[[[5.455,43.9013],[5.4622,43.9008],[5.4974,43.9086],[5.514,43.91],[5.5222,43.9091],[5.5043,43.8853],[5.487,43.8729],[5.473,43.8664],[5.467,43.8607],[5.4538,43.8711],[5.4481,43.8776],[5.4474,43.8833],[5.455,43.9013]]]}},{"type":"Feature","properties":{"code":"84059","nom":"Lafare","app":10.12,"app_bas":7.99,"app_haut":12.81,"app_ech":"maille","app_obs":3,"mai":10.41,"mai_bas":8.06,"mai_haut":13.45,"mai_ech":"maille","mai_obs":5},"geometry":{"type":"Polygon","coordinates":[[[5.0412,44.1614],[5.0504,44.1692],[5.0576,44.1667],[5.0656,44.1593],[5.0575,44.1503],[5.0556,44.1378],[5.0414,44.1437],[5.0386,44.1595],[5.0412,44.1614]]]}},{"type":"Feature","properties":{"code":"84107","nom":"Saint-Christol","app":10.79,"app_bas":8.39,"app_haut":13.88,"app_ech":"maille","app_obs":15,"mai":8.85,"mai_bas":6.67,"mai_haut":11.76,"mai_ech":"maille","mai_obs":30},"geometry":{"type":"Polygon","coordinates":[[[5.4394,44.0141],[5.4514,44.0257],[5.4608,44.0308],[5.4619,44.0401],[5.4702,44.0516],[5.4753,44.0699],[5.5026,44.0634],[5.5245,44.065],[5.5446,44.0699],[5.5436,44.0566],[5.5437,44.0287],[5.536,44.0136],[5.5287,44.0076],[5.5181,43.9901],[5.5132,43.9734],[5.5065,43.9841],[5.4919,43.9942],[5.489,44.0009],[5.4812,44.0095],[5.4724,44.0233],[5.4623,44.0168],[5.4394,44.0141]]]}},{"type":"Feature","properties":{"code":"84110","nom":"Saint-Léger-du-Ventoux","app":10.24,"app_bas":8.29,"app_haut":12.66,"app_ech":"maille","app_obs":2,"mai":9.93,"mai_bas":7.39,"mai_haut":13.34,"mai_ech":"maille","mai_obs":0},"geometry":{"type":"Polygon","coordinates":[[[5.2485,44.2311],[5.2565,44.2301],[5.2912,44.2149],[5.3033,44.2054],[5.3112,44.1978],[5.3036,44.1906],[5.2919,44.1856],[5.2783,44.174],[5.2812,44.1853],[5.2621,44.1924],[5.2476,44.1937],[5.2427,44.2015],[5.2376,44.2069],[5.2405,44.2308],[5.2485,44.2311]]]}},{"type":"Feature","properties":{"code":"84021","nom":"Brantes","app":8.59,"app_bas":6.67,"app_haut":11.07,"app_ech":"maille","app_obs":0,"mai":9.93,"mai_bas":7.39,"mai_haut":13.34,"mai_ech":"maille","mai_obs":0},"geometry":{"type":"Polygon","coordinates":[[[5.3548,44.1602],[5.3366,44.1576],[5.3053,44.1644],[5.2904,44.1714],[5.2783,44.174],[5.2919,44.1856],[5.3036,44.1906],[5.3112,44.1978],[5.3033,44.2054],[5.3183,44.2099],[5.3368,44.2039],[5.354,44.2134],[5.3767,44.2051],[5.3845,44.2012],[5.3832,44.1991],[5.3703,44.1946],[5.3618,44.1838],[5.3574,44.1736],[5.3548,44.1602]]]}},{"type":"Feature","properties":{"code":"84077","nom":"Modène","app":11.11,"app_bas":8.58,"app_haut":14.39,"app_ech":"maille","app_obs":4,"mai":11.35,"mai_bas":8.63,"mai_haut":14.92,"mai_ech":"maille","mai_obs":16},"geometry":{"type":"Polygon","coordinates":[[[5.139,44.1356],[5.1353,44.1239],[5.1399,44.1135],[5.1317,44.0999],[5.1297,44.0853],[5.1172,44.0824],[5.1192,44.0869],[5.1194,44.1042],[5.128,44.1247],[5.139,44.1356]]]}},{"type":"Feature","properties":{"code":"84057","nom":"Joucas","app":10.59,"app_bas":8.57,"app_haut":13.09,"app_ech":"maille","app_obs":13,"mai":10.83,"mai_bas":8.34,"mai_haut":14.05,"mai_ech":"maille","mai_obs":3},"geometry":{"type":"Polygon","coordinates":[[[5.23,43.9331],[5.2335,43.9376],[5.2527,43.9414],[5.2654,43.938],[5.2744,43.9322],[5.274,43.9274],[5.2719,43.9235],[5.2489,43.9028],[5.2374,43.9261],[5.23,43.9331]]]}},{"type":"Feature","properties":{"code":"84085","nom":"Murs","app":10.59,"app_bas":8.57,"app_haut":13.09,"app_ech":"maille","app_obs":4,"mai":10.83,"mai_bas":8.34,"mai_haut":14.05,"mai_ech":"maille","mai_obs":23},"geometry":{"type":"Polygon","coordinates":[[[5.196,43.9503],[5.2009,43.963],[5.2076,43.9689],[5.2126,43.9795],[5.2418,43.9871],[5.2538,43.9939],[5.2751,43.9949],[5.2863,43.9974],[5.2903,43.9883],[5.2764,43.9763],[5.2663,43.9603],[5.2671,43.9478],[5.2748,43.9392],[5.2823,43.935],[5.2744,43.9322],[5.2654,43.938],[5.2527,43.9414],[5.2335,43.9376],[5.23,43.9331],[5.2151,43.9386],[5.207,43.9471],[5.196,43.9503]]]}},{"type":"Feature","properties":{"code":"84103","nom":"Rustrel","app":11.14,"app_bas":8.92,"app_haut":13.93,"app_ech":"maille","app_obs":41,"mai":11.14,"mai_bas":8.22,"mai_haut":15.09,"mai_ech":"maille","mai_obs":11},"geometry":{"type":"Polygon","coordinates":[[[5.514,43.91],[5.4974,43.9086],[5.4622,43.9008],[5.455,43.9013],[5.4527,43.9077],[5.4435,43.9138],[5.4378,43.9209],[5.4454,43.941],[5.4518,43.9508],[5.4606,43.9595],[5.4745,43.9624],[5.4834,43.9538],[5.5127,43.9454],[5.5111,43.9316],[5.5069,43.9167],[5.514,43.91]]]}},{"type":"Feature","properties":{"code":"84129","nom":"Sorgues","app":11.8,"app_bas":9.75,"app_haut":14.29,"app_ech":"commune","app_obs":1874,"mai":10.44,"mai_bas":7.9,"mai_haut":13.81,"mai_ech":"commune","mai_obs":491},"geometry":{"type":"Polygon","coordinates":[[[4.7959,44.0479],[4.8105,44.0496],[4.8237,44.0396],[4.8318,44.0361],[4.8447,44.0349],[4.8623,44.036],[4.874,44.0313],[4.8823,44.0348],[4.9081,44.0309],[4.913,44.0275],[4.9153,44.0188],[4.9082,44.012],[4.9069,44.0048],[4.9112,43.9933],[4.8844,43.9819],[4.8671,43.9892],[4.8516,43.9891],[4.8456,43.9967],[4.8433,44.0099],[4.8377,44.0149],[4.8211,44.0165],[4.8184,44.0191],[4.8162,44.0321],[4.8078,44.0398],[4.7959,44.0479]]]}},{"type":"Feature","properties":{"code":"84130","nom":"Suzette","app":11.11,"app_bas":8.58,"app_haut":14.39,"app_ech":"maille","app_obs":1,"mai":10.91,"mai_bas":8.18,"mai_haut":14.56,"mai_ech":"maille","mai_obs":0},"geometry":{"type":"Polygon","coordinates":[[[5.0412,44.1614],[5.0328,44.1649],[5.0393,44.1729],[5.05,44.1787],[5.0625,44.1816],[5.0721,44.1877],[5.0739,44.1877],[5.075,44.1812],[5.0825,44.1667],[5.0746,44.1584],[5.0656,44.1593],[5.0576,44.1667],[5.0504,44.1692],[5.0412,44.1614]]]}},{"type":"Feature","properties":{"code":"84038","nom":"Cheval-Blanc","app":12.66,"app_bas":10.12,"app_haut":15.83,"app_ech":"commune","app_obs":153,"mai":11.34,"mai_bas":8.43,"mai_haut":15.25,"mai_ech":"commune","mai_obs":116},"geometry":{"type":"Polygon","coordinates":[[[5.1238,43.7587],[5.0515,43.7879],[5.0436,43.7959],[5.0426,43.8065],[5.0504,43.8073],[5.0677,43.8126],[5.0771,43.8096],[5.082,43.8127],[5.0821,43.8198],[5.0923,43.8218],[5.1081,43.8214],[5.1233,43.8151],[5.1281,43.812],[5.1455,43.8082],[5.1536,43.8043],[5.1615,43.8068],[5.1755,43.8062],[5.1979,43.7981],[5.198,43.7946],[5.192,43.7654],[5.1777,43.7662],[5.1519,43.7556],[5.1388,43.7528],[5.1238,43.7587]]]}},{"type":"Feature","properties":{"code":"84086","nom":"Oppède","app":13.53,"app_bas":10.88,"app_haut":16.82,"app_ech":"maille","app_obs":69,"mai":12.21,"mai_bas":9.48,"mai_haut":15.73,"mai_ech":"maille","mai_obs":56},"geometry":{"type":"Polygon","coordinates":[[[5.1979,43.7981],[5.1755,43.8062],[5.1615,43.8068],[5.1536,43.8043],[5.1455,43.8082],[5.1426,43.8238],[5.1509,43.8471],[5.1481,43.8591],[5.1483,43.8679],[5.1774,43.8622],[5.1848,43.8541],[5.1914,43.8417],[5.1987,43.8189],[5.1972,43.8131],[5.1979,43.7981]]]}},{"type":"Feature","properties":{"code":"84045","nom":"Faucon","app":10.72,"app_bas":8.7,"app_haut":13.22,"app_ech":"maille","app_obs":11,"mai":7.73,"mai_bas":5.84,"mai_haut":10.22,"mai_ech":"maille","mai_obs":23},"geometry":{"type":"Polygon","coordinates":[[[5.1475,44.2692],[5.1571,44.2672],[5.1597,44.2623],[5.1616,44.2456],[5.1518,44.2383],[5.1326,44.2393],[5.1186,44.2456],[5.1247,44.255],[5.119,44.2615],[5.1323,44.2622],[5.1475,44.2692]]]}},{"type":"Feature","properties":{"code":"84091","nom":"Piolenc","app":10.79,"app_bas":8.84,"app_haut":13.18,"app_ech":"commune","app_obs":509,"mai":10.64,"mai_bas":8.13,"mai_haut":13.92,"mai_ech":"commune","mai_obs":382},"geometry":{"type":"Polygon","coordinates":[[[4.7276,44.146],[4.7182,44.1524],[4.7161,44.166],[4.7301,44.164],[4.7402,44.1658],[4.747,44.1719],[4.7428,44.1842],[4.7488,44.1987],[4.7594,44.1991],[4.7671,44.2047],[4.7691,44.2105],[4.7786,44.2106],[4.7866,44.2082],[4.7954,44.1951],[4.8009,44.1953],[4.8015,44.1724],[4.7775,44.1562],[4.7604,44.1539],[4.7422,44.1559],[4.7276,44.146]]]}},{"type":"Feature","properties":{"code":"84136","nom":"Vacqueyras","app":10.86,"app_bas":9.12,"app_haut":12.93,"app_ech":"maille","app_obs":81,"mai":10.62,"mai_bas":8.11,"mai_haut":13.92,"mai_ech":"maille","mai_obs":33},"geometry":{"type":"Polygon","coordinates":[[[4.9521,44.1497],[4.9583,44.1571],[4.9643,44.156],[4.9693,44.1623],[4.9796,44.1629],[4.9937,44.1568],[4.9954,44.1383],[4.9999,44.1311],[4.9959,44.1258],[4.9849,44.1253],[4.9754,44.1313],[4.9697,44.1394],[4.9521,44.1497]]]}},{"type":"Feature","properties":{"code":"84137","nom":"Vaison-la-Romaine","app":11.07,"app_bas":8.96,"app_haut":13.69,"app_ech":"commune","app_obs":794,"mai":10.41,"mai_bas":7.85,"mai_haut":13.8,"mai_ech":"commune","mai_obs":205},"geometry":{"type":"Polygon","coordinates":[[[5.0891,44.2294],[5.0752,44.2232],[5.0676,44.2061],[5.0604,44.1997],[5.0542,44.2073],[5.0585,44.2327],[5.0479,44.2382],[5.0371,44.2321],[5.024,44.2388],[5.0219,44.2444],[5.029,44.2512],[5.0297,44.2642],[5.0258,44.2698],[5.0254,44.273],[5.034,44.2719],[5.0435,44.2756],[5.0741,44.277],[5.084,44.2698],[5.0885,44.2543],[5.0959,44.2483],[5.09,44.2388],[5.0891,44.2294]]]}},{"type":"Feature","properties":{"code":"84069","nom":"Malaucène","app":10.67,"app_bas":8.29,"app_haut":13.74,"app_ech":"commune","app_obs":251,"mai":9.61,"mai_bas":7.11,"mai_haut":12.99,"mai_ech":"commune","mai_obs":149},"geometry":{"type":"Polygon","coordinates":[[[5.139,44.1356],[5.1325,44.1404],[5.1339,44.1504],[5.1294,44.1556],[5.1081,44.1666],[5.0999,44.1689],[5.091,44.1817],[5.0739,44.1877],[5.0721,44.1877],[5.0683,44.19],[5.0762,44.1923],[5.0912,44.1923],[5.0964,44.1991],[5.1083,44.2094],[5.1233,44.2038],[5.1317,44.203],[5.1522,44.2077],[5.1679,44.2253],[5.1735,44.222],[5.2046,44.2151],[5.2381,44.2132],[5.2376,44.2069],[5.2427,44.2015],[5.2371,44.1975],[5.2172,44.1975],[5.2053,44.2012],[5.1932,44.1969],[5.1683,44.1955],[5.1595,44.1965],[5.1587,44.184],[5.1659,44.1699],[5.1727,44.1626],[5.158,44.1561],[5.1413,44.1436],[5.1426,44.1393],[5.139,44.1356]]]}},{"type":"Feature","properties":{"code":"84031","nom":"Carpentras","app":10.54,"app_bas":8.06,"app_haut":13.79,"app_ech":"commune","app_obs":5069,"mai":10.56,"mai_bas":8.18,"mai_haut":13.62,"mai_ech":"commune","mai_obs":1192},"geometry":{"type":"Polygon","coordinates":[[[5.074,44.1016],[5.0768,44.1032],[5.0904,44.0985],[5.0893,44.0923],[5.0925,44.0852],[5.1019,44.0793],[5.0884,44.0746],[5.0826,44.0679],[5.0857,44.0621],[5.0982,44.0526],[5.0982,44.04],[5.095,44.0376],[5.0941,44.0273],[5.0715,44.0297],[5.0483,44.0277],[5.0357,44.0224],[5.0276,44.0307],[5.0237,44.0466],[5.0152,44.0597],[5.0274,44.0681],[5.0339,44.0762],[5.041,44.0746],[5.0511,44.0821],[5.0465,44.0961],[5.0531,44.0971],[5.0663,44.0934],[5.0736,44.0959],[5.074,44.1016]]]}},{"type":"Feature","properties":{"code":"84002","nom":"Ansouis","app":13.67,"app_bas":11.08,"app_haut":16.87,"app_ech":"maille","app_obs":30,"mai":13.58,"mai_bas":9.95,"mai_haut":18.53,"mai_ech":"maille","mai_obs":33},"geometry":{"type":"Polygon","coordinates":[[[5.4236,43.734],[5.4302,43.7424],[5.4485,43.7511],[5.4728,43.7525],[5.4907,43.7482],[5.5111,43.747],[5.511,43.7345],[5.5087,43.7272],[5.4817,43.7217],[5.4652,43.7146],[5.4566,43.7264],[5.451,43.7303],[5.4236,43.734]]]}},{"type":"Feature","properties":{"code":"84141","nom":"Vedène","app":13.68,"app_bas":11.51,"app_haut":16.26,"app_ech":"commune","app_obs":767,"mai":11.71,"mai_bas":9.13,"mai_haut":15.01,"mai_ech":"commune","mai_obs":415},"geometry":{"type":"Polygon","coordinates":[[[4.8844,43.9819],[4.9112,43.9933],[4.9289,43.9676],[4.9158,43.9611],[4.918,43.9539],[4.884,43.9528],[4.8824,43.9676],[4.8844,43.9819]]]}},{"type":"Feature","properties":{"code":"84104","nom":"Sablet","app":10.72,"app_bas":8.7,"app_haut":13.22,"app_ech":"maille","app_obs":98,"mai":9.09,"mai_bas":7.01,"mai_haut":11.79,"mai_ech":"maille","mai_obs":52},"geometry":{"type":"Polygon","coordinates":[[[4.9814,44.1888],[4.9764,44.189],[4.9635,44.1978],[4.9595,44.2032],[4.9887,44.2058],[5.0267,44.2036],[5.0314,44.1972],[5.0331,44.1881],[5.0256,44.1802],[5.0136,44.1799],[4.9945,44.1873],[4.9814,44.1888]]]}},{"type":"Feature","properties":{"code":"84138","nom":"Valréas","app":9.35,"app_bas":7.34,"app_haut":11.89,"app_ech":"commune","app_obs":1408,"mai":8.58,"mai_bas":6.4,"mai_haut":11.5,"mai_ech":"commune","mai_obs":504},"geometry":{"type":"Polygon","coordinates":[[[5.0709,44.3832],[5.0703,44.3764],[5.0605,44.3718],[5.052,44.3647],[5.0422,44.3626],[5.027,44.3628],[5.0217,44.3567],[5.0233,44.3459],[5.009,44.3338],[5.0064,44.3295],[4.9945,44.3263],[4.9706,44.3398],[4.9735,44.3483],[4.9663,44.3555],[4.9536,44.3556],[4.9482,44.3644],[4.9373,44.3612],[4.9301,44.3707],[4.9444,44.3801],[4.9556,44.3906],[4.9603,44.4072],[4.9593,44.4198],[4.9704,44.4314],[4.9787,44.4235],[4.9886,44.4232],[5.0011,44.4126],[5.0188,44.416],[5.0177,44.4071],[5.0133,44.4053],[5.0158,44.3928],[5.0336,44.3911],[5.0451,44.3822],[5.0598,44.3841],[5.0709,44.3832]]]}},{"type":"Feature","properties":{"code":"84125","nom":"Savoillan","app":8.59,"app_bas":6.67,"app_haut":11.07,"app_ech":"maille","app_obs":2,"mai":9.93,"mai_bas":7.39,"mai_haut":13.34,"mai_ech":"maille","mai_obs":1},"geometry":{"type":"Polygon","coordinates":[[[5.3548,44.1602],[5.3574,44.1736],[5.3618,44.1838],[5.3703,44.1946],[5.3832,44.1991],[5.3865,44.1769],[5.3832,44.1553],[5.3715,44.1545],[5.3548,44.1602]]]}},{"type":"Feature","properties":{"code":"84068","nom":"Lourmarin","app":14.84,"app_bas":11.74,"app_haut":18.74,"app_ech":"maille","app_obs":61,"mai":11.14,"mai_bas":8.22,"mai_haut":15.09,"mai_ech":"maille","mai_obs":77},"geometry":{"type":"Polygon","coordinates":[[[5.3537,43.754],[5.3395,43.7694],[5.3316,43.7851],[5.3439,43.7941],[5.3591,43.7959],[5.3746,43.8059],[5.3901,43.8024],[5.3936,43.7866],[5.3863,43.7619],[5.3861,43.7575],[5.3822,43.7542],[5.3675,43.7515],[5.3537,43.754]]]}},{"type":"Feature","properties":{"code":"84131","nom":"Taillades","app":12.83,"app_bas":10.36,"app_haut":15.89,"app_ech":"maille","app_obs":48,"mai":11.46,"mai_bas":8.53,"mai_haut":15.4,"mai_ech":"maille","mai_obs":50},"geometry":{"type":"Polygon","coordinates":[[[5.0865,43.8468],[5.1078,43.8339],[5.1189,43.8251],[5.1233,43.8151],[5.1081,43.8214],[5.0923,43.8218],[5.0694,43.8307],[5.077,43.8385],[5.0784,43.8442],[5.0865,43.8468]]]}},{"type":"Feature","properties":{"code":"84101","nom":"Roque-sur-Pernes","app":14.24,"app_bas":11.18,"app_haut":18.15,"app_ech":"maille","app_obs":1,"mai":11.35,"mai_bas":8.63,"mai_haut":14.92,"mai_ech":"maille","mai_obs":5},"geometry":{"type":"Polygon","coordinates":[[[5.1038,43.9975],[5.1116,43.9825],[5.119,43.9727],[5.13,43.9654],[5.131,43.956],[5.1227,43.9558],[5.1107,43.9606],[5.0936,43.9613],[5.0867,43.9553],[5.0756,43.9634],[5.0856,43.9721],[5.0848,43.9828],[5.0876,43.9916],[5.0984,44.0011],[5.1038,43.9975]]]}},{"type":"Feature","properties":{"code":"84089","nom":"Pertuis","app":14.16,"app_bas":11.28,"app_haut":17.76,"app_ech":"commune","app_obs":2842,"mai":15.83,"mai_bas":11.66,"mai_haut":21.48,"mai_ech":"commune","mai_obs":619},"geometry":{"type":"Polygon","coordinates":[[[5.4881,43.6676],[5.4505,43.6796],[5.4453,43.6801],[5.4493,43.6996],[5.4525,43.7066],[5.4652,43.7146],[5.4817,43.7217],[5.5087,43.7272],[5.5269,43.7099],[5.5369,43.7073],[5.5541,43.7],[5.558,43.7001],[5.5695,43.6889],[5.5883,43.6792],[5.5991,43.6779],[5.6103,43.6791],[5.6192,43.6693],[5.6239,43.6661],[5.6069,43.6587],[5.5853,43.6614],[5.5716,43.6619],[5.5315,43.659],[5.5014,43.6664],[5.4881,43.6676]]]}},{"type":"Feature","properties":{"code":"84055","nom":"Jonquerettes","app":12.93,"app_bas":10.88,"app_haut":15.36,"app_ech":"maille","app_obs":32,"mai":11.79,"mai_bas":9.2,"mai_haut":15.1,"mai_ech":"maille","mai_obs":47},"geometry":{"type":"Polygon","coordinates":[[[4.956,43.9567],[4.9596,43.9484],[4.9351,43.9424],[4.9274,43.9501],[4.9487,43.9564],[4.956,43.9567]]]}},{"type":"Feature","properties":{"code":"84124","nom":"Saumane-de-Vaucluse","app":13.53,"app_bas":10.88,"app_haut":16.82,"app_ech":"maille","app_obs":20,"mai":10.83,"mai_bas":8.34,"mai_haut":14.05,"mai_ech":"maille","mai_obs":13},"geometry":{"type":"Polygon","coordinates":[[[5.1545,43.9417],[5.1467,43.9398],[5.1233,43.9299],[5.1034,43.9082],[5.0968,43.9061],[5.0871,43.9089],[5.0817,43.9199],[5.087,43.9336],[5.0867,43.9553],[5.0936,43.9613],[5.1107,43.9606],[5.1227,43.9558],[5.131,43.956],[5.1597,43.95],[5.1593,43.9422],[5.1545,43.9417]]]}},{"type":"Feature","properties":{"code":"84075","nom":"Méthamis","app":10.59,"app_bas":8.57,"app_haut":13.09,"app_ech":"maille","app_obs":24,"mai":10.83,"mai_bas":8.34,"mai_haut":14.05,"mai_ech":"maille","mai_obs":30},"geometry":{"type":"Polygon","coordinates":[[[5.1823,44.0026],[5.1906,44.0062],[5.205,44.0102],[5.2086,44.0163],[5.2216,44.0244],[5.2581,44.0322],[5.2682,44.0361],[5.2799,44.0464],[5.2887,44.0425],[5.294,44.0323],[5.3008,44.0315],[5.3063,44.0414],[5.312,44.0422],[5.3138,44.0223],[5.3056,44.018],[5.2913,44.0055],[5.2863,43.9974],[5.2751,43.9949],[5.2538,43.9939],[5.2418,43.9871],[5.2235,43.9829],[5.2155,43.9895],[5.1875,43.9944],[5.1823,44.0026]]]}},{"type":"Feature","properties":{"code":"84099","nom":"Robion","app":13.81,"app_bas":10.82,"app_haut":17.61,"app_ech":"commune","app_obs":287,"mai":11.19,"mai_bas":8.32,"mai_haut":15.05,"mai_ech":"commune","mai_obs":144},"geometry":{"type":"Polygon","coordinates":[[[5.0865,43.8468],[5.0791,43.8615],[5.0691,43.8734],[5.089,43.8752],[5.102,43.8672],[5.1139,43.8705],[5.1317,43.8795],[5.1366,43.8686],[5.1339,43.8584],[5.1269,43.8547],[5.1204,43.8394],[5.1332,43.8222],[5.1358,43.8157],[5.1437,43.8081],[5.1281,43.812],[5.1233,43.8151],[5.1189,43.8251],[5.1078,43.8339],[5.0865,43.8468]]]}},{"type":"Feature","properties":{"code":"84126","nom":"Séguret","app":10.72,"app_bas":8.7,"app_haut":13.22,"app_ech":"maille","app_obs":7,"mai":9.93,"mai_bas":7.39,"mai_haut":13.34,"mai_ech":"maille","mai_obs":35},"geometry":{"type":"Polygon","coordinates":[[[5.0219,44.2444],[5.024,44.2388],[5.0371,44.2321],[5.0479,44.2382],[5.0585,44.2327],[5.0542,44.2073],[5.0604,44.1997],[5.0625,44.1936],[5.0331,44.1881],[5.0314,44.1972],[5.0267,44.2036],[4.9887,44.2058],[4.9948,44.2215],[5.0099,44.2382],[5.0219,44.2444]]]}},{"type":"Feature","properties":{"code":"84132","nom":"Thor","app":12.97,"app_bas":10.36,"app_haut":16.23,"app_ech":"commune","app_obs":695,"mai":11.7,"mai_bas":9.09,"mai_haut":15.05,"mai_ech":"commune","mai_obs":362},"geometry":{"type":"Polygon","coordinates":[[[4.9952,43.8907],[4.98,43.9009],[4.9677,43.9115],[4.9668,43.9229],[4.9596,43.9484],[4.956,43.9567],[4.96,43.9643],[4.9762,43.9679],[4.9938,43.9632],[5.0012,43.9579],[5.0061,43.9464],[5.0172,43.9444],[5.0252,43.9462],[5.035,43.9329],[5.0123,43.9073],[5.0127,43.9003],[5.0219,43.8791],[5.0051,43.8821],[4.9952,43.8907]]]}},{"type":"Feature","properties":{"code":"84067","nom":"Loriol-du-Comtat","app":13.38,"app_bas":11.03,"app_haut":16.24,"app_ech":"maille","app_obs":75,"mai":11.7,"mai_bas":8.76,"mai_haut":15.62,"mai_ech":"commune","mai_obs":142},"geometry":{"type":"Polygon","coordinates":[[[4.9789,44.0651],[4.9771,44.072],[4.9849,44.0822],[4.9868,44.0903],[4.9936,44.0953],[5.0036,44.0902],[5.025,44.0857],[5.0339,44.0762],[5.0274,44.0681],[5.0152,44.0597],[5.0055,44.0573],[4.9965,44.0612],[4.99,44.0696],[4.9789,44.0651]]]}},{"type":"Feature","properties":{"code":"84106","nom":"Sainte-Cécile-les-Vignes","app":11.03,"app_bas":8.65,"app_haut":14.05,"app_ech":"commune","app_obs":344,"mai":9.62,"mai_bas":7.21,"mai_haut":12.84,"mai_ech":"commune","mai_obs":172},"geometry":{"type":"Polygon","coordinates":[[[4.8803,44.2618],[4.9013,44.2643],[4.9061,44.2603],[4.9329,44.2622],[4.9263,44.2527],[4.9156,44.2502],[4.898,44.2425],[4.8988,44.2327],[4.9035,44.2177],[4.9156,44.2081],[4.8836,44.2044],[4.8689,44.2084],[4.8675,44.2117],[4.8719,44.2289],[4.8621,44.2459],[4.8571,44.246],[4.857,44.2477],[4.8752,44.26],[4.8803,44.2618]]]}},{"type":"Feature","properties":{"code":"84028","nom":"Cairanne","app":10.86,"app_bas":8.53,"app_haut":13.83,"app_ech":"maille","app_obs":33,"mai":10.62,"mai_bas":8.11,"mai_haut":13.92,"mai_ech":"maille","mai_obs":38},"geometry":{"type":"Polygon","coordinates":[[[4.9263,44.2527],[4.9328,44.2494],[4.9512,44.2499],[4.9642,44.2568],[4.97,44.2542],[4.9686,44.2479],[4.961,44.2483],[4.9632,44.2256],[4.9491,44.2023],[4.9358,44.1983],[4.935,44.2088],[4.9317,44.2111],[4.9156,44.2081],[4.9035,44.2177],[4.8988,44.2327],[4.898,44.2425],[4.9156,44.2502],[4.9263,44.2527]]]}},{"type":"Feature","properties":{"code":"84042","nom":"Cucuron","app":13.67,"app_bas":11.08,"app_haut":16.87,"app_ech":"maille","app_obs":85,"mai":13.58,"mai_bas":9.95,"mai_haut":18.53,"mai_ech":"maille","mai_obs":77},"geometry":{"type":"Polygon","coordinates":[[[5.4189,43.8135],[5.4284,43.8104],[5.4374,43.8115],[5.4453,43.8176],[5.4566,43.8122],[5.4649,43.8146],[5.4735,43.8004],[5.4704,43.785],[5.4751,43.7706],[5.4728,43.7525],[5.4485,43.7511],[5.4302,43.7424],[5.4169,43.7468],[5.4054,43.7562],[5.4071,43.7679],[5.4197,43.7767],[5.4247,43.7926],[5.4205,43.802],[5.4189,43.8135]]]}},{"type":"Feature","properties":{"code":"84074","nom":"Mérindol","app":12.9,"app_bas":9.81,"app_haut":16.96,"app_ech":"commune","app_obs":102,"mai":12.8,"mai_bas":9.1,"mai_haut":18.01,"mai_ech":"maille","mai_obs":75},"geometry":{"type":"Polygon","coordinates":[[[5.1388,43.7528],[5.1519,43.7556],[5.1777,43.7662],[5.192,43.7654],[5.198,43.7946],[5.2275,43.7922],[5.2363,43.7755],[5.2364,43.7475],[5.2293,43.7476],[5.188,43.7351],[5.1733,43.7388],[5.1388,43.7528]]]}},{"type":"Feature","properties":{"code":"84082","nom":"Mormoiron","app":10.82,"app_bas":8.45,"app_haut":13.85,"app_ech":"commune","app_obs":173,"mai":10.69,"mai_bas":7.96,"mai_haut":14.36,"mai_ech":"commune","mai_obs":114},"geometry":{"type":"Polygon","coordinates":[[[5.1591,44.0875],[5.1638,44.0924],[5.2058,44.1006],[5.2096,44.0924],[5.2247,44.0794],[5.2198,44.073],[5.2177,44.0608],[5.2083,44.0473],[5.211,44.0424],[5.1861,44.0365],[5.1781,44.0462],[5.1644,44.0539],[5.1613,44.0631],[5.1645,44.0755],[5.1591,44.0875]]]}},{"type":"Feature","properties":{"code":"84023","nom":"Buoux","app":12.5,"app_bas":9.73,"app_haut":16.05,"app_ech":"maille","app_obs":0,"mai":11.14,"mai_bas":8.22,"mai_haut":15.09,"mai_ech":"maille","mai_obs":0},"geometry":{"type":"Polygon","coordinates":[[[5.3995,43.8075],[5.3901,43.8024],[5.3746,43.8059],[5.3591,43.7959],[5.3439,43.7941],[5.342,43.799],[5.3474,43.8111],[5.3622,43.8198],[5.3553,43.8311],[5.3639,43.8363],[5.3577,43.8418],[5.3589,43.8441],[5.3764,43.8474],[5.3834,43.8452],[5.4042,43.8457],[5.4073,43.8366],[5.3952,43.8316],[5.3904,43.8258],[5.3995,43.8075]]]}},{"type":"Feature","properties":{"code":"84051","nom":"Goult","app":14.84,"app_bas":11.74,"app_haut":18.74,"app_ech":"maille","app_obs":38,"mai":10.83,"mai_bas":8.34,"mai_haut":14.05,"mai_ech":"maille","mai_obs":30},"geometry":{"type":"Polygon","coordinates":[[[5.2457,43.8961],[5.252,43.896],[5.2703,43.8834],[5.2743,43.878],[5.2863,43.8716],[5.2908,43.8609],[5.2676,43.8539],[5.2624,43.8436],[5.255,43.8402],[5.2449,43.8396],[5.2398,43.8448],[5.2233,43.8556],[5.2146,43.8561],[5.2151,43.8647],[5.2101,43.8689],[5.1988,43.8712],[5.21,43.8765],[5.2196,43.8723],[5.2202,43.8847],[5.2384,43.8868],[5.2457,43.8961]]]}},{"type":"Feature","properties":{"code":"84062","nom":"Lagnes","app":14.24,"app_bas":11.18,"app_haut":18.15,"app_ech":"maille","app_obs":76,"mai":12.21,"mai_bas":9.48,"mai_haut":15.73,"mai_ech":"maille","mai_obs":32},"geometry":{"type":"Polygon","coordinates":[[[5.0831,43.8747],[5.0876,43.8974],[5.0943,43.9028],[5.1014,43.901],[5.1034,43.9082],[5.1062,43.9117],[5.1222,43.9071],[5.1445,43.915],[5.1545,43.9417],[5.1552,43.9417],[5.1515,43.92],[5.1328,43.8846],[5.1317,43.8795],[5.1139,43.8705],[5.102,43.8672],[5.089,43.8752],[5.0831,43.8747]]]}},{"type":"Feature","properties":{"code":"84108","nom":"Saint-Didier","app":11.86,"app_bas":9.44,"app_haut":14.91,"app_ech":"commune","app_obs":152,"mai":11.35,"mai_bas":8.63,"mai_haut":14.92,"mai_ech":"maille","mai_obs":94},"geometry":{"type":"Polygon","coordinates":[[[5.1038,43.9975],[5.0984,44.0011],[5.0948,44.006],[5.1067,44.0248],[5.1157,44.0218],[5.1125,44.0178],[5.1237,44.0014],[5.1222,43.9967],[5.1133,44.0022],[5.1038,43.9975]]]}},{"type":"Feature","properties":{"code":"84016","nom":"Bédarrides","app":11.83,"app_bas":9.54,"app_haut":14.66,"app_ech":"commune","app_obs":425,"mai":10.77,"mai_bas":8.14,"mai_haut":14.24,"mai_ech":"commune","mai_obs":164},"geometry":{"type":"Polygon","coordinates":[[[4.8623,44.036],[4.8654,44.057],[4.888,44.0595],[4.8979,44.0622],[4.9002,44.0665],[4.9114,44.0725],[4.9287,44.072],[4.9331,44.0758],[4.9376,44.0736],[4.9424,44.054],[4.9397,44.0452],[4.9365,44.0245],[4.9153,44.0188],[4.913,44.0275],[4.9081,44.0309],[4.8823,44.0348],[4.874,44.0313],[4.8623,44.036]]]}},{"type":"Feature","properties":{"code":"84060","nom":"Lagarde-d'Apt","app":11.14,"app_bas":8.92,"app_haut":13.93,"app_ech":"maille","app_obs":3,"mai":11.14,"mai_bas":8.22,"mai_haut":15.09,"mai_ech":"maille","mai_obs":0},"geometry":{"type":"Polygon","coordinates":[[[5.4407,44.0144],[5.4623,44.0168],[5.4724,44.0233],[5.4812,44.0095],[5.489,44.0009],[5.4919,43.9942],[5.5065,43.9841],[5.5132,43.9734],[5.5086,43.9598],[5.5127,43.9454],[5.4834,43.9538],[5.4745,43.9624],[5.4667,43.9738],[5.4629,43.987],[5.4546,43.9991],[5.4476,44.0034],[5.4407,44.0144]]]}},{"type":"Feature","properties":{"code":"84122","nom":"Sarrians","app":10.86,"app_bas":8.78,"app_haut":13.45,"app_ech":"commune","app_obs":365,"mai":10.03,"mai_bas":7.75,"mai_haut":12.96,"mai_ech":"commune","mai_obs":191},"geometry":{"type":"Polygon","coordinates":[[[4.9424,44.054],[4.9376,44.0736],[4.9331,44.0758],[4.9284,44.0855],[4.915,44.1017],[4.9157,44.104],[4.93,44.1197],[4.9405,44.1265],[4.952,44.1303],[4.9521,44.1497],[4.9697,44.1394],[4.9754,44.1313],[4.9849,44.1253],[4.9936,44.0953],[4.9868,44.0903],[4.9849,44.0822],[4.9771,44.072],[4.9789,44.0651],[4.9424,44.054]]]}},{"type":"Feature","properties":{"code":"84012","nom":"Beaumes-de-Venise","app":10.58,"app_bas":8.36,"app_haut":13.39,"app_ech":"commune","app_obs":233,"mai":10.3,"mai_bas":7.98,"mai_haut":13.3,"mai_ech":"commune","mai_obs":187},"geometry":{"type":"Polygon","coordinates":[[[5.0703,44.1063],[5.0394,44.1098],[5.0354,44.1166],[5.0279,44.1174],[5.0195,44.1127],[5.0197,44.1073],[5.0021,44.1072],[4.992,44.1007],[4.9849,44.1253],[4.9959,44.1258],[4.9999,44.1311],[4.9954,44.1383],[5.0149,44.1345],[5.0341,44.143],[5.0414,44.1437],[5.071,44.1322],[5.0635,44.1275],[5.063,44.1199],[5.0703,44.1063]]]}},{"type":"Feature","properties":{"code":"84019","nom":"Bollène","app":10.45,"app_bas":8.04,"app_haut":13.58,"app_ech":"commune","app_obs":1568,"mai":11.11,"mai_bas":8.23,"mai_haut":15,"mai_ech":"commune","mai_obs":665},"geometry":{"type":"Polygon","coordinates":[[[4.6999,44.2667],[4.6957,44.2831],[4.7086,44.2919],[4.7115,44.2962],[4.7144,44.314],[4.713,44.3206],[4.7138,44.3256],[4.7217,44.3266],[4.763,44.3251],[4.7825,44.3156],[4.7921,44.307],[4.8046,44.3039],[4.8029,44.2966],[4.8045,44.2776],[4.804,44.2692],[4.7923,44.2613],[4.7804,44.2569],[4.7758,44.2506],[4.758,44.2512],[4.7528,44.2538],[4.7203,44.2562],[4.7223,44.2621],[4.7168,44.2647],[4.6999,44.2667]]]}},{"type":"Feature","properties":{"code":"84147","nom":"Villelaure","app":13.62,"app_bas":10.86,"app_haut":17.09,"app_ech":"commune","app_obs":236,"mai":12.68,"mai_bas":9.17,"mai_haut":17.52,"mai_ech":"commune","mai_obs":123},"geometry":{"type":"Polygon","coordinates":[[[5.4127,43.6929],[5.3881,43.7022],[5.3932,43.7094],[5.4093,43.7124],[5.4215,43.7172],[5.4279,43.7329],[5.451,43.7303],[5.4566,43.7264],[5.4652,43.7146],[5.4525,43.7066],[5.4493,43.6996],[5.4453,43.6801],[5.4392,43.6811],[5.4127,43.6929]]]}},{"type":"Feature","properties":{"code":"84022","nom":"Buisson","app":10.72,"app_bas":8.7,"app_haut":13.22,"app_ech":"maille","app_obs":2,"mai":9.09,"mai_bas":7.01,"mai_haut":11.79,"mai_ech":"maille","mai_obs":18},"geometry":{"type":"Polygon","coordinates":[[[4.9895,44.286],[5.0069,44.2876],[5.0171,44.2927],[5.0241,44.2845],[5.0258,44.2698],[5.0253,44.2652],[5.013,44.2673],[4.9942,44.259],[4.9895,44.2648],[4.9747,44.2743],[4.9713,44.2798],[4.9815,44.2848],[4.9895,44.286]]]}},{"type":"Feature","properties":{"code":"84117","nom":"Saint-Roman-de-Malegarde","app":10.86,"app_bas":9.12,"app_haut":12.93,"app_ech":"maille","app_obs":12,"mai":10.62,"mai_bas":8.11,"mai_haut":13.92,"mai_ech":"maille","mai_obs":22},"geometry":{"type":"Polygon","coordinates":[[[4.9263,44.2527],[4.9329,44.2622],[4.9477,44.2706],[4.9599,44.2742],[4.9713,44.2798],[4.9747,44.2743],[4.9895,44.2648],[4.9768,44.2626],[4.97,44.2542],[4.9642,44.2568],[4.9512,44.2499],[4.9328,44.2494],[4.9263,44.2527]]]}},{"type":"Feature","properties":{"code":"84079","nom":"Monieux","app":10.59,"app_bas":8.57,"app_haut":13.09,"app_ech":"maille","app_obs":3,"mai":10.83,"mai_bas":8.34,"mai_haut":14.05,"mai_ech":"maille","mai_obs":9},"geometry":{"type":"Polygon","coordinates":[[[5.2989,44.0893],[5.3032,44.0951],[5.3189,44.0972],[5.3374,44.0957],[5.3645,44.0884],[5.3896,44.0718],[5.3904,44.0672],[5.3813,44.0528],[5.3732,44.045],[5.3644,44.0309],[5.3586,44.015],[5.3498,44.006],[5.3347,44.0129],[5.3213,44.0162],[5.3138,44.0223],[5.312,44.0422],[5.3064,44.065],[5.3002,44.0813],[5.2989,44.0893]]]}},{"type":"Feature","properties":{"code":"84121","nom":"Sannes","app":13.67,"app_bas":11.08,"app_haut":16.87,"app_ech":"maille","app_obs":43,"mai":13.58,"mai_bas":9.95,"mai_haut":18.53,"mai_ech":"maille","mai_obs":5},"geometry":{"type":"Polygon","coordinates":[[[5.4751,43.7706],[5.4844,43.7697],[5.4921,43.7597],[5.5043,43.7583],[5.5111,43.747],[5.4907,43.7482],[5.4728,43.7525],[5.4751,43.7706]]]}},{"type":"Feature","properties":{"code":"84133","nom":"Tour-d'Aigues","app":13.13,"app_bas":10.64,"app_haut":16.21,"app_ech":"commune","app_obs":336,"mai":11.9,"mai_bas":8.88,"mai_haut":15.95,"mai_ech":"commune","mai_obs":215},"geometry":{"type":"Polygon","coordinates":[[[5.5244,43.747],[5.5446,43.7541],[5.5564,43.7565],[5.5786,43.7441],[5.5937,43.7418],[5.6137,43.7325],[5.6109,43.7177],[5.6018,43.7073],[5.6015,43.7035],[5.6133,43.6938],[5.6275,43.6755],[5.6192,43.6693],[5.6103,43.6791],[5.5991,43.6779],[5.5948,43.6848],[5.5848,43.6902],[5.5922,43.6953],[5.5879,43.7008],[5.5761,43.7048],[5.5557,43.7065],[5.5541,43.7],[5.5369,43.7073],[5.5269,43.7099],[5.5087,43.7272],[5.511,43.7345],[5.5111,43.747],[5.5217,43.7432],[5.5244,43.747]]]}},{"type":"Feature","properties":{"code":"84036","nom":"Châteauneuf-de-Gadagne","app":12.44,"app_bas":10.47,"app_haut":14.78,"app_ech":"commune","app_obs":220,"mai":11.59,"mai_bas":9.04,"mai_haut":14.87,"mai_ech":"commune","mai_obs":104},"geometry":{"type":"Polygon","coordinates":[[[4.9308,43.9106],[4.92,43.9143],[4.9186,43.9185],[4.922,43.9284],[4.9207,43.9446],[4.9235,43.9518],[4.9274,43.9501],[4.9351,43.9424],[4.9596,43.9484],[4.9668,43.9229],[4.9677,43.9115],[4.9619,43.9102],[4.9308,43.9106]]]}},{"type":"Feature","properties":{"code":"84118","nom":"Saint-Saturnin-lès-Apt","app":10.79,"app_bas":8.39,"app_haut":13.88,"app_ech":"maille","app_obs":71,"mai":8.85,"mai_bas":6.67,"mai_haut":11.76,"mai_ech":"maille","mai_obs":76},"geometry":{"type":"Polygon","coordinates":[[[5.3593,43.9956],[5.3671,43.9958],[5.3856,44.0029],[5.4222,44.0133],[5.4394,44.0141],[5.4379,43.9955],[5.4334,43.9767],[5.4194,43.9515],[5.4029,43.936],[5.3928,43.9122],[5.3787,43.9116],[5.3741,43.9064],[5.3723,43.9093],[5.3568,43.9169],[5.3462,43.9199],[5.3354,43.9152],[5.3278,43.921],[5.3105,43.925],[5.3021,43.9306],[5.274,43.9274],[5.2744,43.9322],[5.2823,43.935],[5.2927,43.9356],[5.2996,43.9436],[5.3191,43.9566],[5.3328,43.9704],[5.3416,43.9739],[5.3593,43.9956]]]}},{"type":"Feature","properties":{"code":"84070","nom":"Malemort-du-Comtat","app":12.18,"app_bas":9.74,"app_haut":15.24,"app_ech":"maille","app_obs":74,"mai":10.83,"mai_bas":8.34,"mai_haut":14.05,"mai_ech":"maille","mai_obs":82},"geometry":{"type":"Polygon","coordinates":[[[5.1712,44.0342],[5.1824,44.0308],[5.1979,44.0184],[5.1875,44.0096],[5.1906,44.0062],[5.1823,44.0026],[5.1697,44.0012],[5.1553,44.0071],[5.1463,44.0188],[5.1324,44.0221],[5.1367,44.0281],[5.1504,44.0338],[5.1712,44.0342]]]}},{"type":"Feature","properties":{"code":"84120","nom":"Saint-Trinit","app":10.79,"app_bas":8.39,"app_haut":13.88,"app_ech":"maille","app_obs":3,"mai":8.85,"mai_bas":6.67,"mai_haut":11.76,"mai_ech":"maille","mai_obs":14},"geometry":{"type":"Polygon","coordinates":[[[5.4753,44.0699],[5.4741,44.0785],[5.4658,44.0892],[5.4589,44.0937],[5.4464,44.11],[5.4547,44.1192],[5.4988,44.1157],[5.5004,44.1003],[5.498,44.0752],[5.5026,44.0634],[5.4753,44.0699]]]}},{"type":"Feature","properties":{"code":"84044","nom":"Entrechaux","app":10.24,"app_bas":8.29,"app_haut":12.66,"app_ech":"maille","app_obs":42,"mai":7.73,"mai_bas":5.84,"mai_haut":10.22,"mai_ech":"maille","mai_obs":36},"geometry":{"type":"Polygon","coordinates":[[[5.1124,44.2313],[5.1143,44.2442],[5.1186,44.2456],[5.1326,44.2393],[5.1518,44.2383],[5.1549,44.2309],[5.1679,44.2253],[5.1522,44.2077],[5.1317,44.203],[5.1233,44.2038],[5.1083,44.2094],[5.1055,44.2194],[5.1124,44.2313]]]}},{"type":"Feature","properties":{"code":"84006","nom":"Auribeau","app":13.67,"app_bas":11.08,"app_haut":16.87,"app_ech":"maille","app_obs":1,"mai":13.58,"mai_bas":9.95,"mai_haut":18.53,"mai_ech":"maille","mai_obs":16},"geometry":{"type":"Polygon","coordinates":[[[5.4641,43.8414],[5.4623,43.8274],[5.4672,43.8153],[5.4566,43.8122],[5.4453,43.8176],[5.4443,43.8197],[5.4214,43.839],[5.4328,43.8431],[5.4641,43.8414]]]}},{"type":"Feature","properties":{"code":"84010","nom":"Bastidonne","app":14.07,"app_bas":11.21,"app_haut":17.65,"app_ech":"maille","app_obs":13,"mai":11.78,"mai_bas":8.81,"mai_haut":15.77,"mai_ech":"maille","mai_obs":27},"geometry":{"type":"Polygon","coordinates":[[[5.5541,43.7],[5.5557,43.7065],[5.5761,43.7048],[5.5879,43.7008],[5.5922,43.6953],[5.5848,43.6902],[5.5948,43.6848],[5.5991,43.6779],[5.5883,43.6792],[5.5695,43.6889],[5.558,43.7001],[5.5541,43.7]]]}},{"type":"Feature","properties":{"code":"84030","nom":"Caromb","app":10.44,"app_bas":7.96,"app_haut":13.68,"app_ech":"commune","app_obs":262,"mai":10.21,"mai_bas":7.65,"mai_haut":13.63,"mai_ech":"commune","mai_obs":142},"geometry":{"type":"Polygon","coordinates":[[[5.1019,44.0793],[5.0925,44.0852],[5.0893,44.0923],[5.0904,44.0985],[5.0768,44.1032],[5.0805,44.1124],[5.0888,44.1221],[5.0921,44.1298],[5.1004,44.1317],[5.122,44.1401],[5.1325,44.1404],[5.139,44.1356],[5.128,44.1247],[5.1194,44.1042],[5.1192,44.0869],[5.1172,44.0824],[5.1019,44.0793]]]}},{"type":"Feature","properties":{"code":"84035","nom":"Cavaillon","app":11.99,"app_bas":9.7,"app_haut":14.81,"app_ech":"commune","app_obs":3730,"mai":11.87,"mai_bas":8.92,"mai_haut":15.78,"mai_ech":"commune","mai_obs":587},"geometry":{"type":"Polygon","coordinates":[[[4.9915,43.8507],[4.9738,43.8826],[4.9844,43.8891],[4.9952,43.8907],[5.0051,43.8821],[5.0495,43.8746],[5.0691,43.8734],[5.0791,43.8615],[5.0865,43.8468],[5.0784,43.8442],[5.077,43.8385],[5.0694,43.8307],[5.0923,43.8218],[5.0821,43.8198],[5.082,43.8127],[5.0771,43.8096],[5.0677,43.8126],[5.0504,43.8073],[5.0426,43.8065],[5.0353,43.8201],[5.0295,43.8278],[4.9976,43.8449],[4.9915,43.8507]]]}},{"type":"Feature","properties":{"code":"84008","nom":"Barroux","app":11.11,"app_bas":8.58,"app_haut":14.39,"app_ech":"maille","app_obs":31,"mai":10.91,"mai_bas":8.18,"mai_haut":14.56,"mai_ech":"maille","mai_obs":17},"geometry":{"type":"Polygon","coordinates":[[[5.0739,44.1877],[5.091,44.1817],[5.0999,44.1689],[5.1081,44.1666],[5.1294,44.1556],[5.1339,44.1504],[5.1325,44.1404],[5.122,44.1401],[5.1004,44.1317],[5.0921,44.1298],[5.0849,44.1325],[5.0746,44.1584],[5.0825,44.1667],[5.075,44.1812],[5.0739,44.1877]]]}},{"type":"Feature","properties":{"code":"84013","nom":"Beaumettes","app":14.84,"app_bas":11.74,"app_haut":18.74,"app_ech":"maille","app_obs":22,"mai":12.21,"mai_bas":9.48,"mai_haut":15.73,"mai_ech":"maille","mai_obs":3},"geometry":{"type":"Polygon","coordinates":[[[5.1988,43.8712],[5.2101,43.8689],[5.2151,43.8647],[5.2146,43.8561],[5.2022,43.8565],[5.1883,43.8601],[5.1988,43.8712]]]}},{"type":"Feature","properties":{"code":"84083","nom":"Mornas","app":10.02,"app_bas":8.2,"app_haut":12.25,"app_ech":"commune","app_obs":189,"mai":10.06,"mai_bas":7.7,"mai_haut":13.14,"mai_ech":"maille","mai_obs":85},"geometry":{"type":"Polygon","coordinates":[[[4.7038,44.1977],[4.7097,44.2069],[4.7081,44.2131],[4.7135,44.2206],[4.7202,44.2242],[4.7326,44.2265],[4.7551,44.2282],[4.7653,44.2359],[4.7751,44.2357],[4.7802,44.2306],[4.7775,44.2226],[4.7786,44.2106],[4.7691,44.2105],[4.7671,44.2047],[4.7594,44.1991],[4.7488,44.1987],[4.7428,44.1842],[4.747,44.1719],[4.7402,44.1658],[4.7301,44.164],[4.7161,44.166],[4.7221,44.1874],[4.7038,44.1977]]]}},{"type":"Feature","properties":{"code":"84088","nom":"Pernes-les-Fontaines","app":12.77,"app_bas":10.16,"app_haut":16.05,"app_ech":"commune","app_obs":731,"mai":11.57,"mai_bas":8.81,"mai_haut":15.18,"mai_ech":"commune","mai_obs":500},"geometry":{"type":"Polygon","coordinates":[[[5.0756,43.9634],[5.0688,43.9644],[5.0633,43.9707],[5.0425,43.9763],[5.0192,43.9746],[5.0091,43.9714],[4.9946,43.9709],[4.9589,43.9722],[4.951,43.9746],[4.9626,43.9856],[4.9749,43.9911],[4.981,43.9963],[5.0171,44.0111],[5.0357,44.0224],[5.0483,44.0277],[5.0715,44.0297],[5.0941,44.0273],[5.1067,44.0248],[5.0948,44.006],[5.0984,44.0011],[5.0876,43.9916],[5.0848,43.9828],[5.0856,43.9721],[5.0756,43.9634]]]}},{"type":"Feature","properties":{"code":"84119","nom":"Saint-Saturnin-lès-Avignon","app":13.2,"app_bas":11.11,"app_haut":15.69,"app_ech":"commune","app_obs":384,"mai":10.8,"mai_bas":8.45,"mai_haut":13.8,"mai_ech":"commune","mai_obs":208},"geometry":{"type":"Polygon","coordinates":[[[4.956,43.9567],[4.9487,43.9564],[4.9274,43.9501],[4.918,43.9539],[4.9158,43.9611],[4.9289,43.9676],[4.937,43.968],[4.951,43.9746],[4.9762,43.9679],[4.96,43.9643],[4.956,43.9567]]]}},{"type":"Feature","properties":{"code":"84151","nom":"Vitrolles-en-Lubéron","app":12.46,"app_bas":9.98,"app_haut":15.55,"app_ech":"maille","app_obs":3,"mai":11.24,"mai_bas":7.91,"mai_haut":15.96,"mai_ech":"maille","mai_obs":16},"geometry":{"type":"Polygon","coordinates":[[[5.6314,43.8286],[5.6469,43.8261],[5.6391,43.8214],[5.6273,43.8203],[5.6179,43.8126],[5.6125,43.8043],[5.6094,43.7917],[5.5937,43.7823],[5.5928,43.7829],[5.5933,43.7926],[5.5771,43.8083],[5.5632,43.8181],[5.5509,43.8174],[5.5609,43.8211],[5.5673,43.8271],[5.5782,43.8299],[5.6035,43.8275],[5.6194,43.8298],[5.6314,43.8286]]]}},{"type":"Feature","properties":{"code":"84005","nom":"Aurel","app":10.79,"app_bas":8.39,"app_haut":13.88,"app_ech":"maille","app_obs":2,"mai":9.93,"mai_bas":7.39,"mai_haut":13.34,"mai_ech":"maille","mai_obs":2},"geometry":{"type":"Polygon","coordinates":[[[5.4476,44.1368],[5.4493,44.1246],[5.4547,44.1192],[5.4464,44.11],[5.4318,44.112],[5.4112,44.1203],[5.346,44.1359],[5.3264,44.1596],[5.3366,44.1576],[5.3548,44.1602],[5.3715,44.1545],[5.3832,44.1553],[5.3905,44.1534],[5.4358,44.1522],[5.4369,44.1428],[5.4476,44.1368]]]}},{"type":"Feature","properties":{"code":"84056","nom":"Jonquières","app":11.28,"app_bas":9.5,"app_haut":13.39,"app_ech":"commune","app_obs":363,"mai":10.4,"mai_bas":7.94,"mai_haut":13.61,"mai_ech":"commune","mai_obs":247},"geometry":{"type":"Polygon","coordinates":[[[4.9157,44.104],[4.9106,44.1067],[4.8819,44.1124],[4.8754,44.1169],[4.8787,44.1338],[4.8924,44.1466],[4.9161,44.1606],[4.9206,44.1607],[4.9313,44.1577],[4.935,44.1512],[4.9521,44.1497],[4.952,44.1303],[4.9405,44.1265],[4.93,44.1197],[4.9157,44.104]]]}},{"type":"Feature","properties":{"code":"84039","nom":"Courthézon","app":11.2,"app_bas":9.05,"app_haut":13.87,"app_ech":"commune","app_obs":590,"mai":9.34,"mai_bas":7.05,"mai_haut":12.36,"mai_ech":"commune","mai_obs":285},"geometry":{"type":"Polygon","coordinates":[[[4.8654,44.057],[4.8548,44.0683],[4.8395,44.0798],[4.8396,44.0985],[4.8544,44.1097],[4.8709,44.1179],[4.8754,44.1169],[4.8819,44.1124],[4.9106,44.1067],[4.9157,44.104],[4.915,44.1017],[4.9284,44.0855],[4.9331,44.0758],[4.9287,44.072],[4.9114,44.0725],[4.9002,44.0665],[4.8979,44.0622],[4.888,44.0595],[4.8654,44.057]]]}},{"type":"Feature","properties":{"code":"84094","nom":"Puyméras","app":10.24,"app_bas":8.29,"app_haut":12.66,"app_ech":"maille","app_obs":10,"mai":9.09,"mai_bas":7.01,"mai_haut":11.79,"mai_ech":"maille","mai_obs":12},"geometry":{"type":"Polygon","coordinates":[[[5.1688,44.3141],[5.1727,44.3094],[5.1701,44.2987],[5.1619,44.2874],[5.1497,44.2821],[5.1475,44.2692],[5.1323,44.2622],[5.119,44.2615],[5.1146,44.2702],[5.0955,44.2801],[5.0741,44.277],[5.0765,44.2841],[5.0865,44.2839],[5.1079,44.2804],[5.1215,44.2875],[5.1547,44.3018],[5.1524,44.3077],[5.1664,44.3149],[5.1688,44.3141]]]}},{"type":"Feature","properties":{"code":"84143","nom":"Venasque","app":12.18,"app_bas":9.74,"app_haut":15.24,"app_ech":"maille","app_obs":21,"mai":11.35,"mai_bas":8.63,"mai_haut":14.92,"mai_ech":"maille","mai_obs":32},"geometry":{"type":"Polygon","coordinates":[[[5.1823,44.0026],[5.1875,43.9944],[5.2155,43.9895],[5.2235,43.9829],[5.2126,43.9795],[5.2076,43.9689],[5.2009,43.963],[5.196,43.9503],[5.18,43.9524],[5.164,43.9513],[5.1495,43.9667],[5.1365,43.9767],[5.1222,43.9967],[5.1237,44.0014],[5.1125,44.0178],[5.1157,44.0218],[5.1225,44.0192],[5.1324,44.0221],[5.1463,44.0188],[5.1553,44.0071],[5.1697,44.0012],[5.1823,44.0026]]]}},{"type":"Feature","properties":{"code":"84009","nom":"Bastide-des-Jourdans","app":12.84,"app_bas":10.09,"app_haut":16.35,"app_ech":"commune","app_obs":101,"mai":11.24,"mai_bas":7.91,"mai_haut":15.96,"mai_ech":"maille","mai_obs":77},"geometry":{"type":"Polygon","coordinates":[[[5.6469,43.8261],[5.6544,43.8251],[5.6564,43.8194],[5.6672,43.8099],[5.6745,43.8074],[5.6846,43.7885],[5.695,43.7842],[5.6788,43.7723],[5.6672,43.7656],[5.6539,43.7676],[5.6387,43.7837],[5.6263,43.7834],[5.6101,43.7769],[5.5937,43.7823],[5.6094,43.7917],[5.6125,43.8043],[5.6179,43.8126],[5.6273,43.8203],[5.6391,43.8214],[5.6469,43.8261]]]}},{"type":"Feature","properties":{"code":"84026","nom":"Cadenet","app":13.19,"app_bas":10.34,"app_haut":16.84,"app_ech":"commune","app_obs":533,"mai":11.92,"mai_bas":8.48,"mai_haut":16.74,"mai_ech":"commune","mai_obs":177},"geometry":{"type":"Polygon","coordinates":[[[5.4236,43.734],[5.4279,43.7329],[5.4215,43.7172],[5.4093,43.7124],[5.3932,43.7094],[5.3881,43.7022],[5.3437,43.7188],[5.3551,43.7296],[5.3477,43.7387],[5.3537,43.754],[5.3675,43.7515],[5.3822,43.7542],[5.3861,43.7575],[5.3907,43.7565],[5.4142,43.7374],[5.4236,43.734]]]}},{"type":"Feature","properties":{"code":"84092","nom":"Pontet","app":12.22,"app_bas":9.5,"app_haut":15.71,"app_ech":"commune","app_obs":1700,"mai":11.48,"mai_bas":8.57,"mai_haut":15.38,"mai_ech":"commune","mai_obs":254},"geometry":{"type":"Polygon","coordinates":[[[4.8844,43.9819],[4.8824,43.9676],[4.884,43.9528],[4.8723,43.9532],[4.8601,43.951],[4.838,43.9524],[4.8389,43.9579],[4.8468,43.961],[4.854,43.9713],[4.8544,43.9832],[4.8516,43.9891],[4.8671,43.9892],[4.8844,43.9819]]]}},{"type":"Feature","properties":{"code":"84115","nom":"Saint-Pierre-de-Vassols","app":11.11,"app_bas":8.58,"app_haut":14.39,"app_ech":"maille","app_obs":15,"mai":9.93,"mai_bas":7.39,"mai_haut":13.34,"mai_ech":"maille","mai_obs":15},"geometry":{"type":"Polygon","coordinates":[[[5.1399,44.1135],[5.1449,44.0983],[5.1538,44.1013],[5.1598,44.0991],[5.1638,44.0924],[5.1591,44.0875],[5.1319,44.0841],[5.1297,44.0853],[5.1317,44.0999],[5.1399,44.1135]]]}},{"type":"Feature","properties":{"code":"84053","nom":"Grillon","app":9.05,"app_bas":7.01,"app_haut":11.68,"app_ech":"commune","app_obs":125,"mai":8.49,"mai_bas":5.8,"mai_haut":12.43,"mai_ech":"maille","mai_obs":73},"geometry":{"type":"Polygon","coordinates":[[[4.9071,44.3746],[4.9118,44.387],[4.9124,44.3996],[4.9185,44.4078],[4.9473,44.4159],[4.952,44.42],[4.9593,44.4198],[4.9603,44.4072],[4.9556,44.3906],[4.9444,44.3801],[4.9301,44.3707],[4.9071,44.3746]]]}},{"type":"Feature","properties":{"code":"84076","nom":"Mirabeau","app":12.46,"app_bas":9.98,"app_haut":15.55,"app_ech":"maille","app_obs":51,"mai":10.09,"mai_bas":7.21,"mai_haut":14.11,"mai_ech":"maille","mai_obs":42},"geometry":{"type":"Polygon","coordinates":[[[5.6192,43.6693],[5.6275,43.6755],[5.6133,43.6938],[5.6015,43.7035],[5.6018,43.7073],[5.6109,43.7177],[5.6137,43.7325],[5.6409,43.7406],[5.6466,43.7244],[5.6772,43.7188],[5.6814,43.7163],[5.6919,43.6984],[5.6828,43.6928],[5.6741,43.6935],[5.6618,43.6874],[5.6477,43.6758],[5.6375,43.6703],[5.6239,43.6661],[5.6192,43.6693]]]}},{"type":"Feature","properties":{"code":"84097","nom":"Richerenches","app":11.6,"app_bas":8.82,"app_haut":15.25,"app_ech":"maille","app_obs":58,"mai":9.46,"mai_bas":7.1,"mai_haut":12.6,"mai_ech":"maille","mai_obs":21},"geometry":{"type":"Polygon","coordinates":[[[4.9071,44.3746],[4.9301,44.3707],[4.9373,44.3612],[4.9221,44.3538],[4.9186,44.3483],[4.9073,44.3386],[4.8953,44.3381],[4.8796,44.3453],[4.8695,44.3451],[4.8754,44.3514],[4.8907,44.3598],[4.8929,44.3648],[4.8932,44.3679],[4.9071,44.3746]]]}},{"type":"Feature","properties":{"code":"84024","nom":"Cabrières-d'Aigues","app":12.91,"app_bas":10.13,"app_haut":16.44,"app_ech":"maille","app_obs":39,"mai":11.78,"mai_bas":8.81,"mai_haut":15.77,"mai_ech":"maille","mai_obs":64},"geometry":{"type":"Polygon","coordinates":[[[5.4891,43.8183],[5.5119,43.8189],[5.5092,43.8068],[5.5096,43.795],[5.5129,43.7865],[5.5135,43.7736],[5.5043,43.7583],[5.4921,43.7597],[5.4844,43.7697],[5.4751,43.7706],[5.4704,43.785],[5.4735,43.8004],[5.4649,43.8146],[5.4891,43.8183]]]}},{"type":"Feature","properties":{"code":"84020","nom":"Bonnieux","app":14.84,"app_bas":11.74,"app_haut":18.74,"app_ech":"maille","app_obs":50,"mai":12.8,"mai_bas":9.1,"mai_haut":18.01,"mai_ech":"maille","mai_obs":48},"geometry":{"type":"Polygon","coordinates":[[[5.2908,43.8609],[5.2997,43.8611],[5.2985,43.872],[5.3111,43.8826],[5.3189,43.8677],[5.3076,43.8628],[5.3239,43.8587],[5.3386,43.8664],[5.3452,43.8633],[5.346,43.855],[5.3577,43.8418],[5.3639,43.8363],[5.3553,43.8311],[5.3622,43.8198],[5.3474,43.8111],[5.342,43.799],[5.3439,43.7941],[5.3316,43.7851],[5.322,43.783],[5.3185,43.7864],[5.2704,43.7931],[5.2741,43.8189],[5.2832,43.832],[5.2835,43.8405],[5.2766,43.8495],[5.2676,43.8539],[5.2908,43.8609]]]}},{"type":"Feature","properties":{"code":"84034","nom":"Caumont-sur-Durance","app":12.89,"app_bas":10.31,"app_haut":16.12,"app_ech":"commune","app_obs":370,"mai":11.77,"mai_bas":9.15,"mai_haut":15.14,"mai_ech":"commune","mai_obs":211},"geometry":{"type":"Polygon","coordinates":[[[4.9308,43.9106],[4.9619,43.9102],[4.9677,43.9115],[4.98,43.9009],[4.9952,43.8907],[4.9844,43.8891],[4.9738,43.8826],[4.9915,43.8507],[4.9755,43.8664],[4.9663,43.8716],[4.922,43.8868],[4.9213,43.8996],[4.9272,43.9053],[4.9308,43.9106]]]}},{"type":"Feature","properties":{"code":"84054","nom":"Isle-sur-la-Sorgue","app":13.76,"app_bas":10.8,"app_haut":17.54,"app_ech":"commune","app_obs":1785,"mai":12.64,"mai_bas":9.83,"mai_haut":16.27,"mai_ech":"commune","mai_obs":512},"geometry":{"type":"Polygon","coordinates":[[[5.0688,43.9644],[5.0756,43.9634],[5.0867,43.9553],[5.087,43.9336],[5.0817,43.9199],[5.0871,43.9089],[5.0968,43.9061],[5.1034,43.9082],[5.1014,43.901],[5.0943,43.9028],[5.0876,43.8974],[5.0831,43.8747],[5.0691,43.8734],[5.0495,43.8746],[5.0219,43.8791],[5.0127,43.9003],[5.0123,43.9073],[5.035,43.9329],[5.0252,43.9462],[5.0417,43.9449],[5.0591,43.9532],[5.0688,43.9644]]]}},{"type":"Feature","properties":{"code":"84093","nom":"Puget","app":15.32,"app_bas":11.97,"app_haut":19.61,"app_ech":"maille","app_obs":16,"mai":12.8,"mai_bas":9.1,"mai_haut":18.01,"mai_ech":"maille","mai_obs":10},"geometry":{"type":"Polygon","coordinates":[[[5.2569,43.7991],[5.2704,43.7931],[5.2707,43.7901],[5.2864,43.7401],[5.2456,43.7471],[5.2364,43.7475],[5.2363,43.7755],[5.2275,43.7922],[5.2569,43.7991]]]}},{"type":"Feature","properties":{"code":"84025","nom":"Cabrières-d'Avignon","app":13.53,"app_bas":10.88,"app_haut":16.82,"app_ech":"maille","app_obs":52,"mai":12.21,"mai_bas":9.48,"mai_haut":15.73,"mai_ech":"maille","mai_obs":25},"geometry":{"type":"Polygon","coordinates":[[[5.1366,43.8686],[5.1317,43.8795],[5.1328,43.8846],[5.1515,43.92],[5.1552,43.9417],[5.1593,43.9422],[5.1661,43.9255],[5.1649,43.9049],[5.1664,43.8843],[5.1666,43.8644],[5.1483,43.8679],[5.1366,43.8686]]]}},{"type":"Feature","properties":{"code":"84098","nom":"Roaix","app":10.72,"app_bas":8.7,"app_haut":13.22,"app_ech":"maille","app_obs":67,"mai":9.09,"mai_bas":7.01,"mai_haut":11.79,"mai_ech":"maille","mai_obs":28},"geometry":{"type":"Polygon","coordinates":[[[4.9942,44.259],[5.013,44.2673],[5.0253,44.2652],[5.0258,44.2698],[5.0297,44.2642],[5.029,44.2512],[5.0219,44.2444],[5.0099,44.2382],[5.0037,44.2444],[5.0072,44.2492],[4.9942,44.259]]]}},{"type":"Feature","properties":{"code":"84146","nom":"Villedieu","app":10.72,"app_bas":8.7,"app_haut":13.22,"app_ech":"maille","app_obs":27,"mai":9.09,"mai_bas":7.01,"mai_haut":11.79,"mai_ech":"maille","mai_obs":16},"geometry":{"type":"Polygon","coordinates":[[[5.0606,44.3081],[5.0765,44.2841],[5.0741,44.277],[5.0435,44.2756],[5.034,44.2719],[5.0254,44.273],[5.0241,44.2845],[5.0171,44.2927],[5.0295,44.2979],[5.0385,44.2996],[5.0606,44.3081]]]}},{"type":"Feature","properties":{"code":"84061","nom":"Lagarde-Paréol","app":11.52,"app_bas":9.1,"app_haut":14.59,"app_ech":"maille","app_obs":17,"mai":10.74,"mai_bas":8.26,"mai_haut":13.96,"mai_ech":"maille","mai_obs":6},"geometry":{"type":"Polygon","coordinates":[[[4.825,44.2221],[4.8255,44.2286],[4.8454,44.2415],[4.8571,44.246],[4.8621,44.2459],[4.8719,44.2289],[4.8675,44.2117],[4.8469,44.215],[4.825,44.2221]]]}},{"type":"Feature","properties":{"code":"84065","nom":"Lauris","app":15.62,"app_bas":12.36,"app_haut":19.73,"app_ech":"commune","app_obs":260,"mai":12.44,"mai_bas":8.83,"mai_haut":17.52,"mai_ech":"commune","mai_obs":113},"geometry":{"type":"Polygon","coordinates":[[[5.2864,43.7401],[5.2707,43.7901],[5.2704,43.7931],[5.3185,43.7864],[5.322,43.783],[5.3221,43.7793],[5.3332,43.7411],[5.3259,43.7292],[5.3185,43.735],[5.308,43.738],[5.2864,43.7401]]]}},{"type":"Feature","properties":{"code":"84040","nom":"Crestet","app":10.24,"app_bas":8.29,"app_haut":12.66,"app_ech":"maille","app_obs":10,"mai":9.93,"mai_bas":7.39,"mai_haut":13.34,"mai_ech":"maille","mai_obs":2},"geometry":{"type":"Polygon","coordinates":[[[5.1124,44.2313],[5.1055,44.2194],[5.1083,44.2094],[5.0964,44.1991],[5.0912,44.1923],[5.0762,44.1923],[5.0683,44.19],[5.0625,44.1936],[5.0604,44.1997],[5.0676,44.2061],[5.0752,44.2232],[5.0891,44.2294],[5.1017,44.2287],[5.1124,44.2313]]]}},{"type":"Feature","properties":{"code":"84081","nom":"Morières-lès-Avignon","app":13.08,"app_bas":11.01,"app_haut":15.54,"app_ech":"commune","app_obs":686,"mai":11.97,"mai_bas":9.35,"mai_haut":15.34,"mai_ech":"commune","mai_obs":251},"geometry":{"type":"Polygon","coordinates":[[[4.884,43.9528],[4.918,43.9539],[4.9235,43.9518],[4.9207,43.9446],[4.922,43.9284],[4.9186,43.9185],[4.92,43.9143],[4.9308,43.9106],[4.9272,43.9053],[4.8988,43.9147],[4.8971,43.9177],[4.8995,43.9305],[4.8879,43.9498],[4.884,43.9528]]]}},{"type":"Feature","properties":{"code":"84145","nom":"Villars","app":10.79,"app_bas":8.39,"app_haut":13.88,"app_ech":"maille","app_obs":5,"mai":11.14,"mai_bas":8.22,"mai_haut":15.09,"mai_ech":"maille","mai_obs":35},"geometry":{"type":"Polygon","coordinates":[[[5.3928,43.9122],[5.4029,43.936],[5.4194,43.9515],[5.4334,43.9767],[5.4379,43.9955],[5.4394,44.0141],[5.4407,44.0144],[5.4476,44.0034],[5.4546,43.9991],[5.4629,43.987],[5.4667,43.9738],[5.4745,43.9624],[5.4606,43.9595],[5.4518,43.9508],[5.4454,43.941],[5.4378,43.9209],[5.4101,43.9021],[5.4052,43.9018],[5.3928,43.9122]]]}},{"type":"Feature","properties":{"code":"84058","nom":"Lacoste","app":12.63,"app_bas":9.6,"app_haut":16.63,"app_ech":"maille","app_obs":8,"mai":12.8,"mai_bas":9.1,"mai_haut":18.01,"mai_ech":"maille","mai_obs":12},"geometry":{"type":"Polygon","coordinates":[[[5.2449,43.8396],[5.255,43.8402],[5.2624,43.8436],[5.2676,43.8539],[5.2766,43.8495],[5.2835,43.8405],[5.2832,43.832],[5.2741,43.8189],[5.2704,43.7931],[5.2569,43.7991],[5.2563,43.8186],[5.2449,43.8396]]]}},{"type":"Feature","properties":{"code":"84064","nom":"Lapalud","app":10.46,"app_bas":8.34,"app_haut":13.13,"app_ech":"commune","app_obs":369,"mai":10.82,"mai_bas":8.02,"mai_haut":14.61,"mai_ech":"commune","mai_obs":126},"geometry":{"type":"Polygon","coordinates":[[[4.6532,44.2948],[4.6506,44.3298],[4.679,44.3205],[4.713,44.3206],[4.7144,44.314],[4.7115,44.2962],[4.7004,44.3002],[4.6952,44.285],[4.6901,44.285],[4.6529,44.291],[4.6532,44.2948]]]}},{"type":"Feature","properties":{"code":"84149","nom":"Violès","app":10.86,"app_bas":9.12,"app_haut":12.93,"app_ech":"maille","app_obs":74,"mai":9.93,"mai_bas":7.39,"mai_haut":13.34,"mai_ech":"maille","mai_obs":80},"geometry":{"type":"Polygon","coordinates":[[[4.9491,44.2023],[4.9595,44.2032],[4.9635,44.1978],[4.9764,44.189],[4.9814,44.1888],[4.9766,44.1851],[4.9678,44.1697],[4.9521,44.1497],[4.935,44.1512],[4.9313,44.1577],[4.9206,44.1607],[4.9323,44.162],[4.939,44.1825],[4.9358,44.1983],[4.9491,44.2023]]]}},{"type":"Feature","properties":{"code":"84041","nom":"Crillon-le-Brave","app":11.11,"app_bas":8.58,"app_haut":14.39,"app_ech":"maille","app_obs":5,"mai":9.93,"mai_bas":7.39,"mai_haut":13.34,"mai_ech":"maille","mai_obs":28},"geometry":{"type":"Polygon","coordinates":[[[5.139,44.1356],[5.1426,44.1393],[5.1635,44.1259],[5.1685,44.1149],[5.1598,44.0991],[5.1538,44.1013],[5.1449,44.0983],[5.1399,44.1135],[5.1353,44.1239],[5.139,44.1356]]]}}]}