{"type":"FeatureCollection","features":[{"type":"Feature","properties":{"code":"90088","nom":"Rougegoutte","app":9.59,"app_bas":7.71,"app_haut":11.93,"app_ech":"maille","app_obs":61,"mai":9.66,"mai_bas":7.45,"mai_haut":12.53,"mai_ech":"maille","mai_obs":4,"a12":11.03,"a3":9.21},"geometry":{"type":"Polygon","coordinates":[[[6.8345,47.7308],[6.8399,47.7354],[6.8471,47.7354],[6.8581,47.7398],[6.8612,47.7455],[6.8701,47.7506],[6.8883,47.7507],[6.8859,47.7368],[6.8806,47.7314],[6.8645,47.7258],[6.8601,47.7147],[6.8423,47.7186],[6.8345,47.7308]]]}},{"type":"Feature","properties":{"code":"90043","nom":"Faverois","app":10.86,"app_bas":8.52,"app_haut":13.84,"app_ech":"maille","app_obs":22,"mai":10.38,"mai_bas":7.87,"mai_haut":13.7,"mai_ech":"maille","mai_obs":7,"a12":12.06,"a3":9.18},"geometry":{"type":"Polygon","coordinates":[[[7.0197,47.52],[7.025,47.5272],[7.0246,47.5368],[7.0282,47.5416],[7.0396,47.5462],[7.0493,47.5425],[7.0524,47.5242],[7.0468,47.5173],[7.0265,47.5117],[7.0197,47.52]]]}},{"type":"Feature","properties":{"code":"90067","nom":"Menoncourt","app":11.59,"app_bas":9.45,"app_haut":14.22,"app_ech":"maille","app_obs":25,"mai":11.6,"mai_bas":8.33,"mai_haut":16.16,"mai_ech":"maille","mai_obs":14,"a12":11.59,"a3":9.65},"geometry":{"type":"Polygon","coordinates":[[[6.9721,47.6693],[6.9384,47.6665],[6.9363,47.6794],[6.9438,47.684],[6.9433,47.6893],[6.9346,47.693],[6.9549,47.693],[6.9578,47.6892],[6.9648,47.6736],[6.9737,47.6737],[6.9721,47.6693]]]}},{"type":"Feature","properties":{"code":"90068","nom":"Meroux","app":10.94,"app_bas":8.42,"app_haut":14.21,"app_ech":"commune","app_obs":143,"mai":10.91,"mai_bas":8.35,"mai_haut":14.26,"mai_ech":"maille","mai_obs":21,"a12":11.7,"a3":9.45},"geometry":{"type":"Polygon","coordinates":[[[6.8839,47.6108],[6.9204,47.5967],[6.9387,47.594],[6.9442,47.596],[6.9506,47.5933],[6.9219,47.5781],[6.9157,47.5816],[6.8964,47.5815],[6.8913,47.5883],[6.8783,47.5916],[6.8845,47.5978],[6.8839,47.6108]]]}},{"type":"Feature","properties":{"code":"90075","nom":"Offemont","app":11.14,"app_bas":8.76,"app_haut":14.16,"app_ech":"commune","app_obs":137,"mai":9.66,"mai_bas":7.45,"mai_haut":12.53,"mai_ech":"maille","mai_obs":99,"a12":11.59,"a3":9.21},"geometry":{"type":"Polygon","coordinates":[[[6.8941,47.6547],[6.8763,47.6495],[6.8614,47.6547],[6.8501,47.6609],[6.8544,47.6603],[6.8644,47.6673],[6.8635,47.678],[6.8851,47.6739],[6.8867,47.6647],[6.8961,47.6582],[6.8941,47.6547]]]}},{"type":"Feature","properties":{"code":"90053","nom":"Grandvillars","app":10.75,"app_bas":8.45,"app_haut":13.68,"app_ech":"commune","app_obs":500,"mai":10.38,"mai_bas":7.87,"mai_haut":13.7,"mai_ech":"maille","mai_obs":40,"a12":13.13,"a3":8.97},"geometry":{"type":"Polygon","coordinates":[[[6.9389,47.5215],[6.9442,47.523],[6.9417,47.5319],[6.9501,47.5417],[6.9546,47.5545],[6.9648,47.5574],[6.9975,47.56],[6.9926,47.5548],[6.9974,47.547],[7.0129,47.5445],[6.9899,47.5352],[6.9841,47.5243],[6.958,47.5156],[6.945,47.5133],[6.9376,47.5174],[6.9389,47.5215]]]}},{"type":"Feature","properties":{"code":"90023","nom":"Chaux","app":11.99,"app_bas":9.62,"app_haut":14.95,"app_ech":"maille","app_obs":16,"mai":9.66,"mai_bas":7.45,"mai_haut":12.53,"mai_ech":"maille","mai_obs":16,"a12":11.03,"a3":9.21},"geometry":{"type":"Polygon","coordinates":[[[6.8043,47.7221],[6.813,47.7274],[6.8345,47.7308],[6.8423,47.7186],[6.8601,47.7147],[6.8722,47.6992],[6.8614,47.6997],[6.8492,47.6975],[6.8291,47.6982],[6.8284,47.7058],[6.82,47.7101],[6.8099,47.7211],[6.8043,47.7221]]]}},{"type":"Feature","properties":{"code":"90004","nom":"Argiésans","app":10.56,"app_bas":8.52,"app_haut":13.08,"app_ech":"maille","app_obs":51,"mai":10.73,"mai_bas":8.35,"mai_haut":13.8,"mai_ech":"maille","mai_obs":3,"a12":11.7,"a3":9.45},"geometry":{"type":"Polygon","coordinates":[[[6.8388,47.6072],[6.84,47.6029],[6.8341,47.5986],[6.8323,47.5999],[6.8017,47.5988],[6.8008,47.6002],[6.8114,47.6038],[6.8153,47.6087],[6.8155,47.6166],[6.8273,47.6099],[6.8388,47.6072]]]}},{"type":"Feature","properties":{"code":"90072","nom":"Morvillars","app":10.24,"app_bas":7.92,"app_haut":13.24,"app_ech":"commune","app_obs":131,"mai":10.91,"mai_bas":8.35,"mai_haut":14.26,"mai_ech":"maille","mai_obs":17,"a12":12.64,"a3":9.14},"geometry":{"type":"Polygon","coordinates":[[[6.9546,47.5545],[6.9501,47.5417],[6.9417,47.5319],[6.9442,47.523],[6.9389,47.5215],[6.9326,47.524],[6.9348,47.535],[6.9274,47.5411],[6.9154,47.5461],[6.9392,47.5562],[6.9546,47.5545]]]}},{"type":"Feature","properties":{"code":"90095","nom":"Suarce","app":11.05,"app_bas":8.95,"app_haut":13.64,"app_ech":"maille","app_obs":5,"mai":10.38,"mai_bas":7.87,"mai_haut":13.7,"mai_ech":"maille","mai_obs":4,"a12":12.9,"a3":9.6},"geometry":{"type":"Polygon","coordinates":[[[7.1075,47.5586],[7.1062,47.5513],[7.086,47.5471],[7.0811,47.544],[7.0666,47.5421],[7.0548,47.5573],[7.0534,47.5634],[7.0578,47.5693],[7.0819,47.5784],[7.0864,47.5855],[7.0889,47.5837],[7.0944,47.5735],[7.1002,47.5723],[7.1077,47.5648],[7.1075,47.5586]]]}},{"type":"Feature","properties":{"code":"90013","nom":"Bethonvilliers","app":10.31,"app_bas":7.61,"app_haut":13.97,"app_ech":"maille","app_obs":9,"mai":11.6,"mai_bas":8.33,"mai_haut":16.16,"mai_ech":"maille","mai_obs":2,"a12":11.59,"a3":9.65},"geometry":{"type":"Polygon","coordinates":[[[6.9767,47.6782],[6.9737,47.6737],[6.9648,47.6736],[6.9578,47.6892],[6.9675,47.6903],[6.9767,47.6782]]]}},{"type":"Feature","properties":{"code":"90081","nom":"Réchésy","app":11.05,"app_bas":8.95,"app_haut":13.64,"app_ech":"maille","app_obs":35,"mai":10.28,"mai_bas":7.54,"mai_haut":14.01,"mai_ech":"maille","mai_obs":14,"a12":12.9,"a3":10.1},"geometry":{"type":"Polygon","coordinates":[[[7.1024,47.5319],[7.1217,47.5338],[7.1328,47.5397],[7.1422,47.525],[7.1379,47.5106],[7.1303,47.503],[7.1111,47.4949],[7.0967,47.4951],[7.0916,47.5077],[7.0969,47.5241],[7.1024,47.5319]]]}},{"type":"Feature","properties":{"code":"90002","nom":"Angeot","app":10.31,"app_bas":7.61,"app_haut":13.97,"app_ech":"maille","app_obs":8,"mai":11.6,"mai_bas":8.33,"mai_haut":16.16,"mai_ech":"maille","mai_obs":4,"a12":12.68,"a3":10.52},"geometry":{"type":"Polygon","coordinates":[[[7.0386,47.6926],[7.0097,47.6878],[6.9995,47.689],[6.9836,47.6858],[6.9675,47.6903],[6.9783,47.6943],[7.0006,47.7046],[7.0276,47.7054],[7.0265,47.701],[7.0386,47.6926]]]}},{"type":"Feature","properties":{"code":"90090","nom":"Saint-Dizier-l'Évêque","app":9.41,"app_bas":7.41,"app_haut":11.94,"app_ech":"maille","app_obs":15,"mai":10.38,"mai_bas":7.87,"mai_haut":13.7,"mai_ech":"maille","mai_obs":4,"a12":12.06,"a3":8.17},"geometry":{"type":"Polygon","coordinates":[[[6.9383,47.4731],[6.9427,47.4849],[6.9491,47.4857],[6.9702,47.4788],[6.9816,47.4731],[6.9885,47.473],[6.9918,47.4664],[6.9888,47.4626],[6.9769,47.4569],[6.9713,47.4491],[6.9542,47.4545],[6.936,47.4558],[6.9383,47.4731]]]}},{"type":"Feature","properties":{"code":"90020","nom":"Buc","app":11.83,"app_bas":9.05,"app_haut":15.48,"app_ech":"maille","app_obs":10,"mai":10.73,"mai_bas":8.35,"mai_haut":13.8,"mai_ech":"maille","mai_obs":3,"a12":11.7,"a3":8.6},"geometry":{"type":"Polygon","coordinates":[[[6.7804,47.6253],[6.7911,47.6269],[6.7993,47.6235],[6.7984,47.6145],[6.7893,47.6047],[6.7882,47.6049],[6.7871,47.6101],[6.7776,47.6156],[6.7804,47.6253]]]}},{"type":"Feature","properties":{"code":"90055","nom":"Grosne","app":10.7,"app_bas":8.4,"app_haut":13.64,"app_ech":"maille","app_obs":5,"mai":10.91,"mai_bas":8.35,"mai_haut":14.26,"mai_ech":"maille","mai_obs":0,"a12":11.7,"a3":8.69},"geometry":{"type":"Polygon","coordinates":[[[6.9932,47.5807],[7.0089,47.5819],[7.002,47.5642],[6.9975,47.56],[6.985,47.5595],[6.9808,47.5638],[6.9867,47.5727],[6.9858,47.5807],[6.9932,47.5807]]]}},{"type":"Feature","properties":{"code":"90008","nom":"Bavilliers","app":11.1,"app_bas":8.61,"app_haut":14.3,"app_ech":"commune","app_obs":437,"mai":10.91,"mai_bas":8.35,"mai_haut":14.26,"mai_ech":"maille","mai_obs":52,"a12":11.93,"a3":9.06},"geometry":{"type":"Polygon","coordinates":[[[6.8473,47.6218],[6.8469,47.6163],[6.8388,47.6072],[6.8273,47.6099],[6.8155,47.6166],[6.807,47.6227],[6.822,47.6243],[6.8349,47.6351],[6.8473,47.6218]]]}},{"type":"Feature","properties":{"code":"90056","nom":"Joncherey","app":10.86,"app_bas":8.52,"app_haut":13.84,"app_ech":"maille","app_obs":43,"mai":10.38,"mai_bas":7.87,"mai_haut":13.7,"mai_ech":"maille","mai_obs":24,"a12":12.06,"a3":9.18},"geometry":{"type":"Polygon","coordinates":[[[6.9985,47.5245],[6.9886,47.5331],[6.9899,47.5352],[7.0129,47.5445],[7.0242,47.5447],[7.0282,47.5416],[7.0246,47.5368],[7.025,47.5272],[7.0197,47.52],[7.0012,47.5221],[6.9985,47.5245]]]}},{"type":"Feature","properties":{"code":"90102","nom":"Vescemont","app":11.99,"app_bas":9.62,"app_haut":14.95,"app_ech":"maille","app_obs":42,"mai":12.03,"mai_bas":8.29,"mai_haut":17.45,"mai_ech":"maille","mai_obs":3,"a12":11.03,"a3":9.21},"geometry":{"type":"Polygon","coordinates":[[[6.8345,47.7575],[6.8416,47.7687],[6.8555,47.7733],[6.8619,47.7634],[6.8586,47.7563],[6.8897,47.7546],[6.8883,47.7507],[6.8701,47.7506],[6.8612,47.7455],[6.8581,47.7398],[6.8471,47.7354],[6.8399,47.7354],[6.8345,47.7575]]]}},{"type":"Feature","properties":{"code":"90033","nom":"Delle","app":10.65,"app_bas":8.42,"app_haut":13.48,"app_ech":"commune","app_obs":1217,"mai":10.38,"mai_bas":7.87,"mai_haut":13.7,"mai_ech":"maille","mai_obs":92,"a12":12.84,"a3":9.17},"geometry":{"type":"Polygon","coordinates":[[[6.9985,47.5245],[7.0012,47.5221],[7.0197,47.52],[7.0265,47.5117],[7.0244,47.5042],[7.02,47.5043],[6.9829,47.4943],[6.9737,47.4979],[6.9639,47.4963],[6.9699,47.511],[6.9925,47.5178],[6.9985,47.5245]]]}},{"type":"Feature","properties":{"code":"90074","nom":"Novillard","app":10.44,"app_bas":8.06,"app_haut":13.51,"app_ech":"maille","app_obs":14,"mai":10.73,"mai_bas":8.35,"mai_haut":13.8,"mai_ech":"maille","mai_obs":12,"a12":11.7,"a3":9.03},"geometry":{"type":"Polygon","coordinates":[[[6.9635,47.6157],[6.9788,47.6066],[6.9779,47.5962],[6.9713,47.5991],[6.9504,47.6008],[6.9518,47.5941],[6.9506,47.5933],[6.9442,47.596],[6.9439,47.602],[6.9501,47.6125],[6.9635,47.6157]]]}},{"type":"Feature","properties":{"code":"90076","nom":"Pérouse","app":9.93,"app_bas":7.99,"app_haut":12.33,"app_ech":"commune","app_obs":100,"mai":10.73,"mai_bas":8.35,"mai_haut":13.8,"mai_ech":"maille","mai_obs":43,"a12":11.7,"a3":9.45},"geometry":{"type":"Polygon","coordinates":[[[6.8786,47.6296],[6.8741,47.6314],[6.8888,47.6429],[6.888,47.6462],[6.8969,47.6507],[6.9095,47.645],[6.9106,47.6386],[6.8942,47.6218],[6.8902,47.6224],[6.8786,47.6296]]]}},{"type":"Feature","properties":{"code":"90078","nom":"Petitefontaine","app":9.53,"app_bas":7.66,"app_haut":11.86,"app_ech":"maille","app_obs":4,"mai":12.03,"mai_bas":8.29,"mai_haut":17.45,"mai_ech":"maille","mai_obs":6,"a12":11.95,"a3":9.65},"geometry":{"type":"Polygon","coordinates":[[[6.9842,47.7162],[6.9817,47.7186],[7.0027,47.7257],[7.0206,47.7344],[7.0321,47.7262],[6.992,47.7142],[6.9842,47.7162]]]}},{"type":"Feature","properties":{"code":"90012","nom":"Bessoncourt","app":11.59,"app_bas":9.45,"app_haut":14.22,"app_ech":"maille","app_obs":67,"mai":10.73,"mai_bas":8.35,"mai_haut":13.8,"mai_ech":"maille","mai_obs":16,"a12":11.7,"a3":9.65},"geometry":{"type":"Polygon","coordinates":[[[6.9106,47.6386],[6.9095,47.645],[6.9262,47.6557],[6.945,47.6525],[6.9699,47.6547],[6.9737,47.642],[6.9707,47.6367],[6.9577,47.6383],[6.9407,47.6362],[6.9106,47.6386]]]}},{"type":"Feature","properties":{"code":"90032","nom":"Danjoutin","app":10.39,"app_bas":8.36,"app_haut":12.9,"app_ech":"commune","app_obs":783,"mai":10.91,"mai_bas":8.35,"mai_haut":14.26,"mai_ech":"maille","mai_obs":78,"a12":11.48,"a3":9.2},"geometry":{"type":"Polygon","coordinates":[[[6.8473,47.6218],[6.8525,47.6203],[6.8786,47.6296],[6.8902,47.6224],[6.884,47.6113],[6.8659,47.6094],[6.8399,47.6082],[6.8469,47.6163],[6.8473,47.6218]]]}},{"type":"Feature","properties":{"code":"90039","nom":"Essert","app":12.37,"app_bas":9.45,"app_haut":16.21,"app_ech":"commune","app_obs":386,"mai":10.73,"mai_bas":8.35,"mai_haut":13.8,"mai_ech":"maille","mai_obs":56,"a12":12.64,"a3":9.55},"geometry":{"type":"Polygon","coordinates":[[[6.7982,47.6502],[6.8106,47.6527],[6.8184,47.6465],[6.8282,47.645],[6.8349,47.6351],[6.822,47.6243],[6.807,47.6227],[6.7993,47.6235],[6.7911,47.6269],[6.8003,47.6347],[6.7983,47.6421],[6.7907,47.6479],[6.7982,47.6502]]]}},{"type":"Feature","properties":{"code":"90046","nom":"Florimont","app":9.98,"app_bas":7.78,"app_haut":12.82,"app_ech":"maille","app_obs":21,"mai":10.28,"mai_bas":7.54,"mai_haut":14.01,"mai_ech":"maille","mai_obs":9,"a12":11.95,"a3":10.1},"geometry":{"type":"Polygon","coordinates":[[[7.0331,47.5781],[7.0371,47.5821],[7.0554,47.5766],[7.0578,47.5693],[7.0534,47.5634],[7.0548,47.5573],[7.0666,47.5421],[7.0761,47.5341],[7.0743,47.5155],[7.0817,47.5083],[7.0601,47.5047],[7.0362,47.499],[7.0244,47.5042],[7.0265,47.5117],[7.0468,47.5173],[7.0524,47.5242],[7.0493,47.5425],[7.0396,47.5462],[7.031,47.5576],[7.0216,47.564],[7.0331,47.5781]]]}},{"type":"Feature","properties":{"code":"90045","nom":"Fêche-l'Église","app":10.86,"app_bas":8.52,"app_haut":13.84,"app_ech":"maille","app_obs":55,"mai":10.38,"mai_bas":7.87,"mai_haut":13.7,"mai_ech":"maille","mai_obs":9,"a12":12.06,"a3":9.5},"geometry":{"type":"Polygon","coordinates":[[[6.958,47.5156],[6.9699,47.511],[6.9639,47.4963],[6.9567,47.4937],[6.9524,47.4849],[6.9491,47.4857],[6.945,47.499],[6.945,47.5133],[6.958,47.5156]]]}},{"type":"Feature","properties":{"code":"90018","nom":"Brebotte","app":10.7,"app_bas":8.4,"app_haut":13.64,"app_ech":"maille","app_obs":20,"mai":10.91,"mai_bas":8.35,"mai_haut":14.26,"mai_ech":"maille","mai_obs":5,"a12":11.7,"a3":8.69},"geometry":{"type":"Polygon","coordinates":[[[6.9618,47.5824],[6.9749,47.5879],[6.9842,47.5891],[6.9953,47.5846],[6.9932,47.5807],[6.9858,47.5807],[6.9766,47.5765],[6.967,47.5655],[6.955,47.5719],[6.9618,47.5824]]]}},{"type":"Feature","properties":{"code":"90019","nom":"Bretagne","app":9.98,"app_bas":7.78,"app_haut":12.82,"app_ech":"maille","app_obs":24,"mai":10.91,"mai_bas":8.35,"mai_haut":14.26,"mai_ech":"maille","mai_obs":0,"a12":12.64,"a3":8.69},"geometry":{"type":"Polygon","coordinates":[[[6.9932,47.5807],[6.9953,47.5846],[6.9842,47.5891],[6.9749,47.5879],[6.9796,47.5952],[6.9892,47.5965],[6.9997,47.6008],[7.0092,47.5994],[7.0216,47.5938],[7.0189,47.5871],[7.0089,47.5819],[6.9932,47.5807]]]}},{"type":"Feature","properties":{"code":"90071","nom":"Montreux-Château","app":10.31,"app_bas":8.04,"app_haut":13.21,"app_ech":"commune","app_obs":166,"mai":10.91,"mai_bas":8.35,"mai_haut":14.26,"mai_ech":"maille","mai_obs":13,"a12":12.64,"a3":8.98},"geometry":{"type":"Polygon","coordinates":[[[7.0051,47.6196],[7.01,47.6047],[7.0092,47.5994],[6.9997,47.6008],[6.9892,47.5965],[6.9796,47.5952],[6.9779,47.5962],[6.9788,47.6066],[6.9875,47.6159],[6.9848,47.6221],[7.0051,47.6196]]]}},{"type":"Feature","properties":{"code":"90017","nom":"Bourogne","app":10.46,"app_bas":8.07,"app_haut":13.55,"app_ech":"commune","app_obs":210,"mai":10.91,"mai_bas":8.35,"mai_haut":14.26,"mai_ech":"maille","mai_obs":27,"a12":12.64,"a3":8.63},"geometry":{"type":"Polygon","coordinates":[[[6.8835,47.5553],[6.8806,47.562],[6.8741,47.5664],[6.8823,47.5747],[6.8845,47.5809],[6.8964,47.5815],[6.9157,47.5816],[6.9219,47.5781],[6.9375,47.5668],[6.9336,47.5606],[6.9392,47.5562],[6.907,47.5423],[6.9057,47.5474],[6.8898,47.5501],[6.8835,47.5553]]]}},{"type":"Feature","properties":{"code":"90054","nom":"Grosmagny","app":11.99,"app_bas":9.62,"app_haut":14.95,"app_ech":"maille","app_obs":9,"mai":12.03,"mai_bas":8.29,"mai_haut":17.45,"mai_ech":"maille","mai_obs":6,"a12":11.03,"a3":9.65},"geometry":{"type":"Polygon","coordinates":[[[6.8956,47.7132],[6.8906,47.7005],[6.8903,47.6943],[6.8821,47.6982],[6.8722,47.6992],[6.8601,47.7147],[6.8645,47.7258],[6.8806,47.7314],[6.8859,47.7368],[6.8883,47.7507],[6.8975,47.7382],[6.8923,47.7242],[6.8956,47.7132]]]}},{"type":"Feature","properties":{"code":"90100","nom":"Vauthiermont","app":11.59,"app_bas":9.45,"app_haut":14.22,"app_ech":"maille","app_obs":20,"mai":11.6,"mai_bas":8.33,"mai_haut":16.16,"mai_ech":"maille","mai_obs":5,"a12":11.95,"a3":10.52},"geometry":{"type":"Polygon","coordinates":[[[7.0363,47.6922],[7.0386,47.6879],[7.048,47.6823],[7.0376,47.6751],[7.0098,47.6678],[7.0033,47.6744],[7.0097,47.6878],[7.0363,47.6922]]]}},{"type":"Feature","properties":{"code":"90052","nom":"Giromagny","app":10.3,"app_bas":8.28,"app_haut":12.82,"app_ech":"commune","app_obs":537,"mai":8.48,"mai_bas":6.19,"mai_haut":11.62,"mai_ech":"maille","mai_obs":39,"a12":11.07,"a3":9.28},"geometry":{"type":"Polygon","coordinates":[[[6.8052,47.7412],[6.7996,47.7486],[6.8155,47.7473],[6.8345,47.7575],[6.8399,47.7354],[6.8345,47.7308],[6.813,47.7274],[6.8052,47.7412]]]}},{"type":"Feature","properties":{"code":"90070","nom":"Montbouton","app":9.41,"app_bas":7.41,"app_haut":11.94,"app_ech":"maille","app_obs":9,"mai":10.38,"mai_bas":7.87,"mai_haut":13.7,"mai_ech":"maille","mai_obs":2,"a12":12.06,"a3":8.17},"geometry":{"type":"Polygon","coordinates":[[[6.9073,47.4729],[6.9157,47.4782],[6.9383,47.4731],[6.936,47.4558],[6.9323,47.4558],[6.9172,47.4689],[6.9073,47.4729]]]}},{"type":"Feature","properties":{"code":"90105","nom":"Villars-le-Sec","app":9.41,"app_bas":7.41,"app_haut":11.94,"app_ech":"maille","app_obs":2,"mai":10.38,"mai_bas":7.87,"mai_haut":13.7,"mai_ech":"maille","mai_obs":5,"a12":12.06,"a3":8.17},"geometry":{"type":"Polygon","coordinates":[[[6.9918,47.4664],[7.0003,47.463],[6.999,47.4523],[6.9891,47.4477],[6.9703,47.4471],[6.9769,47.4569],[6.9888,47.4626],[6.9918,47.4664]]]}},{"type":"Feature","properties":{"code":"90050","nom":"Frais","app":9.99,"app_bas":8.04,"app_haut":12.41,"app_ech":"maille","app_obs":24,"mai":10.91,"mai_bas":8.35,"mai_haut":14.26,"mai_ech":"maille","mai_obs":8,"a12":12.64,"a3":9.45},"geometry":{"type":"Polygon","coordinates":[[[6.9707,47.6367],[6.9737,47.642],[6.9699,47.6547],[6.988,47.654],[6.9928,47.6511],[6.9932,47.6418],[6.9707,47.6367]]]}},{"type":"Feature","properties":{"code":"90083","nom":"Recouvrance","app":10.7,"app_bas":8.4,"app_haut":13.64,"app_ech":"maille","app_obs":0,"mai":10.91,"mai_bas":8.35,"mai_haut":14.26,"mai_ech":"maille","mai_obs":1,"a12":11.7,"a3":8.69},"geometry":{"type":"Polygon","coordinates":[[[6.967,47.5655],[6.9766,47.5765],[6.9858,47.5807],[6.9867,47.5727],[6.9808,47.5638],[6.967,47.5655]]]}},{"type":"Feature","properties":{"code":"90057","nom":"Lachapelle-sous-Chaux","app":11.83,"app_bas":9.05,"app_haut":15.48,"app_ech":"maille","app_obs":5,"mai":10.73,"mai_bas":8.35,"mai_haut":13.8,"mai_ech":"maille","mai_obs":13,"a12":11.59,"a3":8.6},"geometry":{"type":"Polygon","coordinates":[[[6.7801,47.6898],[6.7701,47.7034],[6.7716,47.7126],[6.775,47.7157],[6.7913,47.717],[6.8043,47.7221],[6.8099,47.7211],[6.82,47.7101],[6.8284,47.7058],[6.8291,47.6982],[6.8163,47.6941],[6.7974,47.6906],[6.7801,47.6898]]]}},{"type":"Feature","properties":{"code":"90015","nom":"Botans","app":10.56,"app_bas":8.52,"app_haut":13.08,"app_ech":"maille","app_obs":21,"mai":10.73,"mai_bas":8.35,"mai_haut":13.8,"mai_ech":"maille","mai_obs":8,"a12":11.7,"a3":9.45},"geometry":{"type":"Polygon","coordinates":[[[6.8359,47.5992],[6.84,47.6029],[6.8494,47.603],[6.8598,47.5978],[6.8632,47.5924],[6.8593,47.5887],[6.854,47.5879],[6.8402,47.5924],[6.8359,47.5992]]]}},{"type":"Feature","properties":{"code":"90049","nom":"Foussemagne","app":11.59,"app_bas":9.45,"app_haut":14.22,"app_ech":"maille","app_obs":39,"mai":10.91,"mai_bas":8.35,"mai_haut":14.26,"mai_ech":"maille","mai_obs":21,"a12":12.64,"a3":9.45},"geometry":{"type":"Polygon","coordinates":[[[6.9723,47.6368],[6.9932,47.6418],[6.9928,47.6511],[7.0065,47.6497],[7.0166,47.645],[7.018,47.6426],[7.0105,47.6301],[7.0067,47.6264],[7.001,47.6315],[6.9896,47.6314],[6.9781,47.6278],[6.9723,47.6368]]]}},{"type":"Feature","properties":{"code":"90060","nom":"Lagrange","app":11.59,"app_bas":9.45,"app_haut":14.22,"app_ech":"maille","app_obs":3,"mai":11.6,"mai_bas":8.33,"mai_haut":16.16,"mai_ech":"maille","mai_obs":3,"a12":11.95,"a3":9.65},"geometry":{"type":"Polygon","coordinates":[[[6.9675,47.6903],[6.9836,47.6858],[6.9841,47.6788],[6.9767,47.6782],[6.9675,47.6903]]]}},{"type":"Feature","properties":{"code":"90009","nom":"Beaucourt","app":9.57,"app_bas":7.54,"app_haut":12.14,"app_ech":"commune","app_obs":1019,"mai":10.38,"mai_bas":7.87,"mai_haut":13.7,"mai_ech":"maille","mai_obs":57,"a12":12.04,"a3":8.29},"geometry":{"type":"Polygon","coordinates":[[[6.923,47.5002],[6.9341,47.4936],[6.9427,47.4849],[6.9383,47.4731],[6.9157,47.4782],[6.9076,47.4945],[6.923,47.5002]]]}},{"type":"Feature","properties":{"code":"90084","nom":"Reppe","app":10.26,"app_bas":8.23,"app_haut":12.78,"app_ech":"maille","app_obs":7,"mai":11.6,"mai_bas":8.33,"mai_haut":16.16,"mai_ech":"maille","mai_obs":7,"a12":12.64,"a3":10.52},"geometry":{"type":"Polygon","coordinates":[[[7.0376,47.6751],[7.0417,47.6724],[7.0344,47.6612],[7.0392,47.6504],[7.0198,47.6507],[7.022,47.6633],[7.0098,47.6678],[7.0376,47.6751]]]}},{"type":"Feature","properties":{"code":"90029","nom":"Cravanche","app":10.74,"app_bas":8.44,"app_haut":13.66,"app_ech":"commune","app_obs":226,"mai":10.73,"mai_bas":8.35,"mai_haut":13.8,"mai_ech":"maille","mai_obs":18,"a12":12.87,"a3":9.9},"geometry":{"type":"Polygon","coordinates":[[[6.8106,47.6527],[6.8331,47.6568],[6.8184,47.6465],[6.8106,47.6527]]]}},{"type":"Feature","properties":{"code":"90042","nom":"Évette-Salbert","app":11.83,"app_bas":9.05,"app_haut":15.48,"app_ech":"maille","app_obs":40,"mai":9.66,"mai_bas":7.45,"mai_haut":12.53,"mai_ech":"maille","mai_obs":24,"a12":11.59,"a3":9.57},"geometry":{"type":"Polygon","coordinates":[[[6.7786,47.6759],[6.7801,47.6898],[6.7974,47.6906],[6.808,47.6821],[6.8296,47.6736],[6.8308,47.6708],[6.8215,47.6673],[6.8041,47.6646],[6.7915,47.6553],[6.7982,47.6502],[6.7907,47.6479],[6.781,47.6584],[6.7761,47.6686],[6.7786,47.6759]]]}},{"type":"Feature","properties":{"code":"90099","nom":"Valdoie","app":12.9,"app_bas":10.33,"app_haut":16.11,"app_ech":"commune","app_obs":930,"mai":9.66,"mai_bas":7.45,"mai_haut":12.53,"mai_ech":"maille","mai_obs":67,"a12":11.87,"a3":9.39},"geometry":{"type":"Polygon","coordinates":[[[6.8296,47.6736],[6.8449,47.6788],[6.8536,47.684],[6.8635,47.678],[6.8644,47.6673],[6.8544,47.6603],[6.8345,47.6612],[6.8296,47.6736]]]}},{"type":"Feature","properties":{"code":"90034","nom":"Denney","app":9.99,"app_bas":8.04,"app_haut":12.41,"app_ech":"maille","app_obs":19,"mai":10.73,"mai_bas":8.35,"mai_haut":13.8,"mai_ech":"maille","mai_obs":18,"a12":11.59,"a3":9.57},"geometry":{"type":"Polygon","coordinates":[[[6.8961,47.6582],[6.8996,47.6637],[6.909,47.665],[6.9237,47.6599],[6.9262,47.6557],[6.9095,47.645],[6.8969,47.6507],[6.888,47.6462],[6.8961,47.6582]]]}},{"type":"Feature","properties":{"code":"90087","nom":"Roppe","app":11.59,"app_bas":9.45,"app_haut":14.22,"app_ech":"maille","app_obs":74,"mai":11.6,"mai_bas":8.33,"mai_haut":16.16,"mai_ech":"maille","mai_obs":22,"a12":11.95,"a3":9.65},"geometry":{"type":"Polygon","coordinates":[[[6.909,47.665],[6.9095,47.668],[6.8988,47.6751],[6.8853,47.6803],[6.8923,47.6926],[6.9094,47.6907],[6.9266,47.6907],[6.9288,47.6804],[6.9276,47.6637],[6.9237,47.6599],[6.909,47.665]]]}},{"type":"Feature","properties":{"code":"90024","nom":"Chavanatte","app":9.98,"app_bas":7.78,"app_haut":12.82,"app_ech":"maille","app_obs":2,"mai":10.38,"mai_bas":7.87,"mai_haut":13.7,"mai_ech":"maille","mai_obs":0,"a12":11.95,"a3":9.6},"geometry":{"type":"Polygon","coordinates":[[[7.0854,47.5931],[7.0864,47.5855],[7.0819,47.5784],[7.0578,47.5693],[7.0554,47.5766],[7.0654,47.5913],[7.0854,47.5931]]]}},{"type":"Feature","properties":{"code":"90080","nom":"Phaffans","app":9.99,"app_bas":8.04,"app_haut":12.41,"app_ech":"maille","app_obs":5,"mai":10.73,"mai_bas":8.35,"mai_haut":13.8,"mai_ech":"maille","mai_obs":1,"a12":11.59,"a3":9.65},"geometry":{"type":"Polygon","coordinates":[[[6.9276,47.6637],[6.9405,47.667],[6.9415,47.6616],[6.9575,47.6666],[6.9578,47.6564],[6.971,47.6579],[6.9713,47.6551],[6.945,47.6525],[6.9262,47.6557],[6.9237,47.6599],[6.9276,47.6637]]]}},{"type":"Feature","properties":{"code":"90077","nom":"Petit-Croix","app":11.59,"app_bas":9.45,"app_haut":14.22,"app_ech":"maille","app_obs":20,"mai":10.73,"mai_bas":8.35,"mai_haut":13.8,"mai_ech":"maille","mai_obs":7,"a12":12.64,"a3":9.45},"geometry":{"type":"Polygon","coordinates":[[[6.9723,47.6368],[6.9781,47.6278],[6.9848,47.6221],[6.9875,47.6159],[6.9788,47.6066],[6.9635,47.6157],[6.963,47.6297],[6.9662,47.637],[6.9723,47.6368]]]}},{"type":"Feature","properties":{"code":"90082","nom":"Autrechêne","app":10.7,"app_bas":8.4,"app_haut":13.64,"app_ech":"maille","app_obs":3,"mai":10.73,"mai_bas":8.35,"mai_haut":13.8,"mai_ech":"maille","mai_obs":0,"a12":11.7,"a3":8.69},"geometry":{"type":"Polygon","coordinates":[[[6.9618,47.5824],[6.9566,47.5806],[6.9569,47.5873],[6.9518,47.5941],[6.9504,47.6008],[6.9713,47.5991],[6.9796,47.5952],[6.9749,47.5879],[6.9618,47.5824]]]}},{"type":"Feature","properties":{"code":"90096","nom":"Thiancourt","app":10.86,"app_bas":8.52,"app_haut":13.84,"app_ech":"maille","app_obs":10,"mai":10.38,"mai_bas":7.87,"mai_haut":13.7,"mai_ech":"maille","mai_obs":4,"a12":12.06,"a3":9.18},"geometry":{"type":"Polygon","coordinates":[[[6.958,47.5156],[6.9841,47.5243],[6.9886,47.5331],[6.9985,47.5245],[6.9925,47.5178],[6.9699,47.511],[6.958,47.5156]]]}},{"type":"Feature","properties":{"code":"90010","nom":"Belfort","app":10.43,"app_bas":8.21,"app_haut":13.25,"app_ech":"commune","app_obs":14044,"mai":10.56,"mai_bas":8.22,"mai_haut":13.57,"mai_ech":"commune","mai_obs":351,"a12":12.23,"a3":9.45},"geometry":{"type":"Polygon","coordinates":[[[6.8184,47.6465],[6.8331,47.6568],[6.7982,47.6502],[6.7915,47.6553],[6.8041,47.6646],[6.8215,47.6673],[6.8308,47.6708],[6.8345,47.6612],[6.8501,47.6609],[6.8614,47.6547],[6.8763,47.6495],[6.8941,47.6547],[6.888,47.6462],[6.8888,47.6429],[6.8741,47.6314],[6.8786,47.6296],[6.8525,47.6203],[6.8473,47.6218],[6.8349,47.6351],[6.8282,47.645],[6.8184,47.6465]]]}},{"type":"Feature","properties":{"code":"90021","nom":"Charmois","app":10.7,"app_bas":8.4,"app_haut":13.64,"app_ech":"maille","app_obs":9,"mai":10.91,"mai_bas":8.35,"mai_haut":14.26,"mai_ech":"maille","mai_obs":12,"a12":11.7,"a3":9.03},"geometry":{"type":"Polygon","coordinates":[[[6.9518,47.5941],[6.9569,47.5873],[6.9566,47.5806],[6.9419,47.5655],[6.9375,47.5668],[6.9219,47.5781],[6.9518,47.5941]]]}},{"type":"Feature","properties":{"code":"90011","nom":"Bermont","app":10.56,"app_bas":8.52,"app_haut":13.08,"app_ech":"maille","app_obs":32,"mai":10.91,"mai_bas":8.35,"mai_haut":14.26,"mai_ech":"maille","mai_obs":16,"a12":11.53,"a3":9.6},"geometry":{"type":"Polygon","coordinates":[[[6.821,47.5743],[6.84,47.5763],[6.8476,47.5828],[6.859,47.5849],[6.8612,47.5823],[6.8546,47.5666],[6.8492,47.57],[6.8397,47.5679],[6.829,47.5692],[6.821,47.5743]]]}},{"type":"Feature","properties":{"code":"90051","nom":"Froidefontaine","app":10.44,"app_bas":8.06,"app_haut":13.51,"app_ech":"maille","app_obs":48,"mai":10.91,"mai_bas":8.35,"mai_haut":14.26,"mai_ech":"maille","mai_obs":6,"a12":12.64,"a3":9.5},"geometry":{"type":"Polygon","coordinates":[[[6.9618,47.5824],[6.955,47.5719],[6.967,47.5655],[6.9808,47.5638],[6.985,47.5595],[6.9648,47.5574],[6.9546,47.5545],[6.9392,47.5562],[6.9336,47.5606],[6.9375,47.5668],[6.9419,47.5655],[6.9566,47.5806],[6.9618,47.5824]]]}},{"type":"Feature","properties":{"code":"90026","nom":"Chèvremont","app":11.92,"app_bas":9.71,"app_haut":14.64,"app_ech":"commune","app_obs":123,"mai":10.73,"mai_bas":8.35,"mai_haut":13.8,"mai_ech":"maille","mai_obs":16,"a12":11.7,"a3":9.45},"geometry":{"type":"Polygon","coordinates":[[[6.9494,47.6149],[6.9106,47.6205],[6.8942,47.6218],[6.9106,47.6386],[6.9407,47.6362],[6.9577,47.6383],[6.9662,47.637],[6.963,47.6297],[6.9522,47.6273],[6.947,47.6212],[6.9494,47.6149]]]}},{"type":"Feature","properties":{"code":"90016","nom":"Bourg-sous-Châtelet","app":10.31,"app_bas":7.61,"app_haut":13.97,"app_ech":"maille","app_obs":0,"mai":11.6,"mai_bas":8.33,"mai_haut":16.16,"mai_ech":"maille","mai_obs":0,"a12":11.95,"a3":9.65},"geometry":{"type":"Polygon","coordinates":[[[6.9506,47.6968],[6.9444,47.6999],[6.9456,47.7105],[6.9523,47.7166],[6.9506,47.6968]]]}},{"type":"Feature","properties":{"code":"90063","nom":"Lebetain","app":10.86,"app_bas":8.52,"app_haut":13.84,"app_ech":"maille","app_obs":40,"mai":10.38,"mai_bas":7.87,"mai_haut":13.7,"mai_ech":"maille","mai_obs":2,"a12":12.06,"a3":9.5},"geometry":{"type":"Polygon","coordinates":[[[6.9639,47.4963],[6.9737,47.4979],[6.9829,47.4943],[6.9887,47.4867],[6.9885,47.473],[6.9816,47.4731],[6.9702,47.4788],[6.9524,47.4849],[6.9567,47.4937],[6.9639,47.4963]]]}},{"type":"Feature","properties":{"code":"90028","nom":"Courtelevant","app":11.05,"app_bas":8.95,"app_haut":13.64,"app_ech":"maille","app_obs":30,"mai":10.38,"mai_bas":7.87,"mai_haut":13.7,"mai_ech":"maille","mai_obs":0,"a12":11.95,"a3":9.6},"geometry":{"type":"Polygon","coordinates":[[[7.0666,47.5421],[7.0811,47.544],[7.0867,47.5377],[7.1024,47.5319],[7.0969,47.5241],[7.0916,47.5077],[7.0817,47.5083],[7.0743,47.5155],[7.0761,47.5341],[7.0666,47.5421]]]}},{"type":"Feature","properties":{"code":"90047","nom":"Fontaine","app":11.59,"app_bas":9.45,"app_haut":14.22,"app_ech":"maille","app_obs":38,"mai":11.6,"mai_bas":8.33,"mai_haut":16.16,"mai_ech":"maille","mai_obs":18,"a12":12.64,"a3":9.45},"geometry":{"type":"Polygon","coordinates":[[[6.9713,47.6551],[6.9719,47.6681],[6.998,47.6697],[7.0092,47.6686],[7.022,47.6633],[7.0198,47.6507],[7.0166,47.645],[7.0065,47.6497],[6.9928,47.6511],[6.988,47.654],[6.9713,47.6551]]]}},{"type":"Feature","properties":{"code":"90097","nom":"Trévenans","app":11.38,"app_bas":8.59,"app_haut":15.08,"app_ech":"commune","app_obs":165,"mai":10.91,"mai_bas":8.35,"mai_haut":14.26,"mai_ech":"maille","mai_obs":45,"a12":12.64,"a3":10.19},"geometry":{"type":"Polygon","coordinates":[[[6.8835,47.5553],[6.8599,47.5476],[6.8557,47.5479],[6.8595,47.5594],[6.8546,47.5666],[6.8612,47.5823],[6.8778,47.5849],[6.8845,47.5809],[6.8823,47.5747],[6.8741,47.5664],[6.8806,47.562],[6.8835,47.5553]]]}},{"type":"Feature","properties":{"code":"90085","nom":"Riervescemont","app":11.99,"app_bas":9.62,"app_haut":14.95,"app_ech":"maille","app_obs":0,"mai":9.66,"mai_bas":7.45,"mai_haut":12.53,"mai_ech":"maille","mai_obs":0,"a12":11.03,"a3":9.21},"geometry":{"type":"Polygon","coordinates":[[[6.8917,47.7783],[6.9021,47.7764],[6.9033,47.7714],[6.8897,47.7546],[6.8586,47.7563],[6.8619,47.7634],[6.8555,47.7733],[6.865,47.7846],[6.8917,47.7783]]]}},{"type":"Feature","properties":{"code":"90064","nom":"Lepuix-Neuf","app":11.05,"app_bas":8.95,"app_haut":13.64,"app_ech":"maille","app_obs":4,"mai":10.38,"mai_bas":7.87,"mai_haut":13.7,"mai_ech":"maille","mai_obs":1,"a12":12.9,"a3":9.6},"geometry":{"type":"Polygon","coordinates":[[[7.1316,47.5403],[7.1328,47.5397],[7.1217,47.5338],[7.1024,47.5319],[7.0867,47.5377],[7.0811,47.544],[7.086,47.5471],[7.1062,47.5513],[7.1188,47.5476],[7.1316,47.5403]]]}},{"type":"Feature","properties":{"code":"90086","nom":"Romagny-sous-Rougemont","app":10.31,"app_bas":7.61,"app_haut":13.97,"app_ech":"maille","app_obs":6,"mai":12.03,"mai_bas":8.29,"mai_haut":17.45,"mai_ech":"maille","mai_obs":3,"a12":12.68,"a3":9.65},"geometry":{"type":"Polygon","coordinates":[[[6.9571,47.7132],[6.9538,47.7172],[6.9475,47.7221],[6.9681,47.7267],[6.9817,47.7186],[6.9842,47.7162],[6.9571,47.7132]]]}},{"type":"Feature","properties":{"code":"90066","nom":"Leval","app":9.53,"app_bas":7.66,"app_haut":11.86,"app_ech":"maille","app_obs":2,"mai":12.03,"mai_bas":8.29,"mai_haut":17.45,"mai_ech":"maille","mai_obs":0,"a12":12.68,"a3":8.55},"geometry":{"type":"Polygon","coordinates":[[[6.9984,47.7458],[7.0158,47.7435],[7.0206,47.7344],[7.0027,47.7257],[6.9817,47.7186],[6.9681,47.7267],[6.9984,47.7458]]]}},{"type":"Feature","properties":{"code":"90005","nom":"Auxelles-Bas","app":11.99,"app_bas":9.62,"app_haut":14.95,"app_ech":"maille","app_obs":1,"mai":9.66,"mai_bas":7.45,"mai_haut":12.53,"mai_ech":"maille","mai_obs":3,"a12":11.03,"a3":9.21},"geometry":{"type":"Polygon","coordinates":[[[6.8052,47.7412],[6.813,47.7274],[6.8043,47.7221],[6.7913,47.717],[6.775,47.7157],[6.7716,47.7126],[6.761,47.7216],[6.7585,47.7277],[6.7596,47.7392],[6.7702,47.7413],[6.7958,47.7392],[6.8052,47.7412]]]}},{"type":"Feature","properties":{"code":"90001","nom":"Andelnans","app":10.96,"app_bas":8.28,"app_haut":14.5,"app_ech":"maille","app_obs":52,"mai":10.91,"mai_bas":8.35,"mai_haut":14.26,"mai_ech":"maille","mai_obs":24,"a12":11.59,"a3":9.36},"geometry":{"type":"Polygon","coordinates":[[[6.8388,47.6072],[6.8399,47.6082],[6.8659,47.6094],[6.884,47.6113],[6.8845,47.5978],[6.8723,47.5966],[6.8632,47.5924],[6.8598,47.5978],[6.8494,47.603],[6.84,47.6029],[6.8388,47.6072]]]}},{"type":"Feature","properties":{"code":"90007","nom":"Banvillars","app":10.56,"app_bas":8.52,"app_haut":13.08,"app_ech":"maille","app_obs":1,"mai":10.91,"mai_bas":8.35,"mai_haut":14.26,"mai_ech":"maille","mai_obs":8,"a12":11.7,"a3":9.36},"geometry":{"type":"Polygon","coordinates":[[[6.7913,47.5963],[6.7933,47.5993],[6.8008,47.6002],[6.8017,47.5988],[6.8323,47.5999],[6.8341,47.5986],[6.827,47.5914],[6.8201,47.5755],[6.8023,47.586],[6.7913,47.5963]]]}},{"type":"Feature","properties":{"code":"90062","nom":"Larivière","app":10.31,"app_bas":7.61,"app_haut":13.97,"app_ech":"maille","app_obs":14,"mai":11.6,"mai_bas":8.33,"mai_haut":16.16,"mai_ech":"maille","mai_obs":7,"a12":11.95,"a3":9.65},"geometry":{"type":"Polygon","coordinates":[[[6.9721,47.6693],[6.9737,47.6737],[6.9767,47.6782],[6.9841,47.6788],[6.9836,47.6858],[6.9995,47.689],[7.0097,47.6878],[7.0033,47.6744],[7.0092,47.6686],[6.998,47.6697],[6.9719,47.6681],[6.9721,47.6693]]]}},{"type":"Feature","properties":{"code":"90022","nom":"Châtenois-les-Forges","app":10.42,"app_bas":8.41,"app_haut":12.9,"app_ech":"commune","app_obs":396,"mai":9.66,"mai_bas":7.45,"mai_haut":12.53,"mai_ech":"maille","mai_obs":88,"a12":11.97,"a3":9.87},"geometry":{"type":"Polygon","coordinates":[[[6.8306,47.5464],[6.8167,47.5479],[6.807,47.5628],[6.8104,47.5694],[6.8217,47.5733],[6.829,47.5692],[6.8397,47.5679],[6.8492,47.57],[6.8546,47.5666],[6.8595,47.5594],[6.8557,47.5479],[6.8306,47.5464]]]}},{"type":"Feature","properties":{"code":"90048","nom":"Fontenelle","app":9.99,"app_bas":8.04,"app_haut":12.41,"app_ech":"maille","app_obs":5,"mai":10.73,"mai_bas":8.35,"mai_haut":13.8,"mai_ech":"maille","mai_obs":0,"a12":12.64,"a3":9.03},"geometry":{"type":"Polygon","coordinates":[[[6.9494,47.6149],[6.947,47.6212],[6.9522,47.6273],[6.963,47.6297],[6.9635,47.6157],[6.9501,47.6125],[6.9494,47.6149]]]}},{"type":"Feature","properties":{"code":"90041","nom":"Étueffont","app":11.99,"app_bas":9.62,"app_haut":14.95,"app_ech":"maille","app_obs":79,"mai":12.03,"mai_bas":8.29,"mai_haut":17.45,"mai_ech":"maille","mai_obs":31,"a12":12.68,"a3":9.21},"geometry":{"type":"Polygon","coordinates":[[[6.8896,47.7494],[6.9026,47.7468],[6.9226,47.747],[6.9413,47.7286],[6.9444,47.7219],[6.9228,47.706],[6.9095,47.701],[6.8906,47.7005],[6.8956,47.7132],[6.9061,47.7154],[6.9083,47.7202],[6.9036,47.7322],[6.8975,47.7382],[6.8896,47.7494]]]}},{"type":"Feature","properties":{"code":"90027","nom":"Courcelles","app":11.05,"app_bas":8.95,"app_haut":13.64,"app_ech":"maille","app_obs":6,"mai":10.28,"mai_bas":7.54,"mai_haut":14.01,"mai_ech":"maille","mai_obs":5,"a12":12.9,"a3":10.1},"geometry":{"type":"Polygon","coordinates":[[[7.0817,47.5083],[7.0916,47.5077],[7.0967,47.4951],[7.0793,47.4889],[7.0616,47.4947],[7.0362,47.499],[7.0601,47.5047],[7.0817,47.5083]]]}},{"type":"Feature","properties":{"code":"90069","nom":"Méziré","app":9.96,"app_bas":7.82,"app_haut":12.68,"app_ech":"commune","app_obs":177,"mai":10.91,"mai_bas":8.35,"mai_haut":14.26,"mai_ech":"maille","mai_obs":25,"a12":12.64,"a3":9.01},"geometry":{"type":"Polygon","coordinates":[[[6.9079,47.5271],[6.9159,47.5326],[6.907,47.5423],[6.9154,47.5461],[6.9274,47.5411],[6.9348,47.535],[6.9326,47.524],[6.9389,47.5215],[6.9376,47.5174],[6.9346,47.5178],[6.9253,47.5195],[6.9079,47.5271]]]}},{"type":"Feature","properties":{"code":"90093","nom":"Sermamagny","app":11.83,"app_bas":9.05,"app_haut":15.48,"app_ech":"maille","app_obs":42,"mai":10.73,"mai_bas":8.35,"mai_haut":13.8,"mai_ech":"maille","mai_obs":16,"a12":11.95,"a3":8.6},"geometry":{"type":"Polygon","coordinates":[[[6.7974,47.6906],[6.8163,47.6941],[6.8291,47.6982],[6.8492,47.6975],[6.8614,47.6997],[6.8607,47.6922],[6.8536,47.684],[6.8449,47.6788],[6.8296,47.6736],[6.808,47.6821],[6.7974,47.6906]]]}},{"type":"Feature","properties":{"code":"90059","nom":"Lacollonge","app":11.59,"app_bas":9.45,"app_haut":14.22,"app_ech":"maille","app_obs":1,"mai":11.6,"mai_bas":8.33,"mai_haut":16.16,"mai_ech":"maille","mai_obs":4,"a12":11.59,"a3":9.45},"geometry":{"type":"Polygon","coordinates":[[[6.9719,47.6681],[6.971,47.6579],[6.9578,47.6564],[6.9575,47.6666],[6.9415,47.6616],[6.9405,47.667],[6.9721,47.6693],[6.9719,47.6681]]]}},{"type":"Feature","properties":{"code":"90104","nom":"Vézelois","app":9.99,"app_bas":8.04,"app_haut":12.41,"app_ech":"maille","app_obs":91,"mai":10.91,"mai_bas":8.35,"mai_haut":14.26,"mai_ech":"maille","mai_obs":23,"a12":11.7,"a3":9.45},"geometry":{"type":"Polygon","coordinates":[[[6.9494,47.6149],[6.9501,47.6125],[6.9439,47.602],[6.9442,47.596],[6.9387,47.594],[6.9204,47.5967],[6.8839,47.6108],[6.8902,47.6224],[6.9106,47.6205],[6.9494,47.6149]]]}},{"type":"Feature","properties":{"code":"90098","nom":"Urcerey","app":10.3,"app_bas":7.98,"app_haut":13.29,"app_ech":"maille","app_obs":2,"mai":10.73,"mai_bas":8.35,"mai_haut":13.8,"mai_ech":"maille","mai_obs":3,"a12":11.7,"a3":9.36},"geometry":{"type":"Polygon","coordinates":[[[6.7993,47.6235],[6.807,47.6227],[6.8155,47.6166],[6.8153,47.6087],[6.8114,47.6038],[6.8008,47.6002],[6.7933,47.5993],[6.7893,47.6047],[6.7984,47.6145],[6.7993,47.6235]]]}},{"type":"Feature","properties":{"code":"90030","nom":"Croix","app":9.41,"app_bas":7.41,"app_haut":11.94,"app_ech":"maille","app_obs":2,"mai":10.38,"mai_bas":7.87,"mai_haut":13.7,"mai_ech":"maille","mai_obs":3,"a12":12.06,"a3":8.17},"geometry":{"type":"Polygon","coordinates":[[[6.9349,47.447],[6.9323,47.4558],[6.9542,47.4545],[6.9713,47.4491],[6.9664,47.4379],[6.9574,47.4336],[6.9405,47.4334],[6.9328,47.4403],[6.9349,47.447]]]}},{"type":"Feature","properties":{"code":"90103","nom":"Vétrigne","app":10.77,"app_bas":8.48,"app_haut":13.69,"app_ech":"maille","app_obs":7,"mai":10.73,"mai_bas":8.35,"mai_haut":13.8,"mai_ech":"maille","mai_obs":6,"a12":11.59,"a3":9.57},"geometry":{"type":"Polygon","coordinates":[[[6.8853,47.6803],[6.8988,47.6751],[6.9095,47.668],[6.909,47.665],[6.8996,47.6637],[6.8961,47.6582],[6.8867,47.6647],[6.8851,47.6739],[6.8853,47.6803]]]}},{"type":"Feature","properties":{"code":"90058","nom":"Lachapelle-sous-Rougemont","app":9.81,"app_bas":7.26,"app_haut":13.26,"app_ech":"commune","app_obs":147,"mai":12.03,"mai_bas":8.29,"mai_haut":17.45,"mai_ech":"maille","mai_obs":13,"a12":11.95,"a3":9.55},"geometry":{"type":"Polygon","coordinates":[[[7.0006,47.7046],[6.992,47.7142],[7.0321,47.7262],[7.0374,47.7216],[7.0276,47.7054],[7.0006,47.7046]]]}},{"type":"Feature","properties":{"code":"90079","nom":"Petitmagny","app":11.99,"app_bas":9.62,"app_haut":14.95,"app_ech":"maille","app_obs":0,"mai":12.03,"mai_bas":8.29,"mai_haut":17.45,"mai_ech":"maille","mai_obs":6,"a12":12.68,"a3":9.65},"geometry":{"type":"Polygon","coordinates":[[[6.8975,47.7382],[6.9036,47.7322],[6.9083,47.7202],[6.9061,47.7154],[6.8956,47.7132],[6.8923,47.7242],[6.8975,47.7382]]]}},{"type":"Feature","properties":{"code":"90091","nom":"Saint-Germain-le-Châtelet","app":11.59,"app_bas":9.45,"app_haut":14.22,"app_ech":"maille","app_obs":14,"mai":11.6,"mai_bas":8.33,"mai_haut":16.16,"mai_ech":"maille","mai_obs":8,"a12":11.95,"a3":9.65},"geometry":{"type":"Polygon","coordinates":[[[6.9549,47.693],[6.9506,47.6968],[6.9523,47.7166],[6.9538,47.7172],[6.9571,47.7132],[6.9783,47.6943],[6.9675,47.6903],[6.9578,47.6892],[6.9549,47.693]]]}},{"type":"Feature","properties":{"code":"90101","nom":"Vellescot","app":10.7,"app_bas":8.4,"app_haut":13.64,"app_ech":"maille","app_obs":1,"mai":10.38,"mai_bas":7.87,"mai_haut":13.7,"mai_ech":"maille","mai_obs":9,"a12":12.64,"a3":9.18},"geometry":{"type":"Polygon","coordinates":[[[7.0089,47.5819],[7.0189,47.5871],[7.0331,47.5781],[7.0216,47.564],[7.009,47.5662],[7.002,47.5642],[7.0089,47.5819]]]}},{"type":"Feature","properties":{"code":"90036","nom":"Eguenigue","app":11.59,"app_bas":9.45,"app_haut":14.22,"app_ech":"maille","app_obs":0,"mai":11.6,"mai_bas":8.33,"mai_haut":16.16,"mai_ech":"maille","mai_obs":5,"a12":11.59,"a3":9.65},"geometry":{"type":"Polygon","coordinates":[[[6.9276,47.6637],[6.9288,47.6804],[6.9266,47.6907],[6.9346,47.693],[6.9433,47.6893],[6.9438,47.684],[6.9363,47.6794],[6.9384,47.6665],[6.9276,47.6637]]]}},{"type":"Feature","properties":{"code":"90006","nom":"Auxelles-Haut","app":9.59,"app_bas":7.71,"app_haut":11.93,"app_ech":"maille","app_obs":2,"mai":9.66,"mai_bas":7.45,"mai_haut":12.53,"mai_ech":"maille","mai_obs":15,"a12":11.03,"a3":9.21},"geometry":{"type":"Polygon","coordinates":[[[6.7596,47.7392],[6.7576,47.7479],[6.7637,47.753],[6.7651,47.7589],[6.7746,47.7667],[6.7877,47.7602],[6.7996,47.7486],[6.8052,47.7412],[6.7958,47.7392],[6.7702,47.7413],[6.7596,47.7392]]]}},{"type":"Feature","properties":{"code":"90025","nom":"Chavannes-les-Grands","app":9.98,"app_bas":7.78,"app_haut":12.82,"app_ech":"maille","app_obs":14,"mai":10.38,"mai_bas":7.87,"mai_haut":13.7,"mai_ech":"maille","mai_obs":7,"a12":11.95,"a3":9.34},"geometry":{"type":"Polygon","coordinates":[[[7.0331,47.5781],[7.0189,47.5871],[7.0196,47.5885],[7.0254,47.5927],[7.0333,47.5941],[7.0405,47.601],[7.0565,47.5989],[7.0647,47.6011],[7.0744,47.5989],[7.0854,47.5931],[7.0654,47.5913],[7.0554,47.5766],[7.0371,47.5821],[7.0331,47.5781]]]}},{"type":"Feature","properties":{"code":"90061","nom":"Lamadeleine-Val-des-Anges","app":11.99,"app_bas":9.62,"app_haut":14.95,"app_ech":"maille","app_obs":0,"mai":9.66,"mai_bas":7.45,"mai_haut":12.53,"mai_ech":"maille","mai_obs":0,"a12":11.03,"a3":9.21},"geometry":{"type":"Polygon","coordinates":[[[6.8896,47.7494],[6.8883,47.7507],[6.8897,47.7546],[6.9033,47.7714],[6.9021,47.7764],[6.9075,47.7777],[6.9229,47.7717],[6.9226,47.747],[6.9026,47.7468],[6.8896,47.7494]]]}},{"type":"Feature","properties":{"code":"90073","nom":"Moval","app":null,"app_bas":null,"app_haut":null,"app_ech":null,"app_obs":0,"mai":null,"mai_bas":null,"mai_haut":null,"mai_ech":null,"mai_obs":0,"a12":null,"a3":null},"geometry":{"type":"Polygon","coordinates":[[[6.8778,47.5849],[6.8783,47.5916],[6.8913,47.5883],[6.8964,47.5815],[6.8845,47.5809],[6.8778,47.5849]]]}},{"type":"Feature","properties":{"code":"90089","nom":"Rougemont-le-Château","app":9.88,"app_bas":7.3,"app_haut":13.37,"app_ech":"commune","app_obs":216,"mai":12.03,"mai_bas":8.29,"mai_haut":17.45,"mai_ech":"maille","mai_obs":16,"a12":12.68,"a3":9.39},"geometry":{"type":"Polygon","coordinates":[[[6.9444,47.7219],[6.9413,47.7286],[6.9226,47.747],[6.9229,47.7717],[6.9426,47.7686],[6.9695,47.7539],[6.9984,47.7458],[6.9681,47.7267],[6.9444,47.7219]]]}},{"type":"Feature","properties":{"code":"90003","nom":"Anjoutey","app":10.31,"app_bas":7.61,"app_haut":13.97,"app_ech":"maille","app_obs":30,"mai":12.03,"mai_bas":8.29,"mai_haut":17.45,"mai_ech":"maille","mai_obs":17,"a12":11.95,"a3":9.65},"geometry":{"type":"Polygon","coordinates":[[[6.9538,47.7172],[6.9456,47.7105],[6.9444,47.6999],[6.9506,47.6968],[6.9549,47.693],[6.9346,47.693],[6.9266,47.6907],[6.9094,47.6907],[6.8923,47.6926],[6.8903,47.6943],[6.8906,47.7005],[6.9095,47.701],[6.9228,47.706],[6.9444,47.7219],[6.9475,47.7221],[6.9538,47.7172]]]}},{"type":"Feature","properties":{"code":"90044","nom":"Felon","app":10.31,"app_bas":7.61,"app_haut":13.97,"app_ech":"maille","app_obs":28,"mai":11.6,"mai_bas":8.33,"mai_haut":16.16,"mai_ech":"maille","mai_obs":1,"a12":12.68,"a3":10.52},"geometry":{"type":"Polygon","coordinates":[[[6.9842,47.7162],[6.992,47.7142],[7.0006,47.7046],[6.9783,47.6943],[6.9571,47.7132],[6.9842,47.7162]]]}},{"type":"Feature","properties":{"code":"90014","nom":"Boron","app":9.98,"app_bas":7.78,"app_haut":12.82,"app_ech":"maille","app_obs":29,"mai":10.38,"mai_bas":7.87,"mai_haut":13.7,"mai_ech":"maille","mai_obs":6,"a12":12.64,"a3":9.18},"geometry":{"type":"Polygon","coordinates":[[[6.9975,47.56],[7.002,47.5642],[7.009,47.5662],[7.0216,47.564],[7.031,47.5576],[7.0396,47.5462],[7.0282,47.5416],[7.0242,47.5447],[7.0129,47.5445],[6.9974,47.547],[6.9926,47.5548],[6.9975,47.56]]]}},{"type":"Feature","properties":{"code":"90031","nom":"Cunelières","app":9.98,"app_bas":7.78,"app_haut":12.82,"app_ech":"maille","app_obs":6,"mai":10.73,"mai_bas":8.35,"mai_haut":13.8,"mai_ech":"maille","mai_obs":5,"a12":12.64,"a3":9.45},"geometry":{"type":"Polygon","coordinates":[[[6.9848,47.6221],[6.9781,47.6278],[6.9896,47.6314],[7.001,47.6315],[7.0067,47.6264],[7.0051,47.6196],[6.9848,47.6221]]]}},{"type":"Feature","properties":{"code":"90035","nom":"Dorans","app":10.56,"app_bas":8.52,"app_haut":13.08,"app_ech":"maille","app_obs":31,"mai":10.91,"mai_bas":8.35,"mai_haut":14.26,"mai_ech":"maille","mai_obs":6,"a12":11.7,"a3":9.45},"geometry":{"type":"Polygon","coordinates":[[[6.8341,47.5986],[6.8359,47.5992],[6.8402,47.5924],[6.854,47.5879],[6.8593,47.5887],[6.859,47.5849],[6.8476,47.5828],[6.84,47.5763],[6.821,47.5743],[6.8201,47.5755],[6.827,47.5914],[6.8341,47.5986]]]}},{"type":"Feature","properties":{"code":"90065","nom":"Lepuix","app":9.59,"app_bas":7.71,"app_haut":11.93,"app_ech":"maille","app_obs":96,"mai":8.48,"mai_bas":6.19,"mai_haut":11.62,"mai_ech":"maille","mai_obs":4,"a12":11.03,"a3":7.46},"geometry":{"type":"Polygon","coordinates":[[[6.8462,47.8229],[6.8428,47.8129],[6.8544,47.7956],[6.865,47.7846],[6.8555,47.7733],[6.8416,47.7687],[6.8345,47.7575],[6.8155,47.7473],[6.7996,47.7486],[6.7877,47.7602],[6.7746,47.7667],[6.7847,47.7814],[6.8001,47.7883],[6.8115,47.796],[6.8205,47.8056],[6.8235,47.8131],[6.8393,47.8248],[6.8462,47.8229]]]}},{"type":"Feature","properties":{"code":"90094","nom":"Sevenans","app":11.79,"app_bas":8.88,"app_haut":15.64,"app_ech":"commune","app_obs":107,"mai":10.91,"mai_bas":8.35,"mai_haut":14.26,"mai_ech":"maille","mai_obs":10,"a12":11.7,"a3":9.45},"geometry":{"type":"Polygon","coordinates":[[[6.8783,47.5916],[6.8778,47.5849],[6.8612,47.5823],[6.859,47.5849],[6.8593,47.5887],[6.8632,47.5924],[6.8723,47.5966],[6.8845,47.5978],[6.8783,47.5916]]]}},{"type":"Feature","properties":{"code":"90037","nom":"Éloie","app":11.99,"app_bas":9.62,"app_haut":14.95,"app_ech":"maille","app_obs":37,"mai":10.73,"mai_bas":8.35,"mai_haut":13.8,"mai_ech":"maille","mai_obs":14,"a12":11.95,"a3":9.21},"geometry":{"type":"Polygon","coordinates":[[[6.8903,47.6943],[6.8923,47.6926],[6.8853,47.6803],[6.8851,47.6739],[6.8635,47.678],[6.8536,47.684],[6.8607,47.6922],[6.8614,47.6997],[6.8821,47.6982],[6.8903,47.6943]]]}}]}