{"type":"FeatureCollection","features":[{"type":"Feature","properties":{"code":"91174","nom":"Corbeil-Essonnes","app":16.23,"app_bas":13.59,"app_haut":19.4,"app_ech":"commune","app_obs":9641,"mai":14.41,"mai_bas":11.36,"mai_haut":18.28,"mai_ech":"commune","mai_obs":297},"geometry":{"type":"Polygon","coordinates":[[[2.4738,48.5777],[2.4696,48.5786],[2.4692,48.5868],[2.4637,48.5952],[2.4505,48.5955],[2.4504,48.6026],[2.4434,48.6104],[2.437,48.6112],[2.457,48.6211],[2.4703,48.6255],[2.4858,48.6153],[2.4904,48.6074],[2.4813,48.5802],[2.4738,48.5777]]]}},{"type":"Feature","properties":{"code":"91617","nom":"Tigery","app":17.55,"app_bas":15.49,"app_haut":19.89,"app_ech":"commune","app_obs":342,"mai":15.16,"mai_bas":11.96,"mai_haut":19.22,"mai_ech":"maille","mai_obs":55},"geometry":{"type":"Polygon","coordinates":[[[2.5052,48.6319],[2.4916,48.6394],[2.5074,48.6562],[2.5182,48.6604],[2.529,48.6607],[2.5336,48.6573],[2.548,48.6497],[2.5419,48.6462],[2.5424,48.6355],[2.5365,48.6311],[2.5052,48.6319]]]}},{"type":"Feature","properties":{"code":"91685","nom":"Villiers-sur-Orge","app":17.43,"app_bas":14.99,"app_haut":20.27,"app_ech":"commune","app_obs":170,"mai":15.5,"mai_bas":12.2,"mai_haut":19.68,"mai_ech":"maille","mai_obs":45},"geometry":{"type":"Polygon","coordinates":[[[2.2913,48.6576],[2.3001,48.6696],[2.3037,48.6679],[2.3094,48.657],[2.2989,48.6501],[2.2913,48.6576]]]}},{"type":"Feature","properties":{"code":"91086","nom":"Bondoufle","app":17.36,"app_bas":15.41,"app_haut":19.56,"app_ech":"commune","app_obs":1285,"mai":14.77,"mai_bas":11.97,"mai_haut":18.23,"mai_ech":"maille","mai_obs":69},"geometry":{"type":"Polygon","coordinates":[[[2.3986,48.6071],[2.3935,48.6083],[2.384,48.6021],[2.3622,48.6015],[2.3594,48.6181],[2.3715,48.6177],[2.3762,48.6271],[2.3835,48.63],[2.3993,48.6241],[2.3964,48.6167],[2.4001,48.6097],[2.3986,48.6071]]]}},{"type":"Feature","properties":{"code":"91378","nom":"Mauchamps","app":14.23,"app_bas":12.31,"app_haut":16.45,"app_ech":"maille","app_obs":18,"mai":13.58,"mai_bas":10.72,"mai_haut":17.2,"mai_ech":"maille","mai_obs":6},"geometry":{"type":"Polygon","coordinates":[[[2.2035,48.5166],[2.1873,48.5183],[2.1884,48.5271],[2.1962,48.5389],[2.1926,48.5425],[2.2082,48.5338],[2.2035,48.5166]]]}},{"type":"Feature","properties":{"code":"91130","nom":"Chalo-Saint-Mars","app":14.72,"app_bas":12.23,"app_haut":17.7,"app_ech":"maille","app_obs":31,"mai":12.86,"mai_bas":10.32,"mai_haut":16.02,"mai_ech":"maille","mai_obs":20},"geometry":{"type":"Polygon","coordinates":[[[2.0017,48.3956],[2.0054,48.4012],[2.0205,48.4153],[2.0191,48.4211],[2.0209,48.4374],[2.0385,48.4459],[2.0552,48.4463],[2.0634,48.4431],[2.0686,48.4355],[2.0808,48.4302],[2.1065,48.4278],[2.1107,48.4218],[2.101,48.4207],[2.0946,48.4129],[2.0768,48.4122],[2.0787,48.406],[2.0716,48.3926],[2.0506,48.3851],[2.0374,48.3924],[2.0224,48.3958],[2.0017,48.3956]]]}},{"type":"Feature","properties":{"code":"91581","nom":"Saint-Yon","app":16.27,"app_bas":13.91,"app_haut":19.03,"app_ech":"maille","app_obs":25,"mai":14.04,"mai_bas":11.23,"mai_haut":17.56,"mai_ech":"maille","mai_obs":5},"geometry":{"type":"Polygon","coordinates":[[[2.1985,48.5757],[2.2111,48.5696],[2.2019,48.5565],[2.1882,48.5469],[2.1735,48.5515],[2.1815,48.5641],[2.1985,48.5757]]]}},{"type":"Feature","properties":{"code":"91161","nom":"Chilly-Mazarin","app":17.64,"app_bas":15.26,"app_haut":20.4,"app_ech":"commune","app_obs":3136,"mai":16.97,"mai_bas":12.39,"mai_haut":23.23,"mai_ech":"maille","mai_obs":72},"geometry":{"type":"Polygon","coordinates":[[[2.2938,48.7051],[2.2939,48.7121],[2.3017,48.7197],[2.3192,48.7213],[2.324,48.7182],[2.325,48.7109],[2.3236,48.6983],[2.3161,48.692],[2.3055,48.6929],[2.3017,48.6985],[2.3036,48.705],[2.2938,48.7051]]]}},{"type":"Feature","properties":{"code":"91201","nom":"Draveil","app":17.9,"app_bas":15.37,"app_haut":20.85,"app_ech":"commune","app_obs":2334,"mai":16.26,"mai_bas":12.93,"mai_haut":20.45,"mai_ech":"commune","mai_obs":263},"geometry":{"type":"Polygon","coordinates":[[[2.4006,48.7018],[2.4165,48.695],[2.4258,48.6957],[2.445,48.6788],[2.4547,48.6825],[2.464,48.6729],[2.4294,48.6536],[2.3881,48.6784],[2.3859,48.6835],[2.3899,48.6919],[2.4006,48.7018]]]}},{"type":"Feature","properties":{"code":"91223","nom":"Étampes","app":14.87,"app_bas":12.45,"app_haut":17.75,"app_ech":"commune","app_obs":5633,"mai":12.44,"mai_bas":9.94,"mai_haut":15.57,"mai_ech":"commune","mai_obs":384},"geometry":{"type":"Polygon","coordinates":[[[2.0822,48.4593],[2.1027,48.4627],[2.1148,48.4621],[2.1239,48.4485],[2.1362,48.4528],[2.1648,48.4541],[2.1699,48.4519],[2.1735,48.4381],[2.1955,48.4275],[2.2076,48.4116],[2.22,48.3994],[2.2328,48.3965],[2.2276,48.3935],[2.2032,48.3954],[2.1764,48.4097],[2.16,48.4162],[2.1546,48.4162],[2.1354,48.4082],[2.1276,48.3927],[2.1256,48.3864],[2.1107,48.3839],[2.1007,48.3867],[2.0951,48.3841],[2.0716,48.3926],[2.0787,48.406],[2.0768,48.4122],[2.0946,48.4129],[2.101,48.4207],[2.1107,48.4218],[2.1065,48.4278],[2.11,48.4407],[2.107,48.4469],[2.0948,48.449],[2.0785,48.4577],[2.0822,48.4593]]]}},{"type":"Feature","properties":{"code":"91577","nom":"Saintry-sur-Seine","app":17.01,"app_bas":14.98,"app_haut":19.32,"app_ech":"commune","app_obs":141,"mai":15.16,"mai_bas":11.96,"mai_haut":19.22,"mai_ech":"maille","mai_obs":61},"geometry":{"type":"Polygon","coordinates":[[[2.4904,48.6074],[2.4991,48.6063],[2.5038,48.591],[2.5089,48.584],[2.489,48.5812],[2.4824,48.5826],[2.4904,48.6074]]]}},{"type":"Feature","properties":{"code":"91080","nom":"Boissy-le-Cutté","app":15.98,"app_bas":13.72,"app_haut":18.62,"app_ech":"maille","app_obs":49,"mai":12.97,"mai_bas":10.42,"mai_haut":16.14,"mai_ech":"maille","mai_obs":25},"geometry":{"type":"Polygon","coordinates":[[[2.2929,48.4592],[2.2818,48.4597],[2.2751,48.463],[2.2668,48.4712],[2.2706,48.4792],[2.2775,48.4835],[2.2965,48.4774],[2.3041,48.4672],[2.2938,48.463],[2.2929,48.4592]]]}},{"type":"Feature","properties":{"code":"91248","nom":"Forêt-Sainte-Croix","app":15.89,"app_bas":13.3,"app_haut":18.97,"app_ech":"maille","app_obs":3,"mai":12.56,"mai_bas":10.04,"mai_haut":15.71,"mai_ech":"maille","mai_obs":1},"geometry":{"type":"Polygon","coordinates":[[[2.2359,48.3973],[2.2477,48.3942],[2.2476,48.3874],[2.2451,48.3809],[2.2221,48.3688],[2.2097,48.3837],[2.2185,48.3944],[2.2276,48.3935],[2.2328,48.3965],[2.2359,48.3973]]]}},{"type":"Feature","properties":{"code":"91433","nom":"Morigny-Champigny","app":15.01,"app_bas":12.87,"app_haut":17.52,"app_ech":"commune","app_obs":329,"mai":12.56,"mai_bas":10.04,"mai_haut":15.71,"mai_ech":"maille","mai_obs":37},"geometry":{"type":"Polygon","coordinates":[[[2.2359,48.3973],[2.2328,48.3965],[2.22,48.3994],[2.2076,48.4116],[2.1955,48.4275],[2.1735,48.4381],[2.1699,48.4519],[2.1648,48.4541],[2.1681,48.467],[2.1616,48.4747],[2.1892,48.4752],[2.1932,48.4803],[2.2099,48.4717],[2.2231,48.4574],[2.2395,48.4439],[2.2323,48.4373],[2.245,48.4354],[2.2461,48.4227],[2.2439,48.4133],[2.2359,48.3973]]]}},{"type":"Feature","properties":{"code":"91635","nom":"Vauhallan","app":19.36,"app_bas":16.25,"app_haut":23.07,"app_ech":"maille","app_obs":76,"mai":18.98,"mai_bas":14.65,"mai_haut":24.58,"mai_ech":"maille","mai_obs":15},"geometry":{"type":"Polygon","coordinates":[[[2.1902,48.7393],[2.2175,48.7356],[2.2129,48.7288],[2.2035,48.721],[2.1827,48.7277],[2.1902,48.7393]]]}},{"type":"Feature","properties":{"code":"91156","nom":"Cheptainville","app":16.74,"app_bas":14.29,"app_haut":19.61,"app_ech":"maille","app_obs":52,"mai":13.58,"mai_bas":10.72,"mai_haut":17.2,"mai_ech":"maille","mai_obs":33},"geometry":{"type":"Polygon","coordinates":[[[2.2944,48.543],[2.2822,48.5346],[2.2588,48.5326],[2.2523,48.5361],[2.2533,48.5419],[2.2635,48.5621],[2.2775,48.5578],[2.2827,48.5595],[2.2995,48.5516],[2.2944,48.543]]]}},{"type":"Feature","properties":{"code":"91332","nom":"Leudeville","app":15.43,"app_bas":13.38,"app_haut":17.8,"app_ech":"maille","app_obs":93,"mai":14.7,"mai_bas":11.85,"mai_haut":18.25,"mai_ech":"maille","mai_obs":16},"geometry":{"type":"Polygon","coordinates":[[[2.3384,48.5905],[2.3397,48.5826],[2.3362,48.5739],[2.3476,48.5574],[2.3428,48.5528],[2.3405,48.5543],[2.317,48.5529],[2.3136,48.5583],[2.3133,48.5758],[2.3266,48.5929],[2.3384,48.5905]]]}},{"type":"Feature","properties":{"code":"91393","nom":"Mérobert","app":13.97,"app_bas":11.98,"app_haut":16.29,"app_ech":"maille","app_obs":0,"mai":10.59,"mai_bas":8.51,"mai_haut":13.19,"mai_ech":"maille","mai_obs":6},"geometry":{"type":"Polygon","coordinates":[[[1.9949,48.4296],[2.0118,48.4377],[2.0209,48.4374],[2.0191,48.4211],[2.0205,48.4153],[2.0054,48.4012],[1.9785,48.401],[1.9772,48.3992],[1.9622,48.4043],[1.9653,48.4118],[1.982,48.4182],[1.9949,48.4296]]]}},{"type":"Feature","properties":{"code":"91589","nom":"Savigny-sur-Orge","app":17.81,"app_bas":15.03,"app_haut":21.11,"app_ech":"commune","app_obs":4888,"mai":15.99,"mai_bas":11.68,"mai_haut":21.9,"mai_ech":"commune","mai_obs":306},"geometry":{"type":"Polygon","coordinates":[[[2.3555,48.6708],[2.3381,48.6674],[2.3326,48.6799],[2.3264,48.6865],[2.3387,48.6914],[2.3517,48.7025],[2.3597,48.6995],[2.3582,48.6939],[2.3719,48.6857],[2.3555,48.6708]]]}},{"type":"Feature","properties":{"code":"91665","nom":"Ville-du-Bois","app":18.36,"app_bas":15.28,"app_haut":22.07,"app_ech":"commune","app_obs":877,"mai":16.56,"mai_bas":13.04,"mai_haut":21.03,"mai_ech":"commune","mai_obs":162},"geometry":{"type":"Polygon","coordinates":[[[2.2579,48.6501],[2.2488,48.6665],[2.265,48.6704],[2.277,48.6706],[2.2761,48.6602],[2.273,48.6519],[2.2579,48.6501]]]}},{"type":"Feature","properties":{"code":"91275","nom":"Gometz-le-Châtel","app":18.08,"app_bas":15.37,"app_haut":21.28,"app_ech":"commune","app_obs":172,"mai":15.86,"mai_bas":12.36,"mai_haut":20.35,"mai_ech":"maille","mai_obs":34},"geometry":{"type":"Polygon","coordinates":[[[2.1641,48.6751],[2.1554,48.6593],[2.1387,48.6651],[2.1216,48.6802],[2.1316,48.6862],[2.1416,48.6859],[2.1613,48.6756],[2.1641,48.6751]]]}},{"type":"Feature","properties":{"code":"91345","nom":"Longjumeau","app":17.49,"app_bas":14.81,"app_haut":20.66,"app_ech":"commune","app_obs":2877,"mai":15.63,"mai_bas":11.41,"mai_haut":21.39,"mai_ech":"commune","mai_obs":106},"geometry":{"type":"Polygon","coordinates":[[[2.3264,48.6865],[2.3149,48.6802],[2.3052,48.6783],[2.2861,48.6862],[2.2849,48.6991],[2.2922,48.699],[2.2938,48.7051],[2.3036,48.705],[2.3017,48.6985],[2.3055,48.6929],[2.3161,48.692],[2.3282,48.6875],[2.3264,48.6865]]]}},{"type":"Feature","properties":{"code":"91432","nom":"Morangis","app":17.84,"app_bas":15.33,"app_haut":20.76,"app_ech":"commune","app_obs":1541,"mai":16.68,"mai_bas":12.18,"mai_haut":22.83,"mai_ech":"commune","mai_obs":127},"geometry":{"type":"Polygon","coordinates":[[[2.3441,48.7169],[2.3557,48.7139],[2.3517,48.7025],[2.3387,48.6914],[2.3282,48.6875],[2.3161,48.692],[2.3236,48.6983],[2.325,48.7109],[2.3329,48.7106],[2.3441,48.7169]]]}},{"type":"Feature","properties":{"code":"91692","nom":"Ulis","app":17.47,"app_bas":15,"app_haut":20.35,"app_ech":"commune","app_obs":2126,"mai":15.86,"mai_bas":12.36,"mai_haut":20.35,"mai_ech":"maille","mai_obs":32},"geometry":{"type":"Polygon","coordinates":[[[2.1641,48.6751],[2.1613,48.6756],[2.1609,48.6891],[2.1662,48.6927],[2.1742,48.6903],[2.1807,48.6837],[2.1911,48.6904],[2.2047,48.6911],[2.2047,48.6852],[2.2114,48.6788],[2.1955,48.6689],[2.1913,48.6683],[2.1722,48.6753],[2.1641,48.6751]]]}},{"type":"Feature","properties":{"code":"91106","nom":"Breux-Jouy","app":16.27,"app_bas":13.91,"app_haut":19.03,"app_ech":"maille","app_obs":29,"mai":12.86,"mai_bas":10.32,"mai_haut":16.02,"mai_ech":"maille","mai_obs":14},"geometry":{"type":"Polygon","coordinates":[[[2.1574,48.5368],[2.1553,48.5385],[2.1558,48.5519],[2.1481,48.5523],[2.1389,48.5653],[2.1635,48.563],[2.1815,48.5641],[2.1691,48.544],[2.1574,48.5368]]]}},{"type":"Feature","properties":{"code":"91552","nom":"Saint-Germain-lès-Arpajon","app":16.85,"app_bas":14.53,"app_haut":19.53,"app_ech":"commune","app_obs":745,"mai":14.91,"mai_bas":12.06,"mai_haut":18.44,"mai_ech":"commune","mai_obs":114},"geometry":{"type":"Polygon","coordinates":[[[2.2577,48.6134],[2.2577,48.6061],[2.2681,48.6062],[2.2845,48.597],[2.2903,48.5908],[2.2904,48.5811],[2.2607,48.5923],[2.2579,48.5912],[2.2503,48.5935],[2.2364,48.6125],[2.2515,48.6148],[2.2577,48.6134]]]}},{"type":"Feature","properties":{"code":"91425","nom":"Montlhéry","app":17.41,"app_bas":14.93,"app_haut":20.3,"app_ech":"commune","app_obs":2469,"mai":15.5,"mai_bas":12.2,"mai_haut":19.68,"mai_ech":"maille","mai_obs":85},"geometry":{"type":"Polygon","coordinates":[[[2.273,48.6519],[2.28,48.6436],[2.2837,48.6297],[2.2816,48.627],[2.2707,48.6357],[2.2529,48.6393],[2.2485,48.6456],[2.2579,48.6501],[2.273,48.6519]]]}},{"type":"Feature","properties":{"code":"91112","nom":"Brouy","app":13.94,"app_bas":11.95,"app_haut":16.26,"app_ech":"maille","app_obs":6,"mai":12.56,"mai_bas":10.04,"mai_haut":15.71,"mai_ech":"maille","mai_obs":7},"geometry":{"type":"Polygon","coordinates":[[[2.2766,48.342],[2.2858,48.3457],[2.2953,48.3424],[2.3022,48.3353],[2.3172,48.3316],[2.3126,48.3308],[2.2954,48.3082],[2.2691,48.315],[2.2766,48.3323],[2.2766,48.342]]]}},{"type":"Feature","properties":{"code":"91573","nom":"Saint-Pierre-du-Perray","app":17.75,"app_bas":15.67,"app_haut":20.1,"app_ech":"commune","app_obs":1477,"mai":15.16,"mai_bas":11.96,"mai_haut":19.22,"mai_ech":"maille","mai_obs":81},"geometry":{"type":"Polygon","coordinates":[[[2.4858,48.6153],[2.5005,48.6164],[2.5114,48.6227],[2.5052,48.6319],[2.5214,48.6319],[2.5182,48.6271],[2.5268,48.6214],[2.5258,48.6131],[2.5407,48.6114],[2.5425,48.6088],[2.5414,48.5969],[2.5333,48.5892],[2.5183,48.5833],[2.5089,48.584],[2.5038,48.591],[2.4991,48.6063],[2.4904,48.6074],[2.4858,48.6153]]]}},{"type":"Feature","properties":{"code":"91079","nom":"Boissy-la-Rivière","app":15.89,"app_bas":13.3,"app_haut":18.97,"app_ech":"maille","app_obs":0,"mai":12.56,"mai_bas":10.04,"mai_haut":15.71,"mai_ech":"maille","mai_obs":5},"geometry":{"type":"Polygon","coordinates":[[[2.1526,48.3676],[2.1475,48.3778],[2.1419,48.3827],[2.1248,48.382],[2.1276,48.3927],[2.1338,48.3949],[2.1436,48.3922],[2.1657,48.3894],[2.19,48.3888],[2.2032,48.3954],[2.2185,48.3944],[2.2097,48.3837],[2.1788,48.3681],[2.1698,48.3648],[2.1526,48.3676]]]}},{"type":"Feature","properties":{"code":"91115","nom":"Bruyères-le-Châtel","app":17.21,"app_bas":15.1,"app_haut":19.61,"app_ech":"commune","app_obs":424,"mai":15.5,"mai_bas":12.2,"mai_haut":19.68,"mai_ech":"maille","mai_obs":23},"geometry":{"type":"Polygon","coordinates":[[[2.202,48.6284],[2.203,48.6284],[2.1976,48.6248],[2.1978,48.6186],[2.2133,48.6068],[2.2022,48.5981],[2.2032,48.5844],[2.2136,48.5825],[2.1881,48.5784],[2.166,48.5809],[2.1534,48.5771],[2.1475,48.5838],[2.1735,48.5877],[2.1768,48.5938],[2.1719,48.6041],[2.178,48.614],[2.1765,48.6214],[2.1845,48.628],[2.202,48.6284]]]}},{"type":"Feature","properties":{"code":"91132","nom":"Chamarande","app":15.32,"app_bas":13.05,"app_haut":18,"app_ech":"commune","app_obs":151,"mai":13.58,"mai_bas":10.72,"mai_haut":17.2,"mai_ech":"maille","mai_obs":24},"geometry":{"type":"Polygon","coordinates":[[[2.2082,48.5338],[2.2204,48.5317],[2.2189,48.5286],[2.2354,48.5217],[2.2408,48.5128],[2.2278,48.5119],[2.2227,48.505],[2.2166,48.4993],[2.2073,48.5053],[2.2035,48.5166],[2.2082,48.5338]]]}},{"type":"Feature","properties":{"code":"91347","nom":"Longpont-sur-Orge","app":16.57,"app_bas":14.2,"app_haut":19.33,"app_ech":"commune","app_obs":521,"mai":15.5,"mai_bas":12.2,"mai_haut":19.68,"mai_ech":"maille","mai_obs":83},"geometry":{"type":"Polygon","coordinates":[[[2.2989,48.6501],[2.2902,48.6189],[2.2825,48.6177],[2.276,48.622],[2.2837,48.6297],[2.28,48.6436],[2.273,48.6519],[2.2761,48.6602],[2.2913,48.6576],[2.2989,48.6501]]]}},{"type":"Feature","properties":{"code":"91247","nom":"Forêt-le-Roi","app":14.72,"app_bas":12.23,"app_haut":17.7,"app_ech":"maille","app_obs":9,"mai":12.86,"mai_bas":10.32,"mai_haut":16.02,"mai_ech":"maille","mai_obs":3},"geometry":{"type":"Polygon","coordinates":[[[2.0342,48.4645],[2.0273,48.4653],[2.0178,48.4812],[2.0368,48.484],[2.0615,48.492],[2.0652,48.4884],[2.0672,48.4785],[2.0723,48.4715],[2.0704,48.4641],[2.0384,48.466],[2.0342,48.4645]]]}},{"type":"Feature","properties":{"code":"91339","nom":"Linas","app":16.95,"app_bas":14.4,"app_haut":19.95,"app_ech":"commune","app_obs":681,"mai":14.59,"mai_bas":11.77,"mai_haut":18.09,"mai_ech":"commune","mai_obs":100},"geometry":{"type":"Polygon","coordinates":[[[2.2255,48.6286],[2.2391,48.6321],[2.2529,48.6393],[2.2707,48.6357],[2.2816,48.627],[2.276,48.622],[2.268,48.6233],[2.2577,48.6134],[2.2515,48.6148],[2.2364,48.6125],[2.224,48.6226],[2.2255,48.6286]]]}},{"type":"Feature","properties":{"code":"91514","nom":"Quincy-sous-Sénart","app":16.71,"app_bas":14.34,"app_haut":19.47,"app_ech":"commune","app_obs":1076,"mai":16.5,"mai_bas":12.5,"mai_haut":21.78,"mai_ech":"maille","mai_obs":50},"geometry":{"type":"Polygon","coordinates":[[[2.5431,48.6868],[2.5411,48.6806],[2.5476,48.6718],[2.5448,48.6712],[2.5336,48.6573],[2.529,48.6607],[2.5182,48.6604],[2.5042,48.6718],[2.5143,48.6744],[2.5213,48.6815],[2.5294,48.6781],[2.5377,48.6858],[2.5431,48.6868]]]}},{"type":"Feature","properties":{"code":"91179","nom":"Coudray-Montceaux","app":16.01,"app_bas":14,"app_haut":18.31,"app_ech":"commune","app_obs":482,"mai":14.77,"mai_bas":11.97,"mai_haut":18.23,"mai_ech":"maille","mai_obs":59},"geometry":{"type":"Polygon","coordinates":[[[2.4738,48.5777],[2.4813,48.5802],[2.4801,48.577],[2.4879,48.5684],[2.4998,48.5673],[2.5218,48.5732],[2.5316,48.5737],[2.5203,48.5673],[2.4993,48.5429],[2.4854,48.5429],[2.4723,48.5408],[2.4652,48.5415],[2.4697,48.556],[2.4539,48.5584],[2.4564,48.5639],[2.4738,48.5777]]]}},{"type":"Feature","properties":{"code":"91022","nom":"Arrancourt","app":15.89,"app_bas":13.3,"app_haut":18.97,"app_ech":"maille","app_obs":1,"mai":10.73,"mai_bas":8.6,"mai_haut":13.38,"mai_ech":"maille","mai_obs":1},"geometry":{"type":"Polygon","coordinates":[[[2.1562,48.3471],[2.1703,48.3401],[2.1725,48.3324],[2.1606,48.3259],[2.1614,48.3151],[2.1708,48.315],[2.169,48.3127],[2.1544,48.3159],[2.1539,48.3084],[2.1451,48.3083],[2.1295,48.3157],[2.1314,48.3234],[2.1562,48.3471]]]}},{"type":"Feature","properties":{"code":"91097","nom":"Boussy-Saint-Antoine","app":17.09,"app_bas":14.67,"app_haut":19.9,"app_ech":"commune","app_obs":736,"mai":16.5,"mai_bas":12.5,"mai_haut":21.78,"mai_ech":"maille","mai_obs":53},"geometry":{"type":"Polygon","coordinates":[[[2.5431,48.6868],[2.5377,48.6858],[2.5294,48.6781],[2.5213,48.6815],[2.5313,48.6954],[2.5311,48.6998],[2.5443,48.6984],[2.549,48.689],[2.5431,48.6868]]]}},{"type":"Feature","properties":{"code":"91377","nom":"Massy","app":20.08,"app_bas":16.46,"app_haut":24.49,"app_ech":"commune","app_obs":8488,"mai":16.58,"mai_bas":12.03,"mai_haut":22.84,"mai_ech":"commune","mai_obs":147},"geometry":{"type":"Polygon","coordinates":[[[2.2668,48.7183],[2.2508,48.7262],[2.2355,48.7276],[2.238,48.7356],[2.2508,48.7379],[2.2707,48.7385],[2.2745,48.7407],[2.2803,48.733],[2.2984,48.7386],[2.3038,48.7295],[2.3017,48.7197],[2.2939,48.7121],[2.2668,48.7183]]]}},{"type":"Feature","properties":{"code":"91645","nom":"Verrières-le-Buisson","app":19.29,"app_bas":16.2,"app_haut":22.98,"app_ech":"commune","app_obs":1063,"mai":21.19,"mai_bas":15.8,"mai_haut":28.42,"mai_ech":"commune","mai_obs":103},"geometry":{"type":"Polygon","coordinates":[[[2.2264,48.75],[2.2257,48.7605],[2.2329,48.766],[2.2386,48.7665],[2.2477,48.7611],[2.2594,48.761],[2.2761,48.7567],[2.2854,48.7475],[2.2707,48.7385],[2.2508,48.7379],[2.238,48.7356],[2.2264,48.75]]]}},{"type":"Feature","properties":{"code":"91093","nom":"Boullay-les-Troux","app":18.61,"app_bas":15.43,"app_haut":22.46,"app_ech":"maille","app_obs":2,"mai":15.56,"mai_bas":12.41,"mai_haut":19.52,"mai_ech":"maille","mai_obs":9},"geometry":{"type":"Polygon","coordinates":[[[2.0376,48.6802],[2.0457,48.6876],[2.0665,48.6869],[2.0694,48.6809],[2.0647,48.6751],[2.0526,48.6709],[2.0542,48.6616],[2.0421,48.6639],[2.0289,48.6637],[2.0376,48.6802]]]}},{"type":"Feature","properties":{"code":"91340","nom":"Lisses","app":17.17,"app_bas":14.89,"app_haut":19.81,"app_ech":"commune","app_obs":240,"mai":14.77,"mai_bas":11.97,"mai_haut":18.23,"mai_ech":"maille","mai_obs":70},"geometry":{"type":"Polygon","coordinates":[[[2.4394,48.5771],[2.4222,48.5732],[2.4169,48.5768],[2.4132,48.5868],[2.4034,48.5918],[2.3936,48.5893],[2.4072,48.5949],[2.3986,48.6071],[2.4001,48.6097],[2.4117,48.6134],[2.4434,48.6104],[2.4504,48.6026],[2.4505,48.5955],[2.4325,48.589],[2.4394,48.5771]]]}},{"type":"Feature","properties":{"code":"91578","nom":"Saint-Sulpice-de-Favières","app":14.23,"app_bas":12.31,"app_haut":16.45,"app_ech":"maille","app_obs":2,"mai":13.58,"mai_bas":10.72,"mai_haut":17.2,"mai_ech":"maille","mai_obs":3},"geometry":{"type":"Polygon","coordinates":[[[2.1574,48.5368],[2.1691,48.544],[2.1735,48.5515],[2.1882,48.5469],[2.1962,48.5389],[2.1884,48.5271],[2.1873,48.5183],[2.1823,48.5181],[2.1754,48.5202],[2.1747,48.5368],[2.17,48.5404],[2.1574,48.5368]]]}},{"type":"Feature","properties":{"code":"91099","nom":"Boutigny-sur-Essonne","app":14.95,"app_bas":12.43,"app_haut":17.99,"app_ech":"commune","app_obs":133,"mai":12.97,"mai_bas":10.42,"mai_haut":16.14,"mai_ech":"maille","mai_obs":28},"geometry":{"type":"Polygon","coordinates":[[[2.3625,48.4486],[2.3694,48.4494],[2.4062,48.4619],[2.4127,48.4563],[2.4192,48.4402],[2.4239,48.4212],[2.4163,48.4156],[2.3875,48.4113],[2.3801,48.4276],[2.3734,48.4341],[2.3619,48.4407],[2.3625,48.4486]]]}},{"type":"Feature","properties":{"code":"91482","nom":"Pecqueuse","app":16.13,"app_bas":13.9,"app_haut":18.72,"app_ech":"maille","app_obs":29,"mai":15.56,"mai_bas":12.41,"mai_haut":19.52,"mai_ech":"maille","mai_obs":18},"geometry":{"type":"Polygon","coordinates":[[[2.0539,48.6592],[2.049,48.6502],[2.0625,48.6481],[2.0416,48.6269],[2.0345,48.6325],[2.036,48.6419],[2.0203,48.6421],[2.013,48.6477],[2.0112,48.6598],[2.0282,48.6573],[2.0289,48.6637],[2.0421,48.6639],[2.0391,48.658],[2.0539,48.6592]]]}},{"type":"Feature","properties":{"code":"91038","nom":"Auvers-Saint-Georges","app":14.53,"app_bas":12.34,"app_haut":17.1,"app_ech":"maille","app_obs":49,"mai":12.56,"mai_bas":10.04,"mai_haut":15.71,"mai_ech":"maille","mai_obs":12},"geometry":{"type":"Polygon","coordinates":[[[2.1932,48.4803],[2.2054,48.4882],[2.2227,48.505],[2.2243,48.4985],[2.2468,48.4926],[2.2491,48.4836],[2.2474,48.4774],[2.2338,48.4767],[2.2313,48.4682],[2.2427,48.4619],[2.2487,48.4558],[2.2485,48.4496],[2.2395,48.4439],[2.2231,48.4574],[2.2099,48.4717],[2.1932,48.4803]]]}},{"type":"Feature","properties":{"code":"91363","nom":"Marcoussis","app":16.3,"app_bas":13.73,"app_haut":19.35,"app_ech":"commune","app_obs":465,"mai":15.55,"mai_bas":12.24,"mai_haut":19.75,"mai_ech":"commune","mai_obs":110},"geometry":{"type":"Polygon","coordinates":[[[2.202,48.6284],[2.1879,48.6386],[2.1818,48.6319],[2.165,48.6443],[2.1771,48.656],[2.1867,48.6612],[2.1913,48.6683],[2.1955,48.6689],[2.2084,48.6661],[2.2223,48.6608],[2.2215,48.6567],[2.2402,48.6451],[2.2485,48.6456],[2.2529,48.6393],[2.2391,48.6321],[2.2255,48.6286],[2.2051,48.6309],[2.203,48.6284],[2.202,48.6284]]]}},{"type":"Feature","properties":{"code":"91411","nom":"Molières","app":17.46,"app_bas":14.88,"app_haut":20.48,"app_ech":"maille","app_obs":21,"mai":15.56,"mai_bas":12.41,"mai_haut":19.52,"mai_ech":"maille","mai_obs":12},"geometry":{"type":"Polygon","coordinates":[[[2.0539,48.6592],[2.0391,48.658],[2.0421,48.6639],[2.0542,48.6616],[2.0526,48.6709],[2.0647,48.6751],[2.0694,48.6809],[2.0665,48.6869],[2.0706,48.6892],[2.0915,48.6833],[2.0907,48.6704],[2.0971,48.6663],[2.0923,48.6633],[2.0766,48.6604],[2.0618,48.6624],[2.0539,48.6592]]]}},{"type":"Feature","properties":{"code":"91560","nom":"Saint-Jean-de-Beauregard","app":16.34,"app_bas":13.8,"app_haut":19.35,"app_ech":"maille","app_obs":14,"mai":15.5,"mai_bas":12.2,"mai_haut":19.68,"mai_ech":"maille","mai_obs":12},"geometry":{"type":"Polygon","coordinates":[[[2.1641,48.6751],[2.1722,48.6753],[2.1913,48.6683],[2.1867,48.6612],[2.1771,48.656],[2.1554,48.6593],[2.1641,48.6751]]]}},{"type":"Feature","properties":{"code":"91408","nom":"Moigny-sur-École","app":14.98,"app_bas":12.46,"app_haut":18,"app_ech":"maille","app_obs":7,"mai":13.78,"mai_bas":10.77,"mai_haut":17.63,"mai_ech":"maille","mai_obs":4},"geometry":{"type":"Polygon","coordinates":[[[2.4611,48.4248],[2.4615,48.4167],[2.4502,48.4159],[2.4375,48.4215],[2.4239,48.4212],[2.4192,48.4402],[2.4127,48.4563],[2.4197,48.4575],[2.4447,48.4526],[2.4684,48.4441],[2.4625,48.4413],[2.4611,48.4248]]]}},{"type":"Feature","properties":{"code":"91469","nom":"Ormoy-la-Rivière","app":15.89,"app_bas":13.3,"app_haut":18.97,"app_ech":"maille","app_obs":23,"mai":12.56,"mai_bas":10.04,"mai_haut":15.71,"mai_ech":"maille","mai_obs":1},"geometry":{"type":"Polygon","coordinates":[[[2.1276,48.3927],[2.1354,48.4082],[2.1546,48.4162],[2.16,48.4162],[2.1764,48.4097],[2.2032,48.3954],[2.19,48.3888],[2.1657,48.3894],[2.1436,48.3922],[2.1338,48.3949],[2.1276,48.3927]]]}},{"type":"Feature","properties":{"code":"91549","nom":"Sainte-Geneviève-des-Bois","app":17.58,"app_bas":14.87,"app_haut":20.79,"app_ech":"commune","app_obs":3707,"mai":16.02,"mai_bas":12.85,"mai_haut":19.96,"mai_ech":"commune","mai_obs":243},"geometry":{"type":"Polygon","coordinates":[[[2.3187,48.6656],[2.3202,48.6601],[2.3369,48.6503],[2.3554,48.6412],[2.3499,48.6202],[2.3305,48.6202],[2.3285,48.6343],[2.3168,48.6396],[2.309,48.6455],[2.2979,48.6444],[2.2989,48.6501],[2.3094,48.657],[2.3187,48.6656]]]}},{"type":"Feature","properties":{"code":"91095","nom":"Bouray-sur-Juine","app":15.84,"app_bas":13.48,"app_haut":18.61,"app_ech":"commune","app_obs":214,"mai":12.97,"mai_bas":10.42,"mai_haut":16.14,"mai_ech":"maille","mai_obs":61},"geometry":{"type":"Polygon","coordinates":[[[2.3241,48.5187],[2.3091,48.504],[2.3071,48.4999],[2.2917,48.4991],[2.2771,48.5047],[2.276,48.5125],[2.2695,48.5203],[2.2992,48.5238],[2.3241,48.5204],[2.3241,48.5187]]]}},{"type":"Feature","properties":{"code":"91103","nom":"Brétigny-sur-Orge","app":17.68,"app_bas":15.19,"app_haut":20.57,"app_ech":"commune","app_obs":2801,"mai":15.38,"mai_bas":12.45,"mai_haut":19,"mai_ech":"commune","mai_obs":163},"geometry":{"type":"Polygon","coordinates":[[[2.3133,48.5758],[2.2904,48.5811],[2.2903,48.5908],[2.2845,48.597],[2.2681,48.6062],[2.2825,48.6177],[2.2902,48.6189],[2.2927,48.6262],[2.3039,48.6256],[2.3289,48.6195],[2.3215,48.6155],[2.3208,48.6087],[2.33,48.5977],[2.3133,48.5758]]]}},{"type":"Feature","properties":{"code":"91318","nom":"Janville-sur-Juine","app":15.11,"app_bas":12.85,"app_haut":17.76,"app_ech":"commune","app_obs":106,"mai":12.97,"mai_bas":10.42,"mai_haut":16.14,"mai_ech":"maille","mai_obs":39},"geometry":{"type":"Polygon","coordinates":[[[2.2408,48.5128],[2.2574,48.5144],[2.2695,48.5203],[2.276,48.5125],[2.2771,48.5047],[2.2714,48.503],[2.2708,48.4891],[2.2648,48.4819],[2.2474,48.4774],[2.2491,48.4836],[2.2468,48.4926],[2.2243,48.4985],[2.2227,48.505],[2.2278,48.5119],[2.2408,48.5128]]]}},{"type":"Feature","properties":{"code":"91333","nom":"Leuville-sur-Orge","app":15.82,"app_bas":13.53,"app_haut":18.49,"app_ech":"commune","app_obs":153,"mai":15.5,"mai_bas":12.2,"mai_haut":19.68,"mai_ech":"maille","mai_obs":62},"geometry":{"type":"Polygon","coordinates":[[[2.2825,48.6177],[2.2681,48.6062],[2.2577,48.6061],[2.2577,48.6134],[2.268,48.6233],[2.276,48.622],[2.2825,48.6177]]]}},{"type":"Feature","properties":{"code":"91546","nom":"Saint-Cyr-sous-Dourdan","app":16.09,"app_bas":13.61,"app_haut":19.02,"app_ech":"maille","app_obs":32,"mai":14.04,"mai_bas":11.23,"mai_haut":17.56,"mai_ech":"maille","mai_obs":19},"geometry":{"type":"Polygon","coordinates":[[[2.0176,48.5576],[2.0172,48.5695],[2.0303,48.5861],[2.0357,48.5889],[2.0438,48.5857],[2.0547,48.5765],[2.054,48.5608],[2.0558,48.5479],[2.0507,48.5458],[2.0245,48.5501],[2.0176,48.5576]]]}},{"type":"Feature","properties":{"code":"91180","nom":"Courances","app":14.22,"app_bas":12.06,"app_haut":16.77,"app_ech":"maille","app_obs":4,"mai":14.43,"mai_bas":10.4,"mai_haut":20.02,"mai_ech":"maille","mai_obs":20},"geometry":{"type":"Polygon","coordinates":[[[2.4611,48.4248],[2.4625,48.4413],[2.4684,48.4441],[2.4767,48.4462],[2.4979,48.4573],[2.5052,48.4527],[2.505,48.4299],[2.4904,48.4262],[2.4611,48.4248]]]}},{"type":"Feature","properties":{"code":"91473","nom":"Orveau","app":14.53,"app_bas":12.34,"app_haut":17.1,"app_ech":"maille","app_obs":1,"mai":12.97,"mai_bas":10.42,"mai_haut":16.14,"mai_ech":"maille","mai_obs":1},"geometry":{"type":"Polygon","coordinates":[[[2.2929,48.4592],[2.3117,48.4513],[2.319,48.4417],[2.3039,48.4391],[2.2919,48.4415],[2.2773,48.4494],[2.2818,48.4597],[2.2929,48.4592]]]}},{"type":"Feature","properties":{"code":"91098","nom":"Boutervilliers","app":14.72,"app_bas":12.23,"app_haut":17.7,"app_ech":"maille","app_obs":15,"mai":12.86,"mai_bas":10.32,"mai_haut":16.02,"mai_ech":"maille","mai_obs":9},"geometry":{"type":"Polygon","coordinates":[[[2.0342,48.4645],[2.0384,48.466],[2.0704,48.4641],[2.0822,48.4593],[2.0785,48.4577],[2.0727,48.4491],[2.0634,48.4431],[2.0552,48.4463],[2.0385,48.4459],[2.0203,48.4571],[2.0214,48.463],[2.0342,48.4645]]]}},{"type":"Feature","properties":{"code":"91631","nom":"Varennes-Jarcy","app":17.17,"app_bas":14.98,"app_haut":19.68,"app_ech":"maille","app_obs":34,"mai":16.5,"mai_bas":12.5,"mai_haut":21.78,"mai_ech":"maille","mai_obs":15},"geometry":{"type":"Polygon","coordinates":[[[2.5431,48.6868],[2.549,48.689],[2.5539,48.6883],[2.5717,48.692],[2.5788,48.6902],[2.5841,48.6772],[2.571,48.6749],[2.5679,48.6668],[2.5594,48.6724],[2.5476,48.6718],[2.5411,48.6806],[2.5431,48.6868]]]}},{"type":"Feature","properties":{"code":"91017","nom":"Angervilliers","app":16.09,"app_bas":13.61,"app_haut":19.02,"app_ech":"maille","app_obs":43,"mai":14.04,"mai_bas":11.23,"mai_haut":17.56,"mai_ech":"maille","mai_obs":38},"geometry":{"type":"Polygon","coordinates":[[[2.0547,48.5765],[2.0438,48.5857],[2.0357,48.5889],[2.033,48.5982],[2.0345,48.6035],[2.0548,48.608],[2.0595,48.5979],[2.0691,48.5952],[2.0779,48.5991],[2.0872,48.594],[2.084,48.5833],[2.0723,48.576],[2.0547,48.5765]]]}},{"type":"Feature","properties":{"code":"91232","nom":"Ferté-Alais","app":15.76,"app_bas":13.48,"app_haut":18.42,"app_ech":"commune","app_obs":478,"mai":14.7,"mai_bas":11.85,"mai_haut":18.25,"mai_ech":"maille","mai_obs":57},"geometry":{"type":"Polygon","coordinates":[[[2.3858,48.4733],[2.3506,48.477],[2.3486,48.4721],[2.3442,48.4763],[2.3466,48.4867],[2.3662,48.491],[2.3881,48.4846],[2.3914,48.4807],[2.3858,48.4733]]]}},{"type":"Feature","properties":{"code":"91312","nom":"Igny","app":20.06,"app_bas":17.06,"app_haut":23.57,"app_ech":"commune","app_obs":743,"mai":21.6,"mai_bas":16.17,"mai_haut":28.85,"mai_ech":"maille","mai_obs":73},"geometry":{"type":"Polygon","coordinates":[[[2.2129,48.7288],[2.2175,48.7356],[2.204,48.7369],[2.2264,48.75],[2.238,48.7356],[2.2355,48.7276],[2.2245,48.7259],[2.2129,48.7288]]]}},{"type":"Feature","properties":{"code":"91538","nom":"Saint-Aubin","app":18.61,"app_bas":15.43,"app_haut":22.46,"app_ech":"maille","app_obs":79,"mai":18.98,"mai_bas":14.65,"mai_haut":24.58,"mai_ech":"maille","mai_obs":6},"geometry":{"type":"Polygon","coordinates":[[[2.1439,48.7231],[2.1551,48.7181],[2.1515,48.7073],[2.1364,48.706],[2.1275,48.7095],[2.1233,48.716],[2.1256,48.7221],[2.1439,48.7231]]]}},{"type":"Feature","properties":{"code":"91200","nom":"Dourdan","app":15.54,"app_bas":13.33,"app_haut":18.13,"app_ech":"commune","app_obs":1489,"mai":13.5,"mai_bas":10.83,"mai_haut":16.84,"mai_ech":"commune","mai_obs":232},"geometry":{"type":"Polygon","coordinates":[[[2.0323,48.5013],[2.0242,48.512],[2.0159,48.516],[2.0023,48.5135],[1.9952,48.5145],[1.9782,48.5058],[1.9638,48.5145],[1.9607,48.5216],[1.9677,48.5262],[1.9756,48.5257],[1.9785,48.5331],[1.9674,48.5331],[1.9341,48.5486],[1.9379,48.5629],[1.9528,48.5595],[1.9627,48.5605],[1.9818,48.5556],[1.9998,48.5554],[2.0176,48.5576],[2.0245,48.5501],[2.0507,48.5458],[2.0352,48.5349],[2.0346,48.5306],[2.0404,48.5133],[2.0323,48.5013]]]}},{"type":"Feature","properties":{"code":"91494","nom":"Plessis-Pâté","app":17.11,"app_bas":14.43,"app_haut":20.3,"app_ech":"commune","app_obs":191,"mai":14.77,"mai_bas":11.97,"mai_haut":18.23,"mai_ech":"maille","mai_obs":33},"geometry":{"type":"Polygon","coordinates":[[[2.3384,48.5905],[2.3266,48.5929],[2.33,48.5977],[2.3208,48.6087],[2.3215,48.6155],[2.3305,48.6202],[2.3499,48.6202],[2.3594,48.6181],[2.3622,48.6015],[2.3563,48.5972],[2.3418,48.5941],[2.3384,48.5905]]]}},{"type":"Feature","properties":{"code":"91654","nom":"Videlles","app":14.98,"app_bas":12.46,"app_haut":18,"app_ech":"maille","app_obs":2,"mai":12.97,"mai_bas":10.42,"mai_haut":16.14,"mai_ech":"maille","mai_obs":16},"geometry":{"type":"Polygon","coordinates":[[[2.4152,48.4811],[2.4362,48.4803],[2.4451,48.4754],[2.4415,48.4683],[2.447,48.4606],[2.4447,48.4526],[2.4197,48.4575],[2.4127,48.4563],[2.4062,48.4619],[2.3999,48.4604],[2.4008,48.4716],[2.3858,48.4733],[2.3914,48.4807],[2.3989,48.4783],[2.4152,48.4811]]]}},{"type":"Feature","properties":{"code":"91240","nom":"Fontaine-la-Rivière","app":15.89,"app_bas":13.3,"app_haut":18.97,"app_ech":"maille","app_obs":10,"mai":10.73,"mai_bas":8.6,"mai_haut":13.38,"mai_ech":"maille","mai_obs":5},"geometry":{"type":"Polygon","coordinates":[[[2.1526,48.3676],[2.1698,48.3648],[2.1788,48.3681],[2.1884,48.3605],[2.1678,48.3549],[2.156,48.3483],[2.1458,48.3607],[2.1526,48.3676]]]}},{"type":"Feature","properties":{"code":"91315","nom":"Itteville","app":15.98,"app_bas":13.72,"app_haut":18.62,"app_ech":"maille","app_obs":60,"mai":14.7,"mai_bas":11.85,"mai_haut":18.25,"mai_ech":"maille","mai_obs":67},"geometry":{"type":"Polygon","coordinates":[[[2.3241,48.5187],[2.3379,48.5209],[2.3419,48.5258],[2.3369,48.5323],[2.3438,48.5386],[2.3571,48.5368],[2.3722,48.5369],[2.3628,48.5251],[2.3664,48.5103],[2.3578,48.4953],[2.3523,48.4898],[2.3499,48.4977],[2.317,48.5006],[2.3071,48.4999],[2.3091,48.504],[2.3241,48.5187]]]}},{"type":"Feature","properties":{"code":"91600","nom":"Soisy-sur-Seine","app":17.48,"app_bas":14.72,"app_haut":20.76,"app_ech":"commune","app_obs":436,"mai":16.5,"mai_bas":12.5,"mai_haut":21.78,"mai_ech":"maille","mai_obs":76},"geometry":{"type":"Polygon","coordinates":[[[2.4932,48.6807],[2.5042,48.6718],[2.4691,48.6629],[2.4662,48.6476],[2.4523,48.6376],[2.4378,48.6485],[2.4294,48.6536],[2.464,48.6729],[2.4932,48.6807]]]}},{"type":"Feature","properties":{"code":"91137","nom":"Champmotteux","app":13.94,"app_bas":11.95,"app_haut":16.26,"app_ech":"maille","app_obs":0,"mai":12.56,"mai_bas":10.04,"mai_haut":15.71,"mai_ech":"maille","mai_obs":2},"geometry":{"type":"Polygon","coordinates":[[[2.3273,48.3492],[2.3406,48.3507],[2.345,48.3456],[2.3293,48.3328],[2.3172,48.3316],[2.3022,48.3353],[2.2953,48.3424],[2.2858,48.3457],[2.2919,48.3528],[2.3029,48.3564],[2.3161,48.355],[2.3273,48.3492]]]}},{"type":"Feature","properties":{"code":"91441","nom":"Nainville-les-Roches","app":15.89,"app_bas":14.09,"app_haut":17.92,"app_ech":"maille","app_obs":59,"mai":13.78,"mai_bas":10.77,"mai_haut":17.63,"mai_ech":"maille","mai_obs":4},"geometry":{"type":"Polygon","coordinates":[[[2.4741,48.5126],[2.4868,48.5128],[2.4893,48.5188],[2.5044,48.5166],[2.5138,48.5095],[2.5154,48.5044],[2.5121,48.4954],[2.4939,48.4907],[2.4791,48.4951],[2.4806,48.5038],[2.4741,48.5126]]]}},{"type":"Feature","properties":{"code":"91129","nom":"Cerny","app":15.81,"app_bas":13.57,"app_haut":18.43,"app_ech":"commune","app_obs":197,"mai":14.7,"mai_bas":11.85,"mai_haut":18.25,"mai_ech":"maille","mai_obs":33},"geometry":{"type":"Polygon","coordinates":[[[2.2771,48.5047],[2.2917,48.4991],[2.317,48.5006],[2.3499,48.4977],[2.3523,48.4898],[2.3466,48.4867],[2.3442,48.4763],[2.3383,48.4753],[2.3196,48.4642],[2.3041,48.4672],[2.2965,48.4774],[2.2775,48.4835],[2.2706,48.4792],[2.2648,48.4819],[2.2708,48.4891],[2.2714,48.503],[2.2771,48.5047]]]}},{"type":"Feature","properties":{"code":"91648","nom":"Vert-le-Grand","app":16.34,"app_bas":14.46,"app_haut":18.45,"app_ech":"commune","app_obs":218,"mai":14.7,"mai_bas":11.85,"mai_haut":18.25,"mai_ech":"maille","mai_obs":31},"geometry":{"type":"Polygon","coordinates":[[[2.3986,48.6071],[2.4072,48.5949],[2.3936,48.5893],[2.3852,48.582],[2.3832,48.5663],[2.3697,48.5638],[2.3626,48.5654],[2.3476,48.5574],[2.3362,48.5739],[2.3397,48.5826],[2.3384,48.5905],[2.3418,48.5941],[2.3563,48.5972],[2.3622,48.6015],[2.384,48.6021],[2.3935,48.6083],[2.3986,48.6071]]]}},{"type":"Feature","properties":{"code":"91649","nom":"Vert-le-Petit","app":16.78,"app_bas":14.39,"app_haut":19.57,"app_ech":"commune","app_obs":109,"mai":14.7,"mai_bas":11.85,"mai_haut":18.25,"mai_ech":"maille","mai_obs":38},"geometry":{"type":"Polygon","coordinates":[[[2.3744,48.5454],[2.3722,48.5369],[2.3571,48.5368],[2.3428,48.5528],[2.3476,48.5574],[2.3626,48.5654],[2.3697,48.5638],[2.3832,48.5663],[2.3904,48.5572],[2.3763,48.5494],[2.3744,48.5454]]]}},{"type":"Feature","properties":{"code":"91570","nom":"Saint-Michel-sur-Orge","app":16.93,"app_bas":14.44,"app_haut":19.86,"app_ech":"commune","app_obs":2265,"mai":15.95,"mai_bas":12.79,"mai_haut":19.88,"mai_ech":"maille","mai_obs":90},"geometry":{"type":"Polygon","coordinates":[[[2.2927,48.6262],[2.2979,48.6444],[2.309,48.6455],[2.3168,48.6396],[2.3285,48.6343],[2.3305,48.6202],[2.3289,48.6195],[2.3039,48.6256],[2.2927,48.6262]]]}},{"type":"Feature","properties":{"code":"91135","nom":"Champcueil","app":14.98,"app_bas":12.46,"app_haut":18,"app_ech":"maille","app_obs":41,"mai":14.7,"mai_bas":11.85,"mai_haut":18.25,"mai_ech":"maille","mai_obs":44},"geometry":{"type":"Polygon","coordinates":[[[2.4498,48.4843],[2.4378,48.4875],[2.4406,48.495],[2.4183,48.5046],[2.4065,48.5023],[2.4062,48.5039],[2.4123,48.5083],[2.4134,48.5249],[2.4441,48.5208],[2.47,48.5276],[2.4751,48.5187],[2.4741,48.5126],[2.4806,48.5038],[2.4791,48.4951],[2.4697,48.496],[2.4681,48.4826],[2.4498,48.4843]]]}},{"type":"Feature","properties":{"code":"91228","nom":"Évry","app":17.76,"app_bas":13.57,"app_haut":23.25,"app_ech":"commune","app_obs":3562,"mai":15.49,"mai_bas":11.71,"mai_haut":20.49,"mai_ech":"commune","mai_obs":114},"geometry":{"type":"Polygon","coordinates":[[[2.4523,48.6376],[2.4703,48.6255],[2.457,48.6211],[2.437,48.6112],[2.4319,48.6117],[2.4265,48.6192],[2.4226,48.631],[2.4133,48.6361],[2.4263,48.641],[2.4378,48.6485],[2.4523,48.6376]]]}},{"type":"Feature","properties":{"code":"91386","nom":"Mennecy","app":17.42,"app_bas":15.45,"app_haut":19.63,"app_ech":"commune","app_obs":2555,"mai":14.57,"mai_bas":11.77,"mai_haut":18.03,"mai_ech":"commune","mai_obs":183},"geometry":{"type":"Polygon","coordinates":[[[2.4564,48.5639],[2.4539,48.5584],[2.4697,48.556],[2.4652,48.5415],[2.4405,48.5479],[2.4252,48.5445],[2.4028,48.5632],[2.4088,48.5647],[2.4222,48.5732],[2.4423,48.5772],[2.4564,48.5639]]]}},{"type":"Feature","properties":{"code":"91540","nom":"Saint-Chéron","app":16.45,"app_bas":13.63,"app_haut":19.86,"app_ech":"commune","app_obs":386,"mai":12.86,"mai_bas":10.32,"mai_haut":16.02,"mai_ech":"maille","mai_obs":94},"geometry":{"type":"Polygon","coordinates":[[[2.0931,48.5523],[2.1016,48.5548],[2.1195,48.563],[2.1207,48.5677],[2.1296,48.5701],[2.1389,48.5653],[2.1481,48.5523],[2.1558,48.5519],[2.1553,48.5385],[2.134,48.5358],[2.1224,48.5294],[2.1114,48.5372],[2.0962,48.5449],[2.0931,48.5523]]]}},{"type":"Feature","properties":{"code":"91579","nom":"Saint-Vrain","app":15.4,"app_bas":13.35,"app_haut":17.77,"app_ech":"commune","app_obs":263,"mai":14.7,"mai_bas":11.85,"mai_haut":18.25,"mai_ech":"maille","mai_obs":24},"geometry":{"type":"Polygon","coordinates":[[[2.3241,48.5187],[2.3241,48.5204],[2.2992,48.5238],[2.2973,48.5315],[2.3047,48.5389],[2.2944,48.543],[2.2995,48.5516],[2.3119,48.5477],[2.317,48.5529],[2.3405,48.5543],[2.3428,48.5528],[2.3571,48.5368],[2.3438,48.5386],[2.3369,48.5323],[2.3419,48.5258],[2.3379,48.5209],[2.3241,48.5187]]]}},{"type":"Feature","properties":{"code":"91027","nom":"Athis-Mons","app":18.34,"app_bas":15.51,"app_haut":21.7,"app_ech":"commune","app_obs":4339,"mai":15.12,"mai_bas":10.74,"mai_haut":21.29,"mai_ech":"commune","mai_obs":183},"geometry":{"type":"Polygon","coordinates":[[[2.4006,48.7018],[2.3899,48.6919],[2.3719,48.6981],[2.3597,48.6995],[2.3539,48.7018],[2.3563,48.7056],[2.3715,48.7076],[2.3707,48.7202],[2.3867,48.72],[2.411,48.7261],[2.4143,48.7178],[2.4062,48.713],[2.4006,48.7018]]]}},{"type":"Feature","properties":{"code":"91204","nom":"Écharcon","app":16.61,"app_bas":14.73,"app_haut":18.74,"app_ech":"maille","app_obs":65,"mai":14.7,"mai_bas":11.85,"mai_haut":18.25,"mai_ech":"maille","mai_obs":14},"geometry":{"type":"Polygon","coordinates":[[[2.4028,48.5632],[2.3904,48.5572],[2.3832,48.5663],[2.3852,48.582],[2.3936,48.5893],[2.4034,48.5918],[2.4132,48.5868],[2.4169,48.5768],[2.4222,48.5732],[2.4088,48.5647],[2.4028,48.5632]]]}},{"type":"Feature","properties":{"code":"91359","nom":"Maisse","app":14.82,"app_bas":12.71,"app_haut":17.28,"app_ech":"commune","app_obs":252,"mai":12.97,"mai_bas":10.42,"mai_haut":16.14,"mai_ech":"maille","mai_obs":54},"geometry":{"type":"Polygon","coordinates":[[[2.3875,48.4113],[2.4163,48.4156],[2.4254,48.4122],[2.4224,48.407],[2.4099,48.3988],[2.4081,48.3869],[2.3867,48.3817],[2.3659,48.3786],[2.3369,48.3777],[2.3272,48.3785],[2.3298,48.3897],[2.3247,48.4015],[2.3313,48.4077],[2.3521,48.4122],[2.3767,48.4092],[2.3875,48.4113]]]}},{"type":"Feature","properties":{"code":"91602","nom":"Souzy-la-Briche","app":14.23,"app_bas":12.31,"app_haut":16.45,"app_ech":"maille","app_obs":5,"mai":13.58,"mai_bas":10.72,"mai_haut":17.2,"mai_ech":"maille","mai_obs":6},"geometry":{"type":"Polygon","coordinates":[[[2.1574,48.5368],[2.17,48.5404],[2.1747,48.5368],[2.1754,48.5202],[2.1631,48.5137],[2.1502,48.5094],[2.1436,48.5228],[2.1224,48.5294],[2.134,48.5358],[2.1553,48.5385],[2.1574,48.5368]]]}},{"type":"Feature","properties":{"code":"91035","nom":"Authon-la-Plaine","app":13.97,"app_bas":11.98,"app_haut":16.29,"app_ech":"maille","app_obs":7,"mai":10.59,"mai_bas":8.51,"mai_haut":13.19,"mai_ech":"maille","mai_obs":22},"geometry":{"type":"Polygon","coordinates":[[[1.9717,48.4371],[1.9331,48.4423],[1.9306,48.4537],[1.9482,48.469],[1.9556,48.4726],[1.9687,48.4758],[1.9656,48.4684],[1.9742,48.4623],[1.9805,48.4531],[1.9717,48.4371]]]}},{"type":"Feature","properties":{"code":"91458","nom":"Nozay","app":17.94,"app_bas":15.19,"app_haut":21.18,"app_ech":"commune","app_obs":322,"mai":15.86,"mai_bas":12.36,"mai_haut":20.35,"mai_ech":"maille","mai_obs":48},"geometry":{"type":"Polygon","coordinates":[[[2.2485,48.6456],[2.2402,48.6451],[2.2215,48.6567],[2.2223,48.6608],[2.2084,48.6661],[2.2136,48.6719],[2.2455,48.6737],[2.265,48.6704],[2.2488,48.6665],[2.2579,48.6501],[2.2485,48.6456]]]}},{"type":"Feature","properties":{"code":"91556","nom":"Saint-Hilaire","app":14.72,"app_bas":12.23,"app_haut":17.7,"app_ech":"maille","app_obs":0,"mai":12.86,"mai_bas":10.32,"mai_haut":16.02,"mai_ech":"maille","mai_obs":2},"geometry":{"type":"Polygon","coordinates":[[[2.0634,48.4431],[2.0727,48.4491],[2.0785,48.4577],[2.0948,48.449],[2.107,48.4469],[2.11,48.4407],[2.1065,48.4278],[2.0808,48.4302],[2.0686,48.4355],[2.0634,48.4431]]]}},{"type":"Feature","properties":{"code":"91109","nom":"Brières-les-Scellés","app":14.72,"app_bas":12.23,"app_haut":17.7,"app_ech":"maille","app_obs":2,"mai":12.56,"mai_bas":10.04,"mai_haut":15.71,"mai_ech":"maille","mai_obs":5},"geometry":{"type":"Polygon","coordinates":[[[2.1209,48.4676],[2.1277,48.4673],[2.1372,48.4765],[2.1487,48.4807],[2.1616,48.4747],[2.1681,48.467],[2.1648,48.4541],[2.1362,48.4528],[2.1239,48.4485],[2.1148,48.4621],[2.1209,48.4676]]]}},{"type":"Feature","properties":{"code":"91468","nom":"Ormoy","app":16.23,"app_bas":14.09,"app_haut":18.69,"app_ech":"commune","app_obs":142,"mai":14.77,"mai_bas":11.97,"mai_haut":18.23,"mai_ech":"maille","mai_obs":28},"geometry":{"type":"Polygon","coordinates":[[[2.4738,48.5777],[2.4564,48.5639],[2.4423,48.5772],[2.4696,48.5786],[2.4738,48.5777]]]}},{"type":"Feature","properties":{"code":"91471","nom":"Orsay","app":19.58,"app_bas":16.23,"app_haut":23.61,"app_ech":"commune","app_obs":4051,"mai":17.77,"mai_bas":13.72,"mai_haut":23.01,"mai_ech":"commune","mai_obs":161},"geometry":{"type":"Polygon","coordinates":[[[2.1742,48.6903],[2.1757,48.7003],[2.1708,48.7067],[2.1717,48.7148],[2.1833,48.7182],[2.1935,48.7187],[2.1935,48.7102],[2.2097,48.7016],[2.2047,48.6911],[2.1911,48.6904],[2.1807,48.6837],[2.1742,48.6903]]]}},{"type":"Feature","properties":{"code":"91037","nom":"Auvernaux","app":15.89,"app_bas":14.09,"app_haut":17.92,"app_ech":"maille","app_obs":14,"mai":13.78,"mai_bas":10.77,"mai_haut":17.63,"mai_ech":"maille","mai_obs":7},"geometry":{"type":"Polygon","coordinates":[[[2.4723,48.5408],[2.4854,48.5429],[2.5108,48.5431],[2.4995,48.5252],[2.4976,48.5172],[2.4893,48.5188],[2.4868,48.5128],[2.4741,48.5126],[2.4751,48.5187],[2.47,48.5276],[2.4772,48.5377],[2.4723,48.5408]]]}},{"type":"Feature","properties":{"code":"91508","nom":"Puiselet-le-Marais","app":13.94,"app_bas":11.95,"app_haut":16.26,"app_ech":"maille","app_obs":0,"mai":12.56,"mai_bas":10.04,"mai_haut":15.71,"mai_ech":"maille","mai_obs":10},"geometry":{"type":"Polygon","coordinates":[[[2.2439,48.4133],[2.2647,48.4168],[2.2823,48.4176],[2.2887,48.4118],[2.29,48.4027],[2.282,48.3961],[2.2746,48.3961],[2.2673,48.3718],[2.2587,48.3727],[2.2541,48.3823],[2.2476,48.3874],[2.2477,48.3942],[2.2359,48.3973],[2.2439,48.4133]]]}},{"type":"Feature","properties":{"code":"91525","nom":"Roinville","app":16.09,"app_bas":13.61,"app_haut":19.02,"app_ech":"maille","app_obs":29,"mai":14.04,"mai_bas":11.23,"mai_haut":17.56,"mai_ech":"maille","mai_obs":38},"geometry":{"type":"Polygon","coordinates":[[[2.0323,48.5013],[2.0404,48.5133],[2.0346,48.5306],[2.0352,48.5349],[2.0507,48.5458],[2.0608,48.5495],[2.0638,48.5339],[2.0697,48.5168],[2.074,48.5099],[2.0615,48.492],[2.0467,48.487],[2.0323,48.5013]]]}},{"type":"Feature","properties":{"code":"91284","nom":"Granges-le-Roi","app":14.72,"app_bas":12.23,"app_haut":17.7,"app_ech":"maille","app_obs":11,"mai":12.86,"mai_bas":10.32,"mai_haut":16.02,"mai_ech":"maille","mai_obs":6},"geometry":{"type":"Polygon","coordinates":[[[2.0323,48.5013],[2.0467,48.487],[2.0368,48.484],[2.0178,48.4812],[1.9982,48.4823],[1.9916,48.4864],[1.9782,48.5058],[1.9952,48.5145],[2.0023,48.5135],[2.0159,48.516],[2.0242,48.512],[2.0323,48.5013]]]}},{"type":"Feature","properties":{"code":"91657","nom":"Vigneux-sur-Seine","app":17.75,"app_bas":15.41,"app_haut":20.44,"app_ech":"commune","app_obs":2556,"mai":14.8,"mai_bas":10.49,"mai_haut":20.88,"mai_ech":"commune","mai_obs":210},"geometry":{"type":"Polygon","coordinates":[[[2.4006,48.7018],[2.4062,48.713],[2.4143,48.7178],[2.4255,48.7227],[2.4401,48.7254],[2.4428,48.7207],[2.4372,48.7148],[2.4369,48.7075],[2.4438,48.6955],[2.4547,48.6825],[2.445,48.6788],[2.4258,48.6957],[2.4165,48.695],[2.4006,48.7018]]]}},{"type":"Feature","properties":{"code":"91159","nom":"Chevannes","app":15.89,"app_bas":14.09,"app_haut":17.92,"app_ech":"maille","app_obs":57,"mai":13.78,"mai_bas":10.77,"mai_haut":17.63,"mai_ech":"maille","mai_obs":10},"geometry":{"type":"Polygon","coordinates":[[[2.4652,48.5415],[2.4723,48.5408],[2.4772,48.5377],[2.47,48.5276],[2.4441,48.5208],[2.4134,48.5249],[2.4029,48.5274],[2.4046,48.5315],[2.4252,48.5445],[2.4405,48.5479],[2.4652,48.5415]]]}},{"type":"Feature","properties":{"code":"91544","nom":"Saint-Cyr-la-Rivière","app":15.89,"app_bas":13.3,"app_haut":18.97,"app_ech":"maille","app_obs":1,"mai":10.73,"mai_bas":8.6,"mai_haut":13.38,"mai_ech":"maille","mai_obs":8},"geometry":{"type":"Polygon","coordinates":[[[2.1475,48.3778],[2.1526,48.3676],[2.1458,48.3607],[2.156,48.3483],[2.1562,48.3471],[2.1314,48.3234],[2.1188,48.3239],[2.1268,48.3427],[2.132,48.3615],[2.1254,48.3723],[2.1292,48.376],[2.1475,48.3778]]]}},{"type":"Feature","properties":{"code":"91330","nom":"Lardy","app":15.51,"app_bas":13.44,"app_haut":17.89,"app_ech":"commune","app_obs":451,"mai":13.58,"mai_bas":10.72,"mai_haut":17.2,"mai_ech":"maille","mai_obs":94},"geometry":{"type":"Polygon","coordinates":[[[2.2408,48.5128],[2.2354,48.5217],[2.2462,48.5264],[2.2488,48.532],[2.2822,48.5346],[2.2944,48.543],[2.3047,48.5389],[2.2973,48.5315],[2.2992,48.5238],[2.2695,48.5203],[2.2574,48.5144],[2.2408,48.5128]]]}},{"type":"Feature","properties":{"code":"91463","nom":"Oncy-sur-École","app":14.76,"app_bas":12.02,"app_haut":18.13,"app_ech":"maille","app_obs":12,"mai":12.97,"mai_bas":10.42,"mai_haut":16.14,"mai_ech":"maille","mai_obs":15},"geometry":{"type":"Polygon","coordinates":[[[2.4506,48.3672],[2.443,48.3695],[2.4298,48.362],[2.4279,48.3633],[2.437,48.3692],[2.4442,48.3802],[2.4523,48.3875],[2.4545,48.3962],[2.4617,48.3987],[2.4831,48.3846],[2.4692,48.3764],[2.4515,48.3749],[2.4506,48.3672]]]}},{"type":"Feature","properties":{"code":"91105","nom":"Breuillet","app":15.88,"app_bas":13.78,"app_haut":18.3,"app_ech":"commune","app_obs":533,"mai":14.42,"mai_bas":11.56,"mai_haut":18,"mai_ech":"commune","mai_obs":157},"geometry":{"type":"Polygon","coordinates":[[[2.1815,48.5641],[2.1635,48.563],[2.1389,48.5653],[2.1296,48.5701],[2.1418,48.5752],[2.1534,48.5771],[2.166,48.5809],[2.1881,48.5784],[2.1991,48.5801],[2.1985,48.5757],[2.1815,48.5641]]]}},{"type":"Feature","properties":{"code":"91667","nom":"Villemoisson-sur-Orge","app":17.02,"app_bas":14.8,"app_haut":19.58,"app_ech":"commune","app_obs":500,"mai":15.86,"mai_bas":12.36,"mai_haut":20.35,"mai_ech":"maille","mai_obs":65},"geometry":{"type":"Polygon","coordinates":[[[2.3187,48.6656],[2.3255,48.6689],[2.342,48.6676],[2.3369,48.6503],[2.3202,48.6601],[2.3187,48.6656]]]}},{"type":"Feature","properties":{"code":"91100","nom":"Bouville","app":14.53,"app_bas":12.34,"app_haut":17.1,"app_ech":"maille","app_obs":3,"mai":12.56,"mai_bas":10.04,"mai_haut":15.71,"mai_ech":"maille","mai_obs":8},"geometry":{"type":"Polygon","coordinates":[[[2.2439,48.4133],[2.2461,48.4227],[2.245,48.4354],[2.2323,48.4373],[2.2395,48.4439],[2.2485,48.4496],[2.2556,48.4471],[2.2626,48.4506],[2.2659,48.4585],[2.2751,48.463],[2.2818,48.4597],[2.2773,48.4494],[2.2919,48.4415],[2.3039,48.4391],[2.319,48.4417],[2.3286,48.4334],[2.3248,48.4249],[2.3206,48.4209],[2.3083,48.4165],[2.2887,48.4118],[2.2823,48.4176],[2.2647,48.4168],[2.2439,48.4133]]]}},{"type":"Feature","properties":{"code":"91122","nom":"Bures-sur-Yvette","app":19.43,"app_bas":16.52,"app_haut":22.86,"app_ech":"commune","app_obs":1405,"mai":18.51,"mai_bas":14.28,"mai_haut":23.98,"mai_ech":"commune","mai_obs":116},"geometry":{"type":"Polygon","coordinates":[[[2.1416,48.6859],[2.1431,48.6939],[2.1568,48.7048],[2.1708,48.7067],[2.1757,48.7003],[2.1742,48.6903],[2.1662,48.6927],[2.1609,48.6891],[2.1613,48.6756],[2.1416,48.6859]]]}},{"type":"Feature","properties":{"code":"91390","nom":"Méréville","app":12.57,"app_bas":10.67,"app_haut":14.81,"app_ech":"commune","app_obs":108,"mai":10.73,"mai_bas":8.6,"mai_haut":13.38,"mai_ech":"maille","mai_obs":86},"geometry":{"type":"Polygon","coordinates":[[[2.0618,48.3435],[2.073,48.3402],[2.0849,48.3431],[2.1092,48.3454],[2.1018,48.3317],[2.12,48.3279],[2.1137,48.3072],[2.1062,48.3076],[2.0938,48.3005],[2.0894,48.2953],[2.0815,48.2936],[2.0365,48.2968],[2.0293,48.3061],[2.0323,48.3221],[2.0438,48.3331],[2.0618,48.3435]]]}},{"type":"Feature","properties":{"code":"91619","nom":"Torfou","app":15.43,"app_bas":13.38,"app_haut":17.8,"app_ech":"maille","app_obs":17,"mai":14.7,"mai_bas":11.85,"mai_haut":18.25,"mai_ech":"maille","mai_obs":14},"geometry":{"type":"Polygon","coordinates":[[[2.234,48.5401],[2.2488,48.5395],[2.2488,48.532],[2.2462,48.5264],[2.2354,48.5217],[2.2189,48.5286],[2.2243,48.5391],[2.234,48.5401]]]}},{"type":"Feature","properties":{"code":"91599","nom":"Soisy-sur-École","app":14.98,"app_bas":12.46,"app_haut":18,"app_ech":"maille","app_obs":70,"mai":13.78,"mai_bas":10.77,"mai_haut":17.63,"mai_ech":"maille","mai_obs":15},"geometry":{"type":"Polygon","coordinates":[[[2.4451,48.4754],[2.4362,48.4803],[2.4498,48.4843],[2.4681,48.4826],[2.4697,48.496],[2.4791,48.4951],[2.4939,48.4907],[2.5121,48.4954],[2.5101,48.4884],[2.5019,48.4848],[2.505,48.4742],[2.5059,48.4612],[2.4996,48.4591],[2.4778,48.464],[2.4741,48.4675],[2.4563,48.4763],[2.4451,48.4754]]]}},{"type":"Feature","properties":{"code":"91630","nom":"Val-Saint-Germain","app":16.09,"app_bas":13.61,"app_haut":19.02,"app_ech":"maille","app_obs":56,"mai":14.04,"mai_bas":11.23,"mai_haut":17.56,"mai_ech":"maille","mai_obs":40},"geometry":{"type":"Polygon","coordinates":[[[2.093,48.5935],[2.0947,48.5871],[2.1083,48.5841],[2.1046,48.5757],[2.1016,48.5548],[2.0818,48.5498],[2.0608,48.5495],[2.0558,48.5479],[2.054,48.5608],[2.0547,48.5765],[2.0723,48.576],[2.084,48.5833],[2.0872,48.594],[2.093,48.5935]]]}},{"type":"Feature","properties":{"code":"91661","nom":"Villebon-sur-Yvette","app":18.28,"app_bas":15.34,"app_haut":21.78,"app_ech":"commune","app_obs":1456,"mai":16.32,"mai_bas":12.72,"mai_haut":20.94,"mai_ech":"commune","mai_obs":124},"geometry":{"type":"Polygon","coordinates":[[[2.2097,48.7016],[2.2269,48.7017],[2.2593,48.7065],[2.2682,48.7039],[2.2641,48.6963],[2.2418,48.6853],[2.2339,48.6888],[2.2171,48.6854],[2.2047,48.6852],[2.2047,48.6911],[2.2097,48.7016]]]}},{"type":"Feature","properties":{"code":"91148","nom":"Chauffour-lès-Étréchy","app":14.23,"app_bas":12.31,"app_haut":16.45,"app_ech":"maille","app_obs":5,"mai":13.58,"mai_bas":10.72,"mai_haut":17.2,"mai_ech":"maille","mai_obs":0},"geometry":{"type":"Polygon","coordinates":[[[2.1515,48.5015],[2.1502,48.5094],[2.1631,48.5137],[2.1754,48.5202],[2.1823,48.5181],[2.1911,48.5113],[2.1764,48.5049],[2.1792,48.4956],[2.1656,48.4978],[2.1524,48.4974],[2.1515,48.5015]]]}},{"type":"Feature","properties":{"code":"91222","nom":"Estouches","app":null,"app_bas":null,"app_haut":null,"app_ech":null,"app_obs":0,"mai":null,"mai_bas":null,"mai_haut":null,"mai_ech":null,"mai_obs":0},"geometry":{"type":"Polygon","coordinates":[[[2.1137,48.3072],[2.1188,48.3239],[2.1314,48.3234],[2.1295,48.3157],[2.1451,48.3083],[2.1539,48.3084],[2.1619,48.3026],[2.1616,48.2984],[2.1361,48.2992],[2.1106,48.2969],[2.1137,48.3072]]]}},{"type":"Feature","properties":{"code":"91376","nom":"Marolles-en-Hurepoix","app":16.84,"app_bas":14.38,"app_haut":19.72,"app_ech":"commune","app_obs":233,"mai":14.7,"mai_bas":11.85,"mai_haut":18.25,"mai_ech":"maille","mai_obs":50},"geometry":{"type":"Polygon","coordinates":[[[2.3133,48.5758],[2.3136,48.5583],[2.317,48.5529],[2.3119,48.5477],[2.2995,48.5516],[2.2827,48.5595],[2.2817,48.5725],[2.2904,48.5811],[2.3133,48.5758]]]}},{"type":"Feature","properties":{"code":"91634","nom":"Vaugrigneuse","app":16.93,"app_bas":14.82,"app_haut":19.34,"app_ech":"commune","app_obs":137,"mai":14.04,"mai_bas":11.23,"mai_haut":17.56,"mai_ech":"maille","mai_obs":68},"geometry":{"type":"Polygon","coordinates":[[[2.093,48.5935],[2.0872,48.594],[2.0779,48.5991],[2.0806,48.6026],[2.1003,48.6136],[2.102,48.6105],[2.1237,48.6099],[2.1301,48.6031],[2.131,48.6001],[2.1187,48.592],[2.11,48.5896],[2.093,48.5935]]]}},{"type":"Feature","properties":{"code":"91286","nom":"Grigny","app":15.53,"app_bas":12.5,"app_haut":19.28,"app_ech":"commune","app_obs":1043,"mai":15.58,"mai_bas":12.39,"mai_haut":19.59,"mai_ech":"maille","mai_obs":31},"geometry":{"type":"Polygon","coordinates":[[[2.3914,48.6432],[2.3857,48.6457],[2.3694,48.644],[2.3658,48.6462],[2.3799,48.6634],[2.3963,48.6735],[2.4071,48.6674],[2.3984,48.6564],[2.3914,48.6432]]]}},{"type":"Feature","properties":{"code":"91659","nom":"Villabé","app":16.11,"app_bas":13.97,"app_haut":18.56,"app_ech":"commune","app_obs":453,"mai":14.77,"mai_bas":11.97,"mai_haut":18.23,"mai_ech":"maille","mai_obs":87},"geometry":{"type":"Polygon","coordinates":[[[2.4505,48.5955],[2.4637,48.5952],[2.4692,48.5868],[2.4696,48.5786],[2.4394,48.5771],[2.4325,48.589],[2.4505,48.5955]]]}},{"type":"Feature","properties":{"code":"91249","nom":"Forges-les-Bains","app":16.89,"app_bas":14.28,"app_haut":19.99,"app_ech":"commune","app_obs":259,"mai":14.51,"mai_bas":11.56,"mai_haut":18.22,"mai_ech":"commune","mai_obs":105},"geometry":{"type":"Polygon","coordinates":[[[2.1179,48.6378],[2.1197,48.6289],[2.1125,48.6204],[2.0806,48.6026],[2.0779,48.5991],[2.0691,48.5952],[2.0595,48.5979],[2.0548,48.608],[2.0602,48.6176],[2.0459,48.6227],[2.0426,48.6264],[2.0637,48.6279],[2.0941,48.6363],[2.0999,48.641],[2.1179,48.6378]]]}},{"type":"Feature","properties":{"code":"91568","nom":"Saint-Maurice-Montcouronne","app":16.51,"app_bas":14.46,"app_haut":18.85,"app_ech":"maille","app_obs":51,"mai":14.04,"mai_bas":11.23,"mai_haut":17.56,"mai_ech":"maille","mai_obs":26},"geometry":{"type":"Polygon","coordinates":[[[2.093,48.5935],[2.11,48.5896],[2.1187,48.592],[2.1409,48.5915],[2.1464,48.5871],[2.1475,48.5838],[2.1534,48.5771],[2.1418,48.5752],[2.1296,48.5701],[2.1207,48.5677],[2.1195,48.563],[2.1016,48.5548],[2.1046,48.5757],[2.1083,48.5841],[2.0947,48.5871],[2.093,48.5935]]]}},{"type":"Feature","properties":{"code":"91691","nom":"Yerres","app":18.85,"app_bas":15.94,"app_haut":22.29,"app_ech":"commune","app_obs":2530,"mai":17.16,"mai_bas":12.71,"mai_haut":23.17,"mai_ech":"commune","mai_obs":156},"geometry":{"type":"Polygon","coordinates":[[[2.4846,48.7291],[2.5035,48.7352],[2.5101,48.7347],[2.5157,48.7289],[2.5191,48.7126],[2.5032,48.7098],[2.4893,48.7014],[2.49,48.6943],[2.4823,48.6899],[2.4746,48.6961],[2.4761,48.7113],[2.4655,48.712],[2.4724,48.7178],[2.4754,48.7276],[2.4846,48.7291]]]}},{"type":"Feature","properties":{"code":"91186","nom":"Courson-Monteloup","app":17.07,"app_bas":14.51,"app_haut":20.09,"app_ech":"maille","app_obs":14,"mai":14.04,"mai_bas":11.23,"mai_haut":17.56,"mai_ech":"maille","mai_obs":2},"geometry":{"type":"Polygon","coordinates":[[[2.1424,48.61],[2.151,48.6099],[2.1592,48.5998],[2.1523,48.5907],[2.1464,48.5871],[2.1409,48.5915],[2.1187,48.592],[2.131,48.6001],[2.1301,48.6031],[2.1426,48.6054],[2.1424,48.61]]]}},{"type":"Feature","properties":{"code":"91434","nom":"Morsang-sur-Orge","app":17.35,"app_bas":14.7,"app_haut":20.47,"app_ech":"commune","app_obs":1249,"mai":16.16,"mai_bas":12.98,"mai_haut":20.11,"mai_ech":"commune","mai_obs":174},"geometry":{"type":"Polygon","coordinates":[[[2.3369,48.6503],[2.342,48.6676],[2.3555,48.6708],[2.365,48.6556],[2.3625,48.648],[2.3554,48.6412],[2.3369,48.6503]]]}},{"type":"Feature","properties":{"code":"91687","nom":"Viry-Châtillon","app":16.92,"app_bas":14.24,"app_haut":20.1,"app_ech":"commune","app_obs":3514,"mai":15.55,"mai_bas":12.36,"mai_haut":19.55,"mai_ech":"commune","mai_obs":140},"geometry":{"type":"Polygon","coordinates":[[[2.3719,48.6857],[2.3859,48.6835],[2.3881,48.6784],[2.3963,48.6735],[2.3799,48.6634],[2.3658,48.6462],[2.3625,48.648],[2.365,48.6556],[2.3555,48.6708],[2.3719,48.6857]]]}},{"type":"Feature","properties":{"code":"91273","nom":"Gironville-sur-Essonne","app":13.94,"app_bas":11.95,"app_haut":16.26,"app_ech":"maille","app_obs":13,"mai":12.56,"mai_bas":10.04,"mai_haut":15.71,"mai_ech":"maille","mai_obs":6},"geometry":{"type":"Polygon","coordinates":[[[2.3273,48.3492],[2.3161,48.355],[2.3029,48.3564],[2.3087,48.3692],[2.3272,48.3785],[2.3369,48.3777],[2.3659,48.3786],[2.3867,48.3817],[2.383,48.3585],[2.3638,48.3589],[2.3501,48.3607],[2.3362,48.3551],[2.3273,48.3492]]]}},{"type":"Feature","properties":{"code":"91067","nom":"Blandy","app":11.76,"app_bas":9.98,"app_haut":13.86,"app_ech":"maille","app_obs":0,"mai":10.73,"mai_bas":8.6,"mai_haut":13.38,"mai_ech":"maille","mai_obs":2},"geometry":{"type":"Polygon","coordinates":[[[2.2548,48.3014],[2.2452,48.2984],[2.2494,48.3146],[2.238,48.3164],[2.2544,48.342],[2.2766,48.342],[2.2766,48.3323],[2.2691,48.315],[2.2548,48.3014]]]}},{"type":"Feature","properties":{"code":"91338","nom":"Limours","app":16.56,"app_bas":14.32,"app_haut":19.16,"app_ech":"commune","app_obs":680,"mai":16,"mai_bas":12.72,"mai_haut":20.11,"mai_ech":"commune","mai_obs":122},"geometry":{"type":"Polygon","coordinates":[[[2.0539,48.6592],[2.0618,48.6624],[2.0766,48.6604],[2.0923,48.6633],[2.0971,48.6663],[2.1004,48.6594],[2.1196,48.6519],[2.115,48.6463],[2.1221,48.641],[2.1179,48.6378],[2.0999,48.641],[2.0941,48.6363],[2.0637,48.6279],[2.0426,48.6264],[2.0416,48.6269],[2.0625,48.6481],[2.049,48.6502],[2.0539,48.6592]]]}},{"type":"Feature","properties":{"code":"91662","nom":"Villeconin","app":14.23,"app_bas":12.31,"app_haut":16.45,"app_ech":"maille","app_obs":16,"mai":12.86,"mai_bas":10.32,"mai_haut":16.02,"mai_ech":"maille","mai_obs":11},"geometry":{"type":"Polygon","coordinates":[[[2.1515,48.5015],[2.1391,48.488],[2.1487,48.4807],[2.1372,48.4765],[2.1277,48.4673],[2.1209,48.4676],[2.1196,48.4747],[2.123,48.4822],[2.1217,48.4914],[2.1071,48.4934],[2.1013,48.4999],[2.1071,48.5092],[2.1129,48.5152],[2.108,48.5212],[2.1224,48.5294],[2.1436,48.5228],[2.1502,48.5094],[2.1515,48.5015]]]}},{"type":"Feature","properties":{"code":"91671","nom":"Villeneuve-sur-Auvers","app":14.53,"app_bas":12.34,"app_haut":17.1,"app_ech":"maille","app_obs":11,"mai":12.97,"mai_bas":10.42,"mai_haut":16.14,"mai_ech":"maille","mai_obs":4},"geometry":{"type":"Polygon","coordinates":[[[2.2706,48.4792],[2.2668,48.4712],[2.2751,48.463],[2.2659,48.4585],[2.2626,48.4506],[2.2556,48.4471],[2.2485,48.4496],[2.2487,48.4558],[2.2427,48.4619],[2.2313,48.4682],[2.2338,48.4767],[2.2474,48.4774],[2.2648,48.4819],[2.2706,48.4792]]]}},{"type":"Feature","properties":{"code":"91145","nom":"Chatignonville","app":13.97,"app_bas":11.98,"app_haut":16.29,"app_ech":"maille","app_obs":0,"mai":10.59,"mai_bas":8.51,"mai_haut":13.19,"mai_ech":"maille","mai_obs":0},"geometry":{"type":"Polygon","coordinates":[[[1.9221,48.4576],[1.9163,48.4649],[1.9149,48.4739],[1.9331,48.4814],[1.9556,48.4726],[1.9482,48.469],[1.9306,48.4537],[1.9221,48.4576]]]}},{"type":"Feature","properties":{"code":"91435","nom":"Morsang-sur-Seine","app":15.25,"app_bas":13.34,"app_haut":17.44,"app_ech":"maille","app_obs":18,"mai":15.16,"mai_bas":11.96,"mai_haut":19.22,"mai_ech":"maille","mai_obs":6},"geometry":{"type":"Polygon","coordinates":[[[2.4824,48.5826],[2.489,48.5812],[2.5089,48.584],[2.5183,48.5833],[2.5218,48.5732],[2.4998,48.5673],[2.4879,48.5684],[2.4801,48.577],[2.4824,48.5826]]]}},{"type":"Feature","properties":{"code":"91121","nom":"Buno-Bonnevaux","app":14.45,"app_bas":11.78,"app_haut":17.72,"app_ech":"maille","app_obs":8,"mai":12.97,"mai_bas":10.42,"mai_haut":16.14,"mai_ech":"maille","mai_obs":2},"geometry":{"type":"Polygon","coordinates":[[[2.4081,48.3869],[2.4097,48.3739],[2.4142,48.3695],[2.4298,48.362],[2.444,48.3573],[2.4353,48.3536],[2.4293,48.3466],[2.4338,48.3345],[2.4256,48.3372],[2.3924,48.3359],[2.3854,48.3477],[2.383,48.3585],[2.3867,48.3817],[2.4081,48.3869]]]}},{"type":"Feature","properties":{"code":"91198","nom":"D'Huison-Longueville","app":15.96,"app_bas":13.66,"app_haut":18.65,"app_ech":"maille","app_obs":42,"mai":12.97,"mai_bas":10.42,"mai_haut":16.14,"mai_ech":"maille","mai_obs":19},"geometry":{"type":"Polygon","coordinates":[[[2.2929,48.4592],[2.2938,48.463],[2.3041,48.4672],[2.3196,48.4642],[2.3383,48.4753],[2.3442,48.4763],[2.3486,48.4721],[2.3459,48.4591],[2.3531,48.4514],[2.3398,48.4446],[2.3286,48.4334],[2.319,48.4417],[2.3117,48.4513],[2.2929,48.4592]]]}},{"type":"Feature","properties":{"code":"91412","nom":"Mondeville","app":14.98,"app_bas":12.46,"app_haut":18,"app_ech":"maille","app_obs":25,"mai":13.78,"mai_bas":10.77,"mai_haut":17.63,"mai_ech":"maille","mai_obs":5},"geometry":{"type":"Polygon","coordinates":[[[2.4362,48.4803],[2.4152,48.4811],[2.3963,48.4895],[2.3993,48.5011],[2.4183,48.5046],[2.4406,48.495],[2.4378,48.4875],[2.4498,48.4843],[2.4362,48.4803]]]}},{"type":"Feature","properties":{"code":"91507","nom":"Prunay-sur-Essonne","app":13.94,"app_bas":11.95,"app_haut":16.26,"app_ech":"maille","app_obs":1,"mai":12.97,"mai_bas":10.42,"mai_haut":16.14,"mai_ech":"maille","mai_obs":2},"geometry":{"type":"Polygon","coordinates":[[[2.3273,48.3492],[2.3362,48.3551],[2.3501,48.3607],[2.3638,48.3589],[2.383,48.3585],[2.3854,48.3477],[2.3753,48.3448],[2.345,48.3456],[2.3406,48.3507],[2.3273,48.3492]]]}},{"type":"Feature","properties":{"code":"91587","nom":"Saulx-les-Chartreux","app":17.06,"app_bas":14.39,"app_haut":20.22,"app_ech":"commune","app_obs":552,"mai":15.42,"mai_bas":12,"mai_haut":19.82,"mai_ech":"commune","mai_obs":102},"geometry":{"type":"Polygon","coordinates":[[[2.2682,48.7039],[2.2849,48.6991],[2.2861,48.6862],[2.277,48.6706],[2.265,48.6704],[2.2455,48.6737],[2.2454,48.6819],[2.2418,48.6853],[2.2641,48.6963],[2.2682,48.7039]]]}},{"type":"Feature","properties":{"code":"91195","nom":"Dannemois","app":14.98,"app_bas":12.46,"app_haut":18,"app_ech":"maille","app_obs":78,"mai":13.78,"mai_bas":10.77,"mai_haut":17.63,"mai_ech":"maille","mai_obs":23},"geometry":{"type":"Polygon","coordinates":[[[2.4451,48.4754],[2.4563,48.4763],[2.4741,48.4675],[2.4778,48.464],[2.4996,48.4591],[2.4979,48.4573],[2.4767,48.4462],[2.4684,48.4441],[2.4447,48.4526],[2.447,48.4606],[2.4415,48.4683],[2.4451,48.4754]]]}},{"type":"Feature","properties":{"code":"91689","nom":"Wissous","app":19.57,"app_bas":16.59,"app_haut":23.08,"app_ech":"commune","app_obs":972,"mai":21.6,"mai_bas":16.17,"mai_haut":28.85,"mai_ech":"maille","mai_obs":43},"geometry":{"type":"Polygon","coordinates":[[[2.3307,48.7481],[2.3368,48.7432],[2.354,48.7387],[2.3499,48.734],[2.3441,48.7169],[2.3329,48.7106],[2.325,48.7109],[2.324,48.7182],[2.3192,48.7213],[2.3017,48.7197],[2.3038,48.7295],[2.3133,48.7303],[2.3162,48.742],[2.3207,48.7488],[2.3307,48.7481]]]}},{"type":"Feature","properties":{"code":"91175","nom":"Corbreuse","app":13.97,"app_bas":11.98,"app_haut":16.29,"app_ech":"maille","app_obs":54,"mai":10.59,"mai_bas":8.51,"mai_haut":13.19,"mai_ech":"maille","mai_obs":37},"geometry":{"type":"Polygon","coordinates":[[[1.9529,48.5235],[1.9677,48.5262],[1.9607,48.5216],[1.9638,48.5145],[1.9782,48.5058],[1.9916,48.4864],[1.99,48.4774],[1.9687,48.4758],[1.9556,48.4726],[1.9331,48.4814],[1.9343,48.4958],[1.946,48.5147],[1.9529,48.5235]]]}},{"type":"Feature","properties":{"code":"91244","nom":"Fontenay-le-Vicomte","app":15.98,"app_bas":13.72,"app_haut":18.62,"app_ech":"maille","app_obs":47,"mai":14.77,"mai_bas":11.97,"mai_haut":18.23,"mai_ech":"maille","mai_obs":29},"geometry":{"type":"Polygon","coordinates":[[[2.3744,48.5454],[2.3763,48.5494],[2.4028,48.5632],[2.4252,48.5445],[2.4046,48.5315],[2.3744,48.5454]]]}},{"type":"Feature","properties":{"code":"91225","nom":"Étiolles","app":17.67,"app_bas":14.93,"app_haut":20.91,"app_ech":"commune","app_obs":208,"mai":16.5,"mai_bas":12.5,"mai_haut":21.78,"mai_ech":"maille","mai_obs":28},"geometry":{"type":"Polygon","coordinates":[[[2.4523,48.6376],[2.4662,48.6476],[2.4691,48.6629],[2.5042,48.6718],[2.5182,48.6604],[2.5074,48.6562],[2.4813,48.6292],[2.471,48.6252],[2.4523,48.6376]]]}},{"type":"Feature","properties":{"code":"91016","nom":"Angerville","app":13.41,"app_bas":11.38,"app_haut":15.81,"app_ech":"commune","app_obs":552,"mai":10.76,"mai_bas":8.6,"mai_haut":13.47,"mai_ech":"commune","mai_obs":148},"geometry":{"type":"Polygon","coordinates":[[[2.0142,48.3378],[2.02,48.3386],[2.0438,48.3331],[2.0323,48.3221],[2.0293,48.3061],[2.0365,48.2968],[2.0527,48.2955],[2.0515,48.2902],[2.0228,48.2881],[2.0072,48.2847],[1.9941,48.2866],[1.9753,48.2872],[1.9745,48.2929],[1.9666,48.2956],[1.9592,48.3087],[1.9694,48.3142],[1.9791,48.3139],[1.9745,48.3232],[1.9867,48.331],[2.0142,48.3378]]]}},{"type":"Feature","properties":{"code":"91044","nom":"Ballainvilliers","app":18.22,"app_bas":15.68,"app_haut":21.17,"app_ech":"commune","app_obs":469,"mai":15.86,"mai_bas":12.36,"mai_haut":20.35,"mai_ech":"maille","mai_obs":83},"geometry":{"type":"Polygon","coordinates":[[[2.2861,48.6862],[2.3052,48.6783],[2.3001,48.6696],[2.2913,48.6576],[2.2761,48.6602],[2.277,48.6706],[2.2861,48.6862]]]}},{"type":"Feature","properties":{"code":"91216","nom":"Épinay-sur-Orge","app":18.11,"app_bas":15.43,"app_haut":21.25,"app_ech":"commune","app_obs":1480,"mai":15.86,"mai_bas":12.36,"mai_haut":20.35,"mai_ech":"maille","mai_obs":80},"geometry":{"type":"Polygon","coordinates":[[[2.3187,48.6656],[2.3094,48.657],[2.3037,48.6679],[2.3001,48.6696],[2.3052,48.6783],[2.3149,48.6802],[2.3264,48.6865],[2.3326,48.6799],[2.3381,48.6674],[2.3255,48.6689],[2.3187,48.6656]]]}},{"type":"Feature","properties":{"code":"91047","nom":"Baulne","app":14.98,"app_bas":12.46,"app_haut":18,"app_ech":"maille","app_obs":95,"mai":12.97,"mai_bas":10.42,"mai_haut":16.14,"mai_ech":"maille","mai_obs":31},"geometry":{"type":"Polygon","coordinates":[[[2.4152,48.4811],[2.3989,48.4783],[2.3914,48.4807],[2.3881,48.4846],[2.3662,48.491],[2.3466,48.4867],[2.3523,48.4898],[2.3578,48.4953],[2.3664,48.5103],[2.379,48.5092],[2.4062,48.5039],[2.4065,48.5023],[2.3993,48.5011],[2.3963,48.4895],[2.4152,48.4811]]]}},{"type":"Feature","properties":{"code":"91111","nom":"Briis-sous-Forges","app":16.78,"app_bas":14.27,"app_haut":19.75,"app_ech":"commune","app_obs":222,"mai":15.56,"mai_bas":12.41,"mai_haut":19.52,"mai_ech":"maille","mai_obs":68},"geometry":{"type":"Polygon","coordinates":[[[2.1003,48.6136],[2.1125,48.6204],[2.1197,48.6289],[2.1179,48.6378],[2.1221,48.641],[2.115,48.6463],[2.1196,48.6519],[2.1327,48.6554],[2.1307,48.6411],[2.1446,48.6441],[2.1528,48.6341],[2.1602,48.6292],[2.1516,48.627],[2.1432,48.6203],[2.1426,48.6054],[2.1301,48.6031],[2.1237,48.6099],[2.102,48.6105],[2.1003,48.6136]]]}},{"type":"Feature","properties":{"code":"91319","nom":"Janvry","app":17.07,"app_bas":14.51,"app_haut":20.09,"app_ech":"maille","app_obs":26,"mai":15.86,"mai_bas":12.36,"mai_haut":20.35,"mai_ech":"maille","mai_obs":12},"geometry":{"type":"Polygon","coordinates":[[[2.1387,48.6651],[2.1554,48.6593],[2.1771,48.656],[2.165,48.6443],[2.1818,48.6319],[2.1743,48.6263],[2.1602,48.6292],[2.1528,48.6341],[2.1446,48.6441],[2.1307,48.6411],[2.1327,48.6554],[2.1387,48.6651]]]}},{"type":"Feature","properties":{"code":"91477","nom":"Palaiseau","app":19.48,"app_bas":16.35,"app_haut":23.21,"app_ech":"commune","app_obs":3583,"mai":17.3,"mai_bas":13.48,"mai_haut":22.2,"mai_ech":"commune","mai_obs":135},"geometry":{"type":"Polygon","coordinates":[[[2.2035,48.721],[2.2129,48.7288],[2.2245,48.7259],[2.2355,48.7276],[2.2508,48.7262],[2.2668,48.7183],[2.2593,48.7065],[2.2269,48.7017],[2.2097,48.7016],[2.1935,48.7102],[2.1935,48.7187],[2.2035,48.721]]]}},{"type":"Feature","properties":{"code":"91414","nom":"Monnerville","app":10.91,"app_bas":9.29,"app_haut":12.8,"app_ech":"maille","app_obs":14,"mai":10.73,"mai_bas":8.6,"mai_haut":13.38,"mai_ech":"maille","mai_obs":6},"geometry":{"type":"Polygon","coordinates":[[[2.0142,48.3378],[2.0121,48.3544],[2.0272,48.3532],[2.028,48.3612],[2.0442,48.3607],[2.0586,48.3573],[2.0618,48.3435],[2.0438,48.3331],[2.02,48.3386],[2.0142,48.3378]]]}},{"type":"Feature","properties":{"code":"91613","nom":"Congerville-Thionville","app":13.97,"app_bas":11.98,"app_haut":16.29,"app_ech":"maille","app_obs":1,"mai":10.73,"mai_bas":8.6,"mai_haut":13.38,"mai_ech":"maille","mai_obs":0},"geometry":{"type":"Polygon","coordinates":[[[2.0017,48.3956],[1.9943,48.3823],[2.0067,48.3763],[2.0136,48.3767],[2.0159,48.37],[2.0113,48.3634],[1.989,48.3669],[1.9874,48.3638],[1.9809,48.3702],[1.9763,48.3803],[1.9667,48.3804],[1.9785,48.401],[2.0054,48.4012],[2.0017,48.3956]]]}},{"type":"Feature","properties":{"code":"91235","nom":"Fleury-Mérogis","app":17.42,"app_bas":14.76,"app_haut":20.55,"app_ech":"commune","app_obs":467,"mai":15.95,"mai_bas":12.79,"mai_haut":19.88,"mai_ech":"maille","mai_obs":10},"geometry":{"type":"Polygon","coordinates":[[[2.3499,48.6202],[2.3554,48.6412],[2.3625,48.648],[2.3694,48.644],[2.3857,48.6457],[2.3914,48.6432],[2.3835,48.63],[2.3762,48.6271],[2.3715,48.6177],[2.3594,48.6181],[2.3499,48.6202]]]}},{"type":"Feature","properties":{"code":"91274","nom":"Gometz-la-Ville","app":16.91,"app_bas":14.4,"app_haut":19.87,"app_ech":"commune","app_obs":158,"mai":15.56,"mai_bas":12.41,"mai_haut":19.52,"mai_ech":"maille","mai_obs":41},"geometry":{"type":"Polygon","coordinates":[[[2.1387,48.6651],[2.1327,48.6554],[2.1196,48.6519],[2.1004,48.6594],[2.0971,48.6663],[2.0907,48.6704],[2.0915,48.6833],[2.0821,48.6854],[2.0858,48.6925],[2.1059,48.6945],[2.1161,48.691],[2.1056,48.6868],[2.103,48.6764],[2.1121,48.674],[2.1216,48.6802],[2.1387,48.6651]]]}},{"type":"Feature","properties":{"code":"91593","nom":"Sermaise","app":14.72,"app_bas":12.23,"app_haut":17.7,"app_ech":"maille","app_obs":64,"mai":12.86,"mai_bas":10.32,"mai_haut":16.02,"mai_ech":"maille","mai_obs":14},"geometry":{"type":"Polygon","coordinates":[[[2.074,48.5099],[2.0697,48.5168],[2.0638,48.5339],[2.0608,48.5495],[2.0818,48.5498],[2.0931,48.5523],[2.0962,48.5449],[2.1114,48.5372],[2.1224,48.5294],[2.108,48.5212],[2.1129,48.5152],[2.1071,48.5092],[2.0963,48.5137],[2.0823,48.5133],[2.074,48.5099]]]}},{"type":"Feature","properties":{"code":"91001","nom":"Abbéville-la-Rivière","app":15.89,"app_bas":13.3,"app_haut":18.97,"app_ech":"maille","app_obs":4,"mai":10.73,"mai_bas":8.6,"mai_haut":13.38,"mai_ech":"maille","mai_obs":1},"geometry":{"type":"Polygon","coordinates":[[[2.1708,48.315],[2.1614,48.3151],[2.1606,48.3259],[2.1725,48.3324],[2.1703,48.3401],[2.1562,48.3471],[2.156,48.3483],[2.1678,48.3549],[2.1884,48.3605],[2.2049,48.3598],[2.236,48.3609],[2.238,48.3512],[2.2307,48.3467],[2.2071,48.3449],[2.1915,48.3339],[2.185,48.3264],[2.1815,48.3138],[2.1708,48.315]]]}},{"type":"Feature","properties":{"code":"91629","nom":"Valpuiseaux","app":13.94,"app_bas":11.95,"app_haut":16.26,"app_ech":"maille","app_obs":2,"mai":12.97,"mai_bas":10.42,"mai_haut":16.14,"mai_ech":"maille","mai_obs":3},"geometry":{"type":"Polygon","coordinates":[[[2.3323,48.4121],[2.3313,48.4077],[2.3247,48.4015],[2.3298,48.3897],[2.3272,48.3785],[2.3087,48.3692],[2.2938,48.371],[2.2673,48.3718],[2.2746,48.3961],[2.282,48.3961],[2.29,48.4027],[2.2887,48.4118],[2.3083,48.4165],[2.3206,48.4209],[2.3248,48.4249],[2.3323,48.4121]]]}},{"type":"Feature","properties":{"code":"91114","nom":"Brunoy","app":18.71,"app_bas":15.76,"app_haut":22.22,"app_ech":"commune","app_obs":2546,"mai":16.63,"mai_bas":13.44,"mai_haut":20.58,"mai_ech":"commune","mai_obs":193},"geometry":{"type":"Polygon","coordinates":[[[2.5296,48.7062],[2.5269,48.7047],[2.5224,48.7049],[2.5081,48.6906],[2.5139,48.6855],[2.4982,48.6767],[2.4823,48.6899],[2.49,48.6943],[2.4893,48.7014],[2.5032,48.7098],[2.5191,48.7126],[2.5296,48.7062]]]}},{"type":"Feature","properties":{"code":"91207","nom":"Égly","app":16.89,"app_bas":14.47,"app_haut":19.71,"app_ech":"commune","app_obs":273,"mai":13.58,"mai_bas":10.72,"mai_haut":17.2,"mai_ech":"maille","mai_obs":57},"geometry":{"type":"Polygon","coordinates":[[[2.1985,48.5757],[2.1991,48.5801],[2.2257,48.5842],[2.2349,48.589],[2.2381,48.5761],[2.2264,48.5668],[2.2111,48.5696],[2.1985,48.5757]]]}},{"type":"Feature","properties":{"code":"91293","nom":"Guigneville-sur-Essonne","app":14.98,"app_bas":12.46,"app_haut":18,"app_ech":"maille","app_obs":26,"mai":12.97,"mai_bas":10.42,"mai_haut":16.14,"mai_ech":"maille","mai_obs":9},"geometry":{"type":"Polygon","coordinates":[[[2.3625,48.4486],[2.3531,48.4514],[2.3459,48.4591],[2.3486,48.4721],[2.3506,48.477],[2.4008,48.4716],[2.3999,48.4604],[2.3694,48.4494],[2.3625,48.4486]]]}},{"type":"Feature","properties":{"code":"91421","nom":"Montgeron","app":17.76,"app_bas":14.97,"app_haut":21.09,"app_ech":"commune","app_obs":2210,"mai":17.4,"mai_bas":12.86,"mai_haut":23.54,"mai_ech":"commune","mai_obs":175},"geometry":{"type":"Polygon","coordinates":[[[2.4932,48.6807],[2.464,48.6729],[2.4438,48.6955],[2.4369,48.7075],[2.4372,48.7148],[2.4428,48.7207],[2.4512,48.7149],[2.4655,48.712],[2.4761,48.7113],[2.4746,48.6961],[2.4932,48.6807]]]}},{"type":"Feature","properties":{"code":"91461","nom":"Ollainville","app":16.51,"app_bas":14.03,"app_haut":19.44,"app_ech":"commune","app_obs":193,"mai":13.58,"mai_bas":10.72,"mai_haut":17.2,"mai_ech":"maille","mai_obs":65},"geometry":{"type":"Polygon","coordinates":[[[2.2255,48.6286],[2.224,48.6226],[2.2364,48.6125],[2.2429,48.6037],[2.2373,48.5996],[2.2349,48.589],[2.2257,48.5842],[2.2136,48.5825],[2.2032,48.5844],[2.2022,48.5981],[2.2133,48.6068],[2.1978,48.6186],[2.1976,48.6248],[2.2051,48.6309],[2.2255,48.6286]]]}},{"type":"Feature","properties":{"code":"91292","nom":"Guibeville","app":16.74,"app_bas":14.29,"app_haut":19.61,"app_ech":"maille","app_obs":12,"mai":14.7,"mai_bas":11.85,"mai_haut":18.25,"mai_ech":"maille","mai_obs":3},"geometry":{"type":"Polygon","coordinates":[[[2.2635,48.5621],[2.2592,48.5732],[2.2685,48.5761],[2.2817,48.5725],[2.2827,48.5595],[2.2775,48.5578],[2.2635,48.5621]]]}},{"type":"Feature","properties":{"code":"91191","nom":"Crosne","app":18.33,"app_bas":15.79,"app_haut":21.28,"app_ech":"commune","app_obs":930,"mai":16.77,"mai_bas":12.41,"mai_haut":22.68,"mai_ech":"maille","mai_obs":50},"geometry":{"type":"Polygon","coordinates":[[[2.4512,48.7149],[2.4549,48.7227],[2.4674,48.7287],[2.4754,48.7276],[2.4724,48.7178],[2.4655,48.712],[2.4512,48.7149]]]}},{"type":"Feature","properties":{"code":"91226","nom":"Étréchy","app":14.61,"app_bas":12.64,"app_haut":16.89,"app_ech":"commune","app_obs":986,"mai":12.86,"mai_bas":10.32,"mai_haut":16.02,"mai_ech":"maille","mai_obs":87},"geometry":{"type":"Polygon","coordinates":[[[2.1515,48.5015],[2.1524,48.4974],[2.1656,48.4978],[2.1792,48.4956],[2.1764,48.5049],[2.1911,48.5113],[2.1823,48.5181],[2.1873,48.5183],[2.2035,48.5166],[2.2073,48.5053],[2.2166,48.4993],[2.2054,48.4882],[2.1932,48.4803],[2.1892,48.4752],[2.1616,48.4747],[2.1487,48.4807],[2.1391,48.488],[2.1515,48.5015]]]}},{"type":"Feature","properties":{"code":"91294","nom":"Guillerval","app":13.97,"app_bas":11.98,"app_haut":16.29,"app_ech":"maille","app_obs":39,"mai":10.73,"mai_bas":8.6,"mai_haut":13.38,"mai_ech":"maille","mai_obs":11},"geometry":{"type":"Polygon","coordinates":[[[2.0618,48.3435],[2.0586,48.3573],[2.0442,48.3607],[2.0506,48.3851],[2.0716,48.3926],[2.0951,48.3841],[2.1098,48.3731],[2.1083,48.3633],[2.094,48.3575],[2.091,48.3527],[2.073,48.3402],[2.0618,48.3435]]]}},{"type":"Feature","properties":{"code":"91326","nom":"Juvisy-sur-Orge","app":19.59,"app_bas":16.44,"app_haut":23.34,"app_ech":"commune","app_obs":4276,"mai":16.23,"mai_bas":11.51,"mai_haut":22.87,"mai_ech":"maille","mai_obs":89},"geometry":{"type":"Polygon","coordinates":[[[2.3719,48.6857],[2.3582,48.6939],[2.3597,48.6995],[2.3719,48.6981],[2.3899,48.6919],[2.3859,48.6835],[2.3719,48.6857]]]}},{"type":"Feature","properties":{"code":"91534","nom":"Saclay","app":18.44,"app_bas":15.27,"app_haut":22.26,"app_ech":"commune","app_obs":250,"mai":18.98,"mai_bas":14.65,"mai_haut":24.58,"mai_ech":"maille","mai_obs":62},"geometry":{"type":"Polygon","coordinates":[[[2.135,48.7371],[2.1389,48.7431],[2.1384,48.7462],[2.1507,48.7537],[2.1605,48.752],[2.168,48.7568],[2.182,48.7576],[2.1895,48.7542],[2.1826,48.7414],[2.1902,48.7393],[2.1827,48.7277],[2.2035,48.721],[2.1935,48.7187],[2.1833,48.7182],[2.1717,48.7148],[2.1551,48.7181],[2.1439,48.7231],[2.1419,48.733],[2.135,48.7371]]]}},{"type":"Feature","properties":{"code":"91639","nom":"Vayres-sur-Essonne","app":15.96,"app_bas":13.66,"app_haut":18.65,"app_ech":"maille","app_obs":17,"mai":12.97,"mai_bas":10.42,"mai_haut":16.14,"mai_ech":"maille","mai_obs":11},"geometry":{"type":"Polygon","coordinates":[[[2.3286,48.4334],[2.3398,48.4446],[2.3531,48.4514],[2.3625,48.4486],[2.3619,48.4407],[2.3734,48.4341],[2.3559,48.4258],[2.3575,48.4196],[2.3473,48.4152],[2.3396,48.4179],[2.3323,48.4121],[2.3248,48.4249],[2.3286,48.4334]]]}},{"type":"Feature","properties":{"code":"91069","nom":"Boigneville","app":14.45,"app_bas":11.78,"app_haut":17.72,"app_ech":"maille","app_obs":25,"mai":12.97,"mai_bas":10.42,"mai_haut":16.14,"mai_ech":"maille","mai_obs":1},"geometry":{"type":"Polygon","coordinates":[[[2.4027,48.3207],[2.3969,48.3148],[2.3698,48.3087],[2.3559,48.3103],[2.3552,48.3135],[2.3402,48.3202],[2.3309,48.3267],[2.3293,48.3328],[2.345,48.3456],[2.3753,48.3448],[2.3854,48.3477],[2.3924,48.3359],[2.3936,48.3309],[2.4027,48.3207]]]}},{"type":"Feature","properties":{"code":"91085","nom":"Boissy-sous-Saint-Yon","app":15.9,"app_bas":13.61,"app_haut":18.58,"app_ech":"commune","app_obs":161,"mai":13.58,"mai_bas":10.72,"mai_haut":17.2,"mai_ech":"maille","mai_obs":32},"geometry":{"type":"Polygon","coordinates":[[[2.2082,48.5338],[2.1926,48.5425],[2.1882,48.5469],[2.2019,48.5565],[2.2111,48.5696],[2.2264,48.5668],[2.2236,48.5509],[2.2334,48.5468],[2.234,48.5401],[2.2243,48.5391],[2.2204,48.5317],[2.2082,48.5338]]]}},{"type":"Feature","properties":{"code":"91666","nom":"Villejust","app":17.8,"app_bas":15.07,"app_haut":21.02,"app_ech":"commune","app_obs":205,"mai":15.5,"mai_bas":12.2,"mai_haut":19.68,"mai_ech":"maille","mai_obs":56},"geometry":{"type":"Polygon","coordinates":[[[2.1955,48.6689],[2.2114,48.6788],[2.2047,48.6852],[2.2171,48.6854],[2.2339,48.6888],[2.2418,48.6853],[2.2454,48.6819],[2.2455,48.6737],[2.2136,48.6719],[2.2084,48.6661],[2.1955,48.6689]]]}},{"type":"Feature","properties":{"code":"91064","nom":"Bièvres","app":19.86,"app_bas":16.67,"app_haut":23.66,"app_ech":"commune","app_obs":359,"mai":18.98,"mai_bas":14.65,"mai_haut":24.58,"mai_ech":"maille","mai_obs":34},"geometry":{"type":"Polygon","coordinates":[[[2.1895,48.7542],[2.1923,48.7633],[2.1907,48.775],[2.1975,48.7754],[2.2099,48.7692],[2.2201,48.7711],[2.2266,48.7761],[2.2288,48.7745],[2.2329,48.766],[2.2257,48.7605],[2.2264,48.75],[2.204,48.7369],[2.1826,48.7414],[2.1895,48.7542]]]}},{"type":"Feature","properties":{"code":"91553","nom":"Saint-Germain-lès-Corbeil","app":17.62,"app_bas":15.01,"app_haut":20.68,"app_ech":"commune","app_obs":368,"mai":16.15,"mai_bas":12.24,"mai_haut":21.32,"mai_ech":"commune","mai_obs":107},"geometry":{"type":"Polygon","coordinates":[[[2.4858,48.6153],[2.471,48.6252],[2.4813,48.6292],[2.4916,48.6394],[2.5052,48.6319],[2.5114,48.6227],[2.5005,48.6164],[2.4858,48.6153]]]}},{"type":"Feature","properties":{"code":"91457","nom":"Norville","app":17.57,"app_bas":15,"app_haut":20.58,"app_ech":"commune","app_obs":230,"mai":13.58,"mai_bas":10.72,"mai_haut":17.2,"mai_ech":"maille","mai_obs":44},"geometry":{"type":"Polygon","coordinates":[[[2.2817,48.5725],[2.2685,48.5761],[2.2592,48.5732],[2.2416,48.5785],[2.2579,48.5912],[2.2607,48.5923],[2.2904,48.5811],[2.2817,48.5725]]]}},{"type":"Feature","properties":{"code":"91521","nom":"Ris-Orangis","app":17.42,"app_bas":14.91,"app_haut":20.34,"app_ech":"commune","app_obs":2059,"mai":15.89,"mai_bas":12.6,"mai_haut":20.03,"mai_ech":"commune","mai_obs":120},"geometry":{"type":"Polygon","coordinates":[[[2.3835,48.63],[2.3984,48.6564],[2.4071,48.6674],[2.4378,48.6485],[2.4263,48.641],[2.4133,48.6361],[2.3982,48.6265],[2.3993,48.6241],[2.3835,48.63]]]}},{"type":"Feature","properties":{"code":"91075","nom":"Bois-Herpin","app":13.94,"app_bas":11.95,"app_haut":16.26,"app_ech":"maille","app_obs":0,"mai":12.56,"mai_bas":10.04,"mai_haut":15.71,"mai_ech":"maille","mai_obs":0},"geometry":{"type":"Polygon","coordinates":[[[2.2476,48.3874],[2.2541,48.3823],[2.2587,48.3727],[2.2537,48.3615],[2.2477,48.364],[2.236,48.3609],[2.2298,48.3609],[2.2296,48.3695],[2.2221,48.3688],[2.2451,48.3809],[2.2476,48.3874]]]}},{"type":"Feature","properties":{"code":"91136","nom":"Champlan","app":17.75,"app_bas":14.53,"app_haut":21.67,"app_ech":"commune","app_obs":203,"mai":16.97,"mai_bas":12.39,"mai_haut":23.23,"mai_ech":"maille","mai_obs":32},"geometry":{"type":"Polygon","coordinates":[[[2.2682,48.7039],[2.2593,48.7065],[2.2668,48.7183],[2.2939,48.7121],[2.2938,48.7051],[2.2922,48.699],[2.2849,48.6991],[2.2682,48.7039]]]}},{"type":"Feature","properties":{"code":"91243","nom":"Fontenay-lès-Briis","app":16.34,"app_bas":13.8,"app_haut":19.35,"app_ech":"maille","app_obs":83,"mai":15.5,"mai_bas":12.2,"mai_haut":19.68,"mai_ech":"maille","mai_obs":48},"geometry":{"type":"Polygon","coordinates":[[[2.1464,48.5871],[2.1523,48.5907],[2.1592,48.5998],[2.151,48.6099],[2.1424,48.61],[2.1432,48.6203],[2.1516,48.627],[2.1602,48.6292],[2.1743,48.6263],[2.1818,48.6319],[2.1879,48.6386],[2.202,48.6284],[2.1845,48.628],[2.1765,48.6214],[2.178,48.614],[2.1719,48.6041],[2.1768,48.5938],[2.1735,48.5877],[2.1475,48.5838],[2.1464,48.5871]]]}},{"type":"Feature","properties":{"code":"91519","nom":"Richarville","app":14.72,"app_bas":12.23,"app_haut":17.7,"app_ech":"maille","app_obs":0,"mai":12.86,"mai_bas":10.32,"mai_haut":16.02,"mai_ech":"maille","mai_obs":2},"geometry":{"type":"Polygon","coordinates":[[[1.9916,48.4864],[1.9982,48.4823],[2.0178,48.4812],[2.0273,48.4653],[2.0342,48.4645],[2.0214,48.463],[2.0203,48.4571],[1.9805,48.4531],[1.9742,48.4623],[1.9656,48.4684],[1.9687,48.4758],[1.99,48.4774],[1.9916,48.4864]]]}},{"type":"Feature","properties":{"code":"91021","nom":"Arpajon","app":17.09,"app_bas":14.66,"app_haut":19.91,"app_ech":"commune","app_obs":3708,"mai":14.54,"mai_bas":11.48,"mai_haut":18.41,"mai_ech":"commune","mai_obs":124},"geometry":{"type":"Polygon","coordinates":[[[2.2416,48.5785],[2.2381,48.5761],[2.2349,48.589],[2.2373,48.5996],[2.2429,48.6037],[2.2503,48.5935],[2.2579,48.5912],[2.2416,48.5785]]]}},{"type":"Feature","properties":{"code":"91272","nom":"Gif-sur-Yvette","app":19.24,"app_bas":16.4,"app_haut":22.57,"app_ech":"commune","app_obs":3159,"mai":18.65,"mai_bas":14.4,"mai_haut":24.15,"mai_ech":"commune","mai_obs":204},"geometry":{"type":"Polygon","coordinates":[[[2.1551,48.7181],[2.1717,48.7148],[2.1708,48.7067],[2.1568,48.7048],[2.1431,48.6939],[2.1416,48.6859],[2.1316,48.6862],[2.1121,48.674],[2.103,48.6764],[2.1056,48.6868],[2.1161,48.691],[2.1059,48.6945],[2.0979,48.694],[2.0969,48.7027],[2.1103,48.7144],[2.1233,48.716],[2.1275,48.7095],[2.1364,48.706],[2.1515,48.7073],[2.1551,48.7181]]]}},{"type":"Feature","properties":{"code":"91511","nom":"Pussay","app":12.59,"app_bas":10.71,"app_haut":14.79,"app_ech":"commune","app_obs":327,"mai":10.73,"mai_bas":8.6,"mai_haut":13.38,"mai_ech":"maille","mai_obs":54},"geometry":{"type":"Polygon","coordinates":[[[2.0142,48.3378],[1.9867,48.331],[1.9823,48.3283],[1.9749,48.3353],[1.9734,48.353],[1.9874,48.3638],[1.989,48.3669],[2.0113,48.3634],[2.0159,48.37],[2.027,48.3693],[2.028,48.3612],[2.0272,48.3532],[2.0121,48.3544],[2.0142,48.3378]]]}},{"type":"Feature","properties":{"code":"91399","nom":"Mespuits","app":11.76,"app_bas":9.98,"app_haut":13.86,"app_ech":"maille","app_obs":0,"mai":12.56,"mai_bas":10.04,"mai_haut":15.71,"mai_ech":"maille","mai_obs":1},"geometry":{"type":"Polygon","coordinates":[[[2.2544,48.342],[2.2509,48.346],[2.2563,48.3543],[2.2537,48.3615],[2.2587,48.3727],[2.2938,48.371],[2.3087,48.3692],[2.3029,48.3564],[2.2919,48.3528],[2.2858,48.3457],[2.2766,48.342],[2.2544,48.342]]]}},{"type":"Feature","properties":{"code":"91479","nom":"Paray-Vieille-Poste","app":17.96,"app_bas":15.18,"app_haut":21.24,"app_ech":"commune","app_obs":588,"mai":16.97,"mai_bas":12.39,"mai_haut":23.23,"mai_ech":"maille","mai_obs":93},"geometry":{"type":"Polygon","coordinates":[[[2.3539,48.7018],[2.3517,48.7025],[2.3557,48.7139],[2.3441,48.7169],[2.3499,48.734],[2.354,48.7387],[2.3629,48.7461],[2.3694,48.7461],[2.3715,48.7076],[2.3563,48.7056],[2.3539,48.7018]]]}},{"type":"Feature","properties":{"code":"91533","nom":"Saclas","app":14.45,"app_bas":12.39,"app_haut":16.84,"app_ech":"commune","app_obs":155,"mai":10.73,"mai_bas":8.6,"mai_haut":13.38,"mai_ech":"maille","mai_obs":13},"geometry":{"type":"Polygon","coordinates":[[[2.0951,48.3841],[2.1007,48.3867],[2.1107,48.3839],[2.1256,48.3864],[2.1248,48.382],[2.1419,48.3827],[2.1475,48.3778],[2.1292,48.376],[2.1254,48.3723],[2.132,48.3615],[2.1268,48.3427],[2.12,48.3279],[2.1018,48.3317],[2.1092,48.3454],[2.0849,48.3431],[2.073,48.3402],[2.091,48.3527],[2.094,48.3575],[2.1083,48.3633],[2.1098,48.3731],[2.0951,48.3841]]]}},{"type":"Feature","properties":{"code":"91081","nom":"Boissy-le-Sec","app":14.72,"app_bas":12.23,"app_haut":17.7,"app_ech":"maille","app_obs":14,"mai":12.86,"mai_bas":10.32,"mai_haut":16.02,"mai_ech":"maille","mai_obs":8},"geometry":{"type":"Polygon","coordinates":[[[2.074,48.5099],[2.0823,48.5133],[2.0963,48.5137],[2.1071,48.5092],[2.1013,48.4999],[2.1071,48.4934],[2.1217,48.4914],[2.123,48.4822],[2.1196,48.4747],[2.1209,48.4676],[2.1148,48.4621],[2.1027,48.4627],[2.0822,48.4593],[2.0704,48.4641],[2.0723,48.4715],[2.0672,48.4785],[2.0652,48.4884],[2.0615,48.492],[2.074,48.5099]]]}},{"type":"Feature","properties":{"code":"91182","nom":"Courcouronnes","app":null,"app_bas":null,"app_haut":null,"app_ech":null,"app_obs":0,"mai":null,"mai_bas":null,"mai_haut":null,"mai_ech":null,"mai_obs":0},"geometry":{"type":"Polygon","coordinates":[[[2.3993,48.6241],[2.3982,48.6265],[2.4133,48.6361],[2.4226,48.631],[2.4265,48.6192],[2.4319,48.6117],[2.4117,48.6134],[2.4001,48.6097],[2.3964,48.6167],[2.3993,48.6241]]]}},{"type":"Feature","properties":{"code":"91131","nom":"Chalou-Moulineux","app":13.97,"app_bas":11.98,"app_haut":16.29,"app_ech":"maille","app_obs":7,"mai":10.73,"mai_bas":8.6,"mai_haut":13.38,"mai_ech":"maille","mai_obs":3},"geometry":{"type":"Polygon","coordinates":[[[2.0017,48.3956],[2.0224,48.3958],[2.0374,48.3924],[2.0506,48.3851],[2.0442,48.3607],[2.028,48.3612],[2.027,48.3693],[2.0159,48.37],[2.0136,48.3767],[2.0067,48.3763],[1.9943,48.3823],[2.0017,48.3956]]]}},{"type":"Feature","properties":{"code":"91526","nom":"Roinvilliers","app":13.94,"app_bas":11.95,"app_haut":16.26,"app_ech":"maille","app_obs":0,"mai":12.56,"mai_bas":10.04,"mai_haut":15.71,"mai_ech":"maille","mai_obs":0},"geometry":{"type":"Polygon","coordinates":[[[2.2537,48.3615],[2.2563,48.3543],[2.2509,48.346],[2.2544,48.342],[2.2463,48.33],[2.2296,48.3292],[2.2239,48.3364],[2.2147,48.3365],[2.2071,48.3449],[2.2307,48.3467],[2.238,48.3512],[2.236,48.3609],[2.2477,48.364],[2.2537,48.3615]]]}},{"type":"Feature","properties":{"code":"91184","nom":"Courdimanche-sur-Essonne","app":15.96,"app_bas":13.66,"app_haut":18.65,"app_ech":"maille","app_obs":3,"mai":12.97,"mai_bas":10.42,"mai_haut":16.14,"mai_ech":"maille","mai_obs":1},"geometry":{"type":"Polygon","coordinates":[[[2.3323,48.4121],[2.3396,48.4179],[2.3473,48.4152],[2.3575,48.4196],[2.3559,48.4258],[2.3734,48.4341],[2.3801,48.4276],[2.3875,48.4113],[2.3767,48.4092],[2.3521,48.4122],[2.3313,48.4077],[2.3323,48.4121]]]}},{"type":"Feature","properties":{"code":"91374","nom":"Marolles-en-Beauce","app":15.89,"app_bas":13.3,"app_haut":18.97,"app_ech":"maille","app_obs":0,"mai":12.56,"mai_bas":10.04,"mai_haut":15.71,"mai_ech":"maille","mai_obs":1},"geometry":{"type":"Polygon","coordinates":[[[2.2097,48.3837],[2.2221,48.3688],[2.2296,48.3695],[2.2298,48.3609],[2.2049,48.3598],[2.1884,48.3605],[2.1788,48.3681],[2.2097,48.3837]]]}},{"type":"Feature","properties":{"code":"91495","nom":"Plessis-Saint-Benoist","app":13.97,"app_bas":11.98,"app_haut":16.29,"app_ech":"maille","app_obs":0,"mai":12.86,"mai_bas":10.32,"mai_haut":16.02,"mai_ech":"maille","mai_obs":5},"geometry":{"type":"Polygon","coordinates":[[[1.9949,48.4296],[1.9899,48.4336],[1.9717,48.4371],[1.9805,48.4531],[2.0203,48.4571],[2.0385,48.4459],[2.0209,48.4374],[2.0118,48.4377],[1.9949,48.4296]]]}},{"type":"Feature","properties":{"code":"91679","nom":"Villiers-le-Bâcle","app":18.61,"app_bas":15.43,"app_haut":22.46,"app_ech":"maille","app_obs":76,"mai":17.43,"mai_bas":13.41,"mai_haut":22.64,"mai_ech":"maille","mai_obs":22},"geometry":{"type":"Polygon","coordinates":[[[2.1062,48.7193],[2.1112,48.7242],[2.098,48.7344],[2.1047,48.738],[2.1119,48.7396],[2.135,48.7371],[2.1419,48.733],[2.1439,48.7231],[2.1256,48.7221],[2.1233,48.716],[2.1103,48.7144],[2.1062,48.7193]]]}},{"type":"Feature","properties":{"code":"91045","nom":"Ballancourt-sur-Essonne","app":16.42,"app_bas":14.09,"app_haut":19.12,"app_ech":"commune","app_obs":802,"mai":14.95,"mai_bas":12.06,"mai_haut":18.53,"mai_ech":"commune","mai_obs":106},"geometry":{"type":"Polygon","coordinates":[[[2.3744,48.5454],[2.4046,48.5315],[2.4029,48.5274],[2.4134,48.5249],[2.4123,48.5083],[2.4062,48.5039],[2.379,48.5092],[2.3664,48.5103],[2.3628,48.5251],[2.3722,48.5369],[2.3744,48.5454]]]}},{"type":"Feature","properties":{"code":"91215","nom":"Épinay-sous-Sénart","app":16.52,"app_bas":13.96,"app_haut":19.54,"app_ech":"commune","app_obs":611,"mai":16.44,"mai_bas":13.29,"mai_haut":20.33,"mai_ech":"maille","mai_obs":21},"geometry":{"type":"Polygon","coordinates":[[[2.5042,48.6718],[2.4982,48.6767],[2.5139,48.6855],[2.5081,48.6906],[2.5224,48.7049],[2.5269,48.7047],[2.5311,48.6998],[2.5313,48.6954],[2.5213,48.6815],[2.5143,48.6744],[2.5042,48.6718]]]}},{"type":"Feature","properties":{"code":"91405","nom":"Milly-la-Forêt","app":15.71,"app_bas":12.82,"app_haut":19.26,"app_ech":"commune","app_obs":586,"mai":13.44,"mai_bas":10.79,"mai_haut":16.74,"mai_ech":"commune","mai_obs":137},"geometry":{"type":"Polygon","coordinates":[[[2.4611,48.4248],[2.4904,48.4262],[2.505,48.4299],[2.5173,48.4277],[2.5239,48.4199],[2.5471,48.4014],[2.5216,48.4049],[2.5165,48.3995],[2.5029,48.3929],[2.4947,48.3959],[2.4826,48.3956],[2.4738,48.3904],[2.4617,48.3987],[2.4545,48.3962],[2.4523,48.3875],[2.4442,48.3802],[2.437,48.3692],[2.4279,48.3633],[2.4142,48.3695],[2.4097,48.3739],[2.4081,48.3869],[2.4099,48.3988],[2.4224,48.407],[2.4254,48.4122],[2.4163,48.4156],[2.4239,48.4212],[2.4375,48.4215],[2.4502,48.4159],[2.4615,48.4167],[2.4611,48.4248]]]}},{"type":"Feature","properties":{"code":"91547","nom":"Saint-Escobille","app":13.97,"app_bas":11.98,"app_haut":16.29,"app_ech":"maille","app_obs":0,"mai":10.59,"mai_bas":8.51,"mai_haut":13.19,"mai_ech":"maille","mai_obs":0},"geometry":{"type":"Polygon","coordinates":[[[1.9717,48.4371],[1.9899,48.4336],[1.9949,48.4296],[1.982,48.4182],[1.9653,48.4118],[1.9622,48.4043],[1.9428,48.4057],[1.9304,48.4039],[1.9259,48.4127],[1.9378,48.4264],[1.9368,48.4313],[1.9429,48.441],[1.9717,48.4371]]]}},{"type":"Feature","properties":{"code":"91041","nom":"Avrainville","app":15.43,"app_bas":13.38,"app_haut":17.8,"app_ech":"maille","app_obs":41,"mai":14.7,"mai_bas":11.85,"mai_haut":18.25,"mai_ech":"maille","mai_obs":4},"geometry":{"type":"Polygon","coordinates":[[[2.234,48.5401],[2.2334,48.5468],[2.2236,48.5509],[2.2264,48.5668],[2.2416,48.5785],[2.2592,48.5732],[2.2635,48.5621],[2.2533,48.5419],[2.2523,48.5361],[2.2588,48.5326],[2.2488,48.532],[2.2488,48.5395],[2.234,48.5401]]]}}]}