{"type":"FeatureCollection","features":[{"type":"Feature","properties":{"code":"92026","nom":"Courbevoie","app":27.28,"app_bas":21.61,"app_haut":34.44,"app_ech":"commune","app_obs":12287,"mai":24.01,"mai_bas":15.74,"mai_haut":36.61,"mai_ech":"maille","mai_obs":58,"a12":30.55,"a3":25.88},"geometry":{"type":"Polygon","coordinates":[[[2.2843,48.9023],[2.2711,48.8984],[2.2538,48.8869],[2.2412,48.8909],[2.2338,48.8957],[2.2316,48.9007],[2.2582,48.9061],[2.276,48.9067],[2.2843,48.9023]]]}},{"type":"Feature","properties":{"code":"92049","nom":"Montrouge","app":26.52,"app_bas":21.59,"app_haut":32.58,"app_ech":"commune","app_obs":6027,"mai":21.6,"mai_bas":16.17,"mai_haut":28.85,"mai_ech":"maille","mai_obs":29,"a12":28.49,"a3":25.9},"geometry":{"type":"Polygon","coordinates":[[[2.3141,48.8223],[2.3319,48.817],[2.3291,48.8138],[2.319,48.81],[2.3002,48.8113],[2.3141,48.8223]]]}},{"type":"Feature","properties":{"code":"92022","nom":"Chaville","app":22.97,"app_bas":19.17,"app_haut":27.52,"app_ech":"commune","app_obs":2652,"mai":24.74,"mai_bas":18.66,"mai_haut":32.81,"mai_ech":"commune","mai_obs":102,"a12":26.29,"a3":21.92},"geometry":{"type":"Polygon","coordinates":[[[2.2055,48.8092],[2.2026,48.7984],[2.1829,48.7972],[2.1767,48.814],[2.1785,48.8149],[2.1898,48.8158],[2.197,48.8191],[2.2055,48.8092]]]}},{"type":"Feature","properties":{"code":"92078","nom":"Villeneuve-la-Garenne","app":21.01,"app_bas":16.37,"app_haut":26.96,"app_ech":"commune","app_obs":1511,"mai":24.01,"mai_bas":15.74,"mai_haut":36.61,"mai_ech":"maille","mai_obs":15,"a12":26.93,"a3":17.61},"geometry":{"type":"Polygon","coordinates":[[[2.3284,48.9228],[2.3222,48.9328],[2.3146,48.9384],[2.3117,48.9479],[2.327,48.9454],[2.3356,48.9407],[2.3364,48.9323],[2.3284,48.9228]]]}},{"type":"Feature","properties":{"code":"92019","nom":"Châtenay-Malabry","app":23.05,"app_bas":19.41,"app_haut":27.37,"app_ech":"commune","app_obs":6387,"mai":21.6,"mai_bas":16.17,"mai_haut":28.85,"mai_ech":"maille","mai_obs":99,"a12":25.55,"a3":21.88},"geometry":{"type":"Polygon","coordinates":[[[2.2288,48.7745],[2.2375,48.7763],[2.2438,48.7731],[2.2599,48.7732],[2.2724,48.7773],[2.2796,48.7825],[2.2903,48.7666],[2.2912,48.762],[2.2786,48.76],[2.2761,48.7567],[2.2594,48.761],[2.2477,48.7611],[2.2386,48.7665],[2.2329,48.766],[2.2288,48.7745]]]}},{"type":"Feature","properties":{"code":"92051","nom":"Neuilly-sur-Seine","app":34.09,"app_bas":26.51,"app_haut":43.85,"app_ech":"commune","app_obs":10604,"mai":26.23,"mai_bas":16.37,"mai_haut":42.04,"mai_ech":"maille","mai_obs":24,"a12":36.6,"a3":33.62},"geometry":{"type":"Polygon","coordinates":[[[2.2845,48.8856],[2.2799,48.8786],[2.2585,48.8804],[2.2548,48.8741],[2.2457,48.8765],[2.2538,48.8869],[2.2711,48.8984],[2.2845,48.8856]]]}},{"type":"Feature","properties":{"code":"92062","nom":"Puteaux","app":27.5,"app_bas":21.61,"app_haut":34.99,"app_ech":"commune","app_obs":6401,"mai":20.44,"mai_bas":10.92,"mai_haut":38.26,"mai_ech":"commune","mai_obs":106,"a12":29.53,"a3":27.11},"geometry":{"type":"Polygon","coordinates":[[[2.2236,48.8828],[2.2338,48.8957],[2.2412,48.8909],[2.2538,48.8869],[2.2457,48.8765],[2.2317,48.8691],[2.2342,48.8777],[2.2236,48.8828]]]}},{"type":"Feature","properties":{"code":"92048","nom":"Meudon","app":24.09,"app_bas":19.15,"app_haut":30.3,"app_ech":"commune","app_obs":5637,"mai":23.93,"mai_bas":18.04,"mai_haut":31.74,"mai_ech":"maille","mai_obs":97,"a12":27.66,"a3":22.54},"geometry":{"type":"Polygon","coordinates":[[[2.2055,48.8092],[2.2203,48.8155],[2.2253,48.823],[2.2326,48.8227],[2.2519,48.8164],[2.2521,48.8091],[2.2411,48.8019],[2.2368,48.7961],[2.2352,48.7861],[2.2266,48.7816],[2.2233,48.7859],[2.2115,48.7881],[2.2026,48.7984],[2.2055,48.8092]]]}},{"type":"Feature","properties":{"code":"92050","nom":"Nanterre","app":23.8,"app_bas":17.8,"app_haut":31.83,"app_ech":"commune","app_obs":6657,"mai":22.6,"mai_bas":16.41,"mai_haut":31.13,"mai_ech":"commune","mai_obs":219,"a12":26.34,"a3":23.06},"geometry":{"type":"Polygon","coordinates":[[[2.1743,48.8991],[2.2006,48.9087],[2.2204,48.9206],[2.224,48.9181],[2.2338,48.8957],[2.2236,48.8828],[2.2078,48.8742],[2.1889,48.8859],[2.1693,48.8958],[2.1743,48.8991]]]}},{"type":"Feature","properties":{"code":"92025","nom":"Colombes","app":23.54,"app_bas":19.05,"app_haut":29.09,"app_ech":"commune","app_obs":9392,"mai":22.25,"mai_bas":16.15,"mai_haut":30.67,"mai_ech":"commune","mai_obs":339,"a12":27.14,"a3":21.23},"geometry":{"type":"Polygon","coordinates":[[[2.273,48.9338],[2.2733,48.9269],[2.2679,48.9251],[2.2574,48.9136],[2.2498,48.9127],[2.2291,48.906],[2.224,48.9181],[2.2204,48.9206],[2.2311,48.9277],[2.2476,48.9367],[2.2559,48.9371],[2.273,48.9338]]]}},{"type":"Feature","properties":{"code":"92007","nom":"Bagneux","app":22.85,"app_bas":18.75,"app_haut":27.85,"app_ech":"commune","app_obs":3616,"mai":22.56,"mai_bas":13.29,"mai_haut":38.32,"mai_ech":"maille","mai_obs":60,"a12":26.07,"a3":20.4},"geometry":{"type":"Polygon","coordinates":[[[2.319,48.81],[2.326,48.8067],[2.3187,48.788],[2.3097,48.7849],[2.3033,48.7854],[2.2962,48.7958],[2.2922,48.796],[2.3027,48.8111],[2.319,48.81]]]}},{"type":"Feature","properties":{"code":"92023","nom":"Clamart","app":24.06,"app_bas":19.95,"app_haut":29.01,"app_ech":"commune","app_obs":5960,"mai":22.64,"mai_bas":16.95,"mai_haut":30.25,"mai_ech":"commune","mai_obs":183,"a12":26.34,"a3":23.5},"geometry":{"type":"Polygon","coordinates":[[[2.2288,48.7745],[2.2266,48.7761],[2.2266,48.7816],[2.2352,48.7861],[2.2368,48.7961],[2.2411,48.8019],[2.2521,48.8091],[2.2519,48.8164],[2.2782,48.8142],[2.2799,48.8109],[2.2747,48.8038],[2.2717,48.7905],[2.2506,48.7846],[2.2375,48.7763],[2.2288,48.7745]]]}},{"type":"Feature","properties":{"code":"92047","nom":"Marnes-la-Coquette","app":22.97,"app_bas":19.44,"app_haut":27.14,"app_ech":"maille","app_obs":35,"mai":23.93,"mai_bas":18.04,"mai_haut":31.74,"mai_ech":"maille","mai_obs":25,"a12":25.67,"a3":22.96},"geometry":{"type":"Polygon","coordinates":[[[2.1872,48.8377],[2.1808,48.8306],[2.1643,48.8229],[2.1507,48.8188],[2.1516,48.8295],[2.1554,48.8362],[2.1666,48.8377],[2.1872,48.8377]]]}},{"type":"Feature","properties":{"code":"92063","nom":"Rueil-Malmaison","app":24.52,"app_bas":19.98,"app_haut":30.09,"app_ech":"commune","app_obs":13430,"mai":25.69,"mai_bas":16.17,"mai_haut":40.83,"mai_ech":"commune","mai_obs":396,"a12":27.36,"a3":23.48},"geometry":{"type":"Polygon","coordinates":[[[2.1693,48.8958],[2.1889,48.8859],[2.2078,48.8742],[2.2112,48.8679],[2.1979,48.8548],[2.1599,48.8477],[2.1543,48.853],[2.1538,48.8644],[2.1504,48.8709],[2.1693,48.8958]]]}},{"type":"Feature","properties":{"code":"92064","nom":"Saint-Cloud","app":26.39,"app_bas":21.33,"app_haut":32.64,"app_ech":"commune","app_obs":5056,"mai":23.73,"mai_bas":17.29,"mai_haut":32.56,"mai_ech":"maille","mai_obs":75,"a12":28.98,"a3":25.6},"geometry":{"type":"Polygon","coordinates":[[[2.2257,48.8594],[2.2242,48.8535],[2.224,48.8351],[2.2212,48.8279],[2.1808,48.8306],[2.1872,48.8377],[2.1939,48.8406],[2.2013,48.8492],[2.1979,48.8548],[2.2036,48.8606],[2.2257,48.8594]]]}},{"type":"Feature","properties":{"code":"92035","nom":"Garenne-Colombes","app":25.26,"app_bas":20.9,"app_haut":30.54,"app_ech":"commune","app_obs":4452,"mai":24.01,"mai_bas":15.74,"mai_haut":36.61,"mai_ech":"maille","mai_obs":52,"a12":27.46,"a3":24.91},"geometry":{"type":"Polygon","coordinates":[[[2.2291,48.906],[2.2498,48.9127],[2.2574,48.9136],[2.2582,48.9061],[2.2316,48.9007],[2.2291,48.906]]]}},{"type":"Feature","properties":{"code":"92036","nom":"Gennevilliers","app":23.83,"app_bas":17.33,"app_haut":32.75,"app_ech":"commune","app_obs":1522,"mai":24.01,"mai_bas":15.74,"mai_haut":36.61,"mai_ech":"maille","mai_obs":39,"a12":27.22,"a3":20.37},"geometry":{"type":"Polygon","coordinates":[[[2.273,48.9338],[2.2559,48.9371],[2.2476,48.9367],[2.2687,48.9466],[2.291,48.951],[2.3117,48.9479],[2.3146,48.9384],[2.3222,48.9328],[2.3284,48.9228],[2.322,48.9187],[2.3177,48.9208],[2.3008,48.9147],[2.2859,48.9227],[2.2844,48.9302],[2.273,48.9338]]]}},{"type":"Feature","properties":{"code":"92060","nom":"Plessis-Robinson","app":23.79,"app_bas":20.4,"app_haut":27.75,"app_ech":"commune","app_obs":2691,"mai":21.6,"mai_bas":16.17,"mai_haut":28.85,"mai_ech":"maille","mai_obs":30,"a12":27.02,"a3":21.69},"geometry":{"type":"Polygon","coordinates":[[[2.2375,48.7763],[2.2506,48.7846],[2.2717,48.7905],[2.282,48.7832],[2.2796,48.7825],[2.2724,48.7773],[2.2599,48.7732],[2.2438,48.7731],[2.2375,48.7763]]]}},{"type":"Feature","properties":{"code":"92044","nom":"Levallois-Perret","app":30.74,"app_bas":24.5,"app_haut":38.56,"app_ech":"commune","app_obs":11181,"mai":24.01,"mai_bas":15.74,"mai_haut":36.61,"mai_ech":"maille","mai_obs":27,"a12":32.3,"a3":30.88},"geometry":{"type":"Polygon","coordinates":[[[2.2845,48.8856],[2.2711,48.8984],[2.2874,48.9036],[2.3038,48.8942],[2.2845,48.8856]]]}},{"type":"Feature","properties":{"code":"92077","nom":"Ville-d'Avray","app":22.77,"app_bas":18.56,"app_haut":27.93,"app_ech":"commune","app_obs":1363,"mai":23.93,"mai_bas":18.04,"mai_haut":31.74,"mai_ech":"maille","mai_obs":11,"a12":26.27,"a3":20.62},"geometry":{"type":"Polygon","coordinates":[[[2.1613,48.8128],[2.1507,48.8188],[2.1643,48.8229],[2.1808,48.8306],[2.1994,48.8298],[2.1963,48.822],[2.1767,48.814],[2.1693,48.8159],[2.1613,48.8128]]]}},{"type":"Feature","properties":{"code":"92024","nom":"Clichy","app":26.22,"app_bas":21.01,"app_haut":32.73,"app_ech":"commune","app_obs":7743,"mai":24.01,"mai_bas":15.74,"mai_haut":36.61,"mai_ech":"maille","mai_obs":25,"a12":28.4,"a3":25.38},"geometry":{"type":"Polygon","coordinates":[[[2.3199,48.9005],[2.3038,48.8942],[2.2874,48.9036],[2.3138,48.914],[2.3199,48.9005]]]}},{"type":"Feature","properties":{"code":"92032","nom":"Fontenay-aux-Roses","app":21.52,"app_bas":18.4,"app_haut":25.16,"app_ech":"commune","app_obs":2673,"mai":22.56,"mai_bas":13.29,"mai_haut":38.32,"mai_ech":"maille","mai_obs":77,"a12":24.38,"a3":20.15},"geometry":{"type":"Polygon","coordinates":[[[2.282,48.7832],[2.2717,48.7905],[2.2722,48.7941],[2.2962,48.7958],[2.3033,48.7854],[2.282,48.7832]]]}},{"type":"Feature","properties":{"code":"92075","nom":"Vanves","app":26.26,"app_bas":21.43,"app_haut":32.18,"app_ech":"commune","app_obs":3043,"mai":21.6,"mai_bas":16.17,"mai_haut":28.85,"mai_ech":"maille","mai_obs":25,"a12":28.24,"a3":26.38},"geometry":{"type":"Polygon","coordinates":[[[2.2782,48.8142],[2.2726,48.8144],[2.2787,48.8184],[2.2805,48.8259],[2.2894,48.8284],[2.3013,48.8251],[2.2917,48.818],[2.2782,48.8142]]]}},{"type":"Feature","properties":{"code":"92020","nom":"Châtillon","app":23.66,"app_bas":20.15,"app_haut":27.78,"app_ech":"commune","app_obs":5562,"mai":21.6,"mai_bas":16.17,"mai_haut":28.85,"mai_ech":"maille","mai_obs":86,"a12":26.17,"a3":22.43},"geometry":{"type":"Polygon","coordinates":[[[2.3002,48.8113],[2.3027,48.8111],[2.2922,48.796],[2.2722,48.7941],[2.2747,48.8038],[2.2799,48.8109],[2.292,48.8097],[2.3002,48.8113]]]}},{"type":"Feature","properties":{"code":"92073","nom":"Suresnes","app":26.74,"app_bas":21.51,"app_haut":33.22,"app_ech":"commune","app_obs":7394,"mai":26.23,"mai_bas":16.37,"mai_haut":42.04,"mai_ech":"maille","mai_obs":91,"a12":29.16,"a3":25.69},"geometry":{"type":"Polygon","coordinates":[[[2.2236,48.8828],[2.2342,48.8777],[2.2317,48.8691],[2.2257,48.8594],[2.2036,48.8606],[2.2112,48.8679],[2.2078,48.8742],[2.2236,48.8828]]]}},{"type":"Feature","properties":{"code":"92014","nom":"Bourg-la-Reine","app":24.02,"app_bas":20.08,"app_haut":28.72,"app_ech":"commune","app_obs":3883,"mai":19.81,"mai_bas":14.26,"mai_haut":27.53,"mai_ech":"maille","mai_obs":76,"a12":26.5,"a3":22.79},"geometry":{"type":"Polygon","coordinates":[[[2.3258,48.7819],[2.3199,48.7707],[2.3124,48.7722],[2.3143,48.7768],[2.3097,48.7849],[2.3187,48.788],[2.3258,48.7819]]]}},{"type":"Feature","properties":{"code":"92076","nom":"Vaucresson","app":22.79,"app_bas":19.28,"app_haut":26.92,"app_ech":"commune","app_obs":659,"mai":23.73,"mai_bas":17.29,"mai_haut":32.56,"mai_ech":"maille","mai_obs":48,"a12":25.53,"a3":22.05},"geometry":{"type":"Polygon","coordinates":[[[2.1485,48.8285],[2.1459,48.8369],[2.1532,48.8489],[2.1599,48.8477],[2.1826,48.8516],[2.179,48.8441],[2.1666,48.8377],[2.1554,48.8362],[2.1516,48.8295],[2.1515,48.8214],[2.1485,48.8285]]]}},{"type":"Feature","properties":{"code":"92071","nom":"Sceaux","app":24.86,"app_bas":20.89,"app_haut":29.59,"app_ech":"commune","app_obs":3301,"mai":19.81,"mai_bas":14.26,"mai_haut":27.53,"mai_ech":"maille","mai_obs":79,"a12":27.47,"a3":23.89},"geometry":{"type":"Polygon","coordinates":[[[2.3097,48.7849],[2.3143,48.7768],[2.3124,48.7722],[2.3054,48.769],[2.2903,48.7666],[2.2796,48.7825],[2.3033,48.7854],[2.3097,48.7849]]]}},{"type":"Feature","properties":{"code":"92009","nom":"Bois-Colombes","app":25.15,"app_bas":20.47,"app_haut":30.89,"app_ech":"commune","app_obs":4489,"mai":24.01,"mai_bas":15.74,"mai_haut":36.61,"mai_ech":"maille","mai_obs":85,"a12":27.88,"a3":23.38},"geometry":{"type":"Polygon","coordinates":[[[2.2582,48.9061],[2.2574,48.9136],[2.2679,48.9251],[2.2733,48.9269],[2.2769,48.9162],[2.2664,48.9063],[2.2582,48.9061]]]}},{"type":"Feature","properties":{"code":"92033","nom":"Garches","app":23.84,"app_bas":19.59,"app_haut":29,"app_ech":"commune","app_obs":1852,"mai":23.73,"mai_bas":17.29,"mai_haut":32.56,"mai_ech":"maille","mai_obs":44,"a12":26.42,"a3":22.76},"geometry":{"type":"Polygon","coordinates":[[[2.1979,48.8548],[2.2013,48.8492],[2.1939,48.8406],[2.1872,48.8377],[2.1666,48.8377],[2.179,48.8441],[2.1826,48.8516],[2.1979,48.8548]]]}},{"type":"Feature","properties":{"code":"92012","nom":"Boulogne-Billancourt","app":29.73,"app_bas":23.95,"app_haut":36.91,"app_ech":"commune","app_obs":20474,"mai":27.49,"mai_bas":13,"mai_haut":58.11,"mai_ech":"commune","mai_obs":106,"a12":31.97,"a3":28.52},"geometry":{"type":"Polygon","coordinates":[[[2.2242,48.8535],[2.2506,48.8456],[2.2551,48.8348],[2.2628,48.8339],[2.2517,48.8258],[2.2361,48.8215],[2.2326,48.8227],[2.224,48.8351],[2.2242,48.8535]]]}},{"type":"Feature","properties":{"code":"92040","nom":"Issy-les-Moulineaux","app":27.87,"app_bas":22.61,"app_haut":34.36,"app_ech":"commune","app_obs":12404,"mai":25.45,"mai_bas":12.99,"mai_haut":49.83,"mai_ech":"commune","mai_obs":109,"a12":30.09,"a3":27.25},"geometry":{"type":"Polygon","coordinates":[[[2.2628,48.8339],[2.2728,48.8279],[2.2791,48.8325],[2.2894,48.8284],[2.2805,48.8259],[2.2787,48.8184],[2.2726,48.8144],[2.2519,48.8164],[2.2361,48.8215],[2.2517,48.8258],[2.2628,48.8339]]]}},{"type":"Feature","properties":{"code":"92046","nom":"Malakoff","app":25.44,"app_bas":20.68,"app_haut":31.3,"app_ech":"commune","app_obs":2510,"mai":22.56,"mai_bas":13.29,"mai_haut":38.32,"mai_ech":"maille","mai_obs":76,"a12":28.19,"a3":23.31},"geometry":{"type":"Polygon","coordinates":[[[2.3002,48.8113],[2.292,48.8097],[2.2799,48.8109],[2.2782,48.8142],[2.2917,48.818],[2.3013,48.8251],[2.3141,48.8223],[2.3002,48.8113]]]}},{"type":"Feature","properties":{"code":"92002","nom":"Antony","app":22.51,"app_bas":18.4,"app_haut":27.54,"app_ech":"commune","app_obs":9468,"mai":21.45,"mai_bas":16.06,"mai_haut":28.65,"mai_ech":"commune","mai_obs":351,"a12":25.91,"a3":21.37},"geometry":{"type":"Polygon","coordinates":[[[2.2903,48.7666],[2.3054,48.769],[2.3124,48.7722],[2.3199,48.7707],[2.3159,48.7668],[2.3102,48.757],[2.3207,48.7488],[2.3162,48.742],[2.3133,48.7303],[2.3038,48.7295],[2.2984,48.7386],[2.2803,48.733],[2.2745,48.7407],[2.2854,48.7475],[2.2761,48.7567],[2.2786,48.76],[2.2912,48.762],[2.2903,48.7666]]]}},{"type":"Feature","properties":{"code":"92004","nom":"Asnières-sur-Seine","app":24.55,"app_bas":19.72,"app_haut":30.56,"app_ech":"commune","app_obs":13803,"mai":24.59,"mai_bas":16.13,"mai_haut":37.48,"mai_ech":"commune","mai_obs":131,"a12":27.46,"a3":22.89},"geometry":{"type":"Polygon","coordinates":[[[2.273,48.9338],[2.2844,48.9302],[2.2859,48.9227],[2.3008,48.9147],[2.3177,48.9208],[2.322,48.9187],[2.3198,48.9159],[2.2843,48.9023],[2.276,48.9067],[2.2664,48.9063],[2.2769,48.9162],[2.2733,48.9269],[2.273,48.9338]]]}},{"type":"Feature","properties":{"code":"92072","nom":"Sèvres","app":25.02,"app_bas":19.73,"app_haut":31.71,"app_ech":"commune","app_obs":2549,"mai":23.93,"mai_bas":18.04,"mai_haut":31.74,"mai_ech":"maille","mai_obs":91,"a12":26.51,"a3":25.05},"geometry":{"type":"Polygon","coordinates":[[[2.2055,48.8092],[2.197,48.8191],[2.1898,48.8158],[2.1785,48.8149],[2.1963,48.822],[2.1994,48.8298],[2.2212,48.8279],[2.224,48.8351],[2.2326,48.8227],[2.2253,48.823],[2.2203,48.8155],[2.2055,48.8092]]]}}]}