{"type":"FeatureCollection","features":[{"type":"Feature","properties":{"code":"93015","nom":"Coubron","app":18.76,"app_bas":15.86,"app_haut":22.2,"app_ech":"commune","app_obs":220,"mai":13.93,"mai_bas":11.14,"mai_haut":17.42,"mai_ech":"maille","mai_obs":32},"geometry":{"type":"Polygon","coordinates":[[[2.5914,48.9071],[2.5652,48.9084],[2.5592,48.9214],[2.5646,48.9283],[2.5736,48.9255],[2.587,48.9275],[2.5923,48.925],[2.5888,48.9095],[2.5924,48.9077],[2.5914,48.9071]]]}},{"type":"Feature","properties":{"code":"93013","nom":"Bourget","app":19.44,"app_bas":15.75,"app_haut":23.99,"app_ech":"commune","app_obs":1136,"mai":17.49,"mai_bas":12.89,"mai_haut":23.74,"mai_ech":"maille","mai_obs":23},"geometry":{"type":"Polygon","coordinates":[[[2.4422,48.9372],[2.4444,48.9327],[2.422,48.9296],[2.4123,48.9326],[2.4175,48.9396],[2.4303,48.9463],[2.435,48.9451],[2.4307,48.9389],[2.4422,48.9372]]]}},{"type":"Feature","properties":{"code":"93061","nom":"Pré-Saint-Gervais","app":24.72,"app_bas":20.29,"app_haut":30.12,"app_ech":"commune","app_obs":1172,"mai":20.64,"mai_bas":12.57,"mai_haut":33.89,"mai_ech":"maille","mai_obs":21},"geometry":{"type":"Polygon","coordinates":[[[2.4107,48.8785],[2.3986,48.8894],[2.4082,48.8885],[2.4113,48.8832],[2.4107,48.8785]]]}},{"type":"Feature","properties":{"code":"93006","nom":"Bagnolet","app":22.65,"app_bas":18.19,"app_haut":28.19,"app_ech":"commune","app_obs":2673,"mai":24.79,"mai_bas":14.12,"mai_haut":43.55,"mai_ech":"maille","mai_obs":54},"geometry":{"type":"Polygon","coordinates":[[[2.4133,48.8731],[2.4219,48.8782],[2.4297,48.8783],[2.4354,48.8746],[2.4228,48.8607],[2.4153,48.8552],[2.4133,48.8731]]]}},{"type":"Feature","properties":{"code":"93008","nom":"Bobigny","app":19.76,"app_bas":14.74,"app_haut":26.49,"app_ech":"commune","app_obs":2340,"mai":19.57,"mai_bas":11.87,"mai_haut":32.26,"mai_ech":"commune","mai_obs":126},"geometry":{"type":"Polygon","coordinates":[[[2.4101,48.9167],[2.4135,48.9193],[2.4369,48.913],[2.4537,48.9116],[2.4752,48.9164],[2.4699,48.9048],[2.424,48.8952],[2.4141,48.9084],[2.4101,48.9167]]]}},{"type":"Feature","properties":{"code":"93039","nom":"Île-Saint-Denis","app":20.97,"app_bas":16.09,"app_haut":27.34,"app_ech":"commune","app_obs":293,"mai":17.19,"mai_bas":10.36,"mai_haut":28.52,"mai_ech":"maille","mai_obs":5},"geometry":{"type":"Polygon","coordinates":[[[2.3117,48.9479],[2.291,48.951],[2.3035,48.9517],[2.3331,48.9456],[2.3384,48.9426],[2.3417,48.934],[2.3328,48.9229],[2.3198,48.9159],[2.322,48.9187],[2.3284,48.9228],[2.3364,48.9323],[2.3356,48.9407],[2.327,48.9454],[2.3117,48.9479]]]}},{"type":"Feature","properties":{"code":"93051","nom":"Noisy-le-Grand","app":19.88,"app_bas":16.08,"app_haut":24.57,"app_ech":"commune","app_obs":6889,"mai":15.68,"mai_bas":11.04,"mai_haut":22.26,"mai_ech":"commune","mai_obs":247},"geometry":{"type":"Polygon","coordinates":[[[2.5958,48.8143],[2.5923,48.8074],[2.5741,48.8129],[2.5685,48.8183],[2.571,48.8227],[2.5485,48.8349],[2.5367,48.8385],[2.5313,48.8444],[2.5157,48.8514],[2.5467,48.8545],[2.5598,48.8538],[2.5669,48.8577],[2.5738,48.8534],[2.5925,48.8259],[2.5958,48.8143]]]}},{"type":"Feature","properties":{"code":"93027","nom":"Courneuve","app":19.05,"app_bas":14.85,"app_haut":24.43,"app_ech":"commune","app_obs":1289,"mai":17.19,"mai_bas":10.36,"mai_haut":28.52,"mai_ech":"maille","mai_obs":41},"geometry":{"type":"Polygon","coordinates":[[[2.4044,48.9513],[2.4175,48.9396],[2.4123,48.9326],[2.422,48.9296],[2.4135,48.9193],[2.4101,48.9167],[2.3995,48.9221],[2.3747,48.9237],[2.3776,48.9317],[2.3985,48.9481],[2.4044,48.9513]]]}},{"type":"Feature","properties":{"code":"93050","nom":"Neuilly-sur-Marne","app":18.81,"app_bas":15.8,"app_haut":22.38,"app_ech":"commune","app_obs":2710,"mai":16.13,"mai_bas":11.96,"mai_haut":21.74,"mai_ech":"maille","mai_obs":63},"geometry":{"type":"Polygon","coordinates":[[[2.5298,48.8743],[2.5388,48.8703],[2.5478,48.8725],[2.5579,48.8675],[2.5676,48.8659],[2.5669,48.8577],[2.5598,48.8538],[2.5467,48.8545],[2.5208,48.8522],[2.5187,48.8559],[2.5204,48.8746],[2.5298,48.8743]]]}},{"type":"Feature","properties":{"code":"93073","nom":"Tremblay-en-France","app":18.73,"app_bas":15.1,"app_haut":23.24,"app_ech":"commune","app_obs":2051,"mai":16.64,"mai_bas":13.09,"mai_haut":21.15,"mai_ech":"commune","mai_obs":264},"geometry":{"type":"Polygon","coordinates":[[[2.5005,48.9753],[2.5019,48.9785],[2.5148,48.9823],[2.5184,48.9895],[2.5322,49.0052],[2.5478,49.0049],[2.5531,49.0098],[2.5658,49.0124],[2.5717,48.9998],[2.5758,49.0003],[2.5803,48.9916],[2.5798,48.985],[2.5634,48.9777],[2.5919,48.9493],[2.5959,48.9386],[2.5796,48.9365],[2.569,48.9432],[2.5631,48.9495],[2.5623,48.9581],[2.5498,48.9714],[2.5364,48.9664],[2.524,48.9761],[2.5005,48.9753]]]}},{"type":"Feature","properties":{"code":"93031","nom":"Épinay-sur-Seine","app":19.48,"app_bas":14.95,"app_haut":25.38,"app_ech":"commune","app_obs":2889,"mai":16.15,"mai_bas":9.72,"mai_haut":26.8,"mai_ech":"commune","mai_obs":155},"geometry":{"type":"Polygon","coordinates":[[[2.2986,48.9663],[2.3132,48.9622],[2.3283,48.9597],[2.3458,48.9465],[2.3384,48.9426],[2.3331,48.9456],[2.3035,48.9517],[2.2923,48.9514],[2.2885,48.959],[2.2986,48.9663]]]}},{"type":"Feature","properties":{"code":"93055","nom":"Pantin","app":23.16,"app_bas":18.37,"app_haut":29.21,"app_ech":"commune","app_obs":5297,"mai":20.64,"mai_bas":12.57,"mai_haut":33.89,"mai_ech":"maille","mai_obs":48},"geometry":{"type":"Polygon","coordinates":[[[2.4244,48.8912],[2.4187,48.8848],[2.4113,48.8832],[2.4082,48.8885],[2.3986,48.8894],[2.3949,48.8984],[2.3894,48.9012],[2.4075,48.9179],[2.4101,48.9167],[2.4141,48.9084],[2.424,48.8952],[2.4277,48.8959],[2.4244,48.8912]]]}},{"type":"Feature","properties":{"code":"93070","nom":"Saint-Ouen","app":22.89,"app_bas":18.22,"app_haut":28.76,"app_ech":"commune","app_obs":4789,"mai":24.01,"mai_bas":15.74,"mai_haut":36.61,"mai_ech":"maille","mai_obs":53},"geometry":{"type":"Polygon","coordinates":[[[2.3138,48.914],[2.3198,48.9159],[2.3328,48.9229],[2.3394,48.9197],[2.3514,48.9077],[2.3519,48.9015],[2.3199,48.9005],[2.3138,48.914]]]}},{"type":"Feature","properties":{"code":"93007","nom":"Blanc-Mesnil","app":18.47,"app_bas":14.99,"app_haut":22.76,"app_ech":"commune","app_obs":3007,"mai":18.23,"mai_bas":13.46,"mai_haut":24.7,"mai_ech":"commune","mai_obs":278},"geometry":{"type":"Polygon","coordinates":[[[2.456,48.9558],[2.4595,48.955],[2.4774,48.9445],[2.483,48.9339],[2.4794,48.9198],[2.4743,48.9184],[2.469,48.9191],[2.4625,48.9263],[2.4608,48.9329],[2.4549,48.9378],[2.4422,48.9372],[2.4307,48.9389],[2.435,48.9451],[2.4475,48.9558],[2.456,48.9558]]]}},{"type":"Feature","properties":{"code":"93078","nom":"Villepinte","app":18.83,"app_bas":15.5,"app_haut":22.88,"app_ech":"commune","app_obs":2717,"mai":18.3,"mai_bas":12.61,"mai_haut":26.56,"mai_ech":"commune","mai_obs":195},"geometry":{"type":"Polygon","coordinates":[[[2.569,48.9432],[2.5686,48.9367],[2.557,48.9353],[2.5542,48.943],[2.5426,48.9507],[2.5241,48.9506],[2.5088,48.964],[2.496,48.9727],[2.5005,48.9753],[2.524,48.9761],[2.5364,48.9664],[2.5498,48.9714],[2.5623,48.9581],[2.5631,48.9495],[2.569,48.9432]]]}},{"type":"Feature","properties":{"code":"93032","nom":"Gagny","app":18.56,"app_bas":15.2,"app_haut":22.66,"app_ech":"commune","app_obs":3351,"mai":16.08,"mai_bas":11.93,"mai_haut":21.69,"mai_ech":"commune","mai_obs":158},"geometry":{"type":"Polygon","coordinates":[[[2.5676,48.8659],[2.5579,48.8675],[2.5478,48.8725],[2.5388,48.8703],[2.5298,48.8743],[2.5268,48.8814],[2.5182,48.8912],[2.5321,48.8952],[2.5385,48.8998],[2.5466,48.8989],[2.5495,48.8872],[2.5594,48.8853],[2.5702,48.8765],[2.5676,48.8659]]]}},{"type":"Feature","properties":{"code":"93072","nom":"Stains","app":18.98,"app_bas":14.84,"app_haut":24.28,"app_ech":"commune","app_obs":1153,"mai":17.36,"mai_bas":12.12,"mai_haut":24.88,"mai_ech":"maille","mai_obs":96},"geometry":{"type":"Polygon","coordinates":[[[2.3759,48.972],[2.3824,48.9713],[2.3943,48.9626],[2.4074,48.9561],[2.4044,48.9513],[2.3985,48.9481],[2.384,48.9436],[2.3715,48.9473],[2.3711,48.9599],[2.3759,48.972]]]}},{"type":"Feature","properties":{"code":"93014","nom":"Clichy-sous-Bois","app":16.49,"app_bas":12.92,"app_haut":21.05,"app_ech":"commune","app_obs":832,"mai":16.49,"mai_bas":12.3,"mai_haut":22.1,"mai_ech":"maille","mai_obs":55},"geometry":{"type":"Polygon","coordinates":[[[2.5466,48.8989],[2.5385,48.8998],[2.5321,48.8952],[2.5215,48.9037],[2.5478,48.9178],[2.5592,48.9214],[2.5652,48.9084],[2.5466,48.8989]]]}},{"type":"Feature","properties":{"code":"93001","nom":"Aubervilliers","app":19.77,"app_bas":15.73,"app_haut":24.84,"app_ech":"commune","app_obs":5529,"mai":20.64,"mai_bas":12.57,"mai_haut":33.89,"mai_ech":"maille","mai_obs":83},"geometry":{"type":"Polygon","coordinates":[[[2.3658,48.9016],[2.3671,48.9209],[2.3747,48.9237],[2.3995,48.9221],[2.4075,48.9179],[2.3894,48.9012],[2.3658,48.9016]]]}},{"type":"Feature","properties":{"code":"93053","nom":"Noisy-le-Sec","app":18.96,"app_bas":15.72,"app_haut":22.88,"app_ech":"commune","app_obs":3512,"mai":16.98,"mai_bas":10.42,"mai_haut":27.67,"mai_ech":"commune","mai_obs":108},"geometry":{"type":"Polygon","coordinates":[[[2.4517,48.8785],[2.4505,48.8855],[2.439,48.8932],[2.4413,48.8983],[2.4699,48.9048],[2.4712,48.8889],[2.4766,48.8887],[2.4648,48.8781],[2.4517,48.8785]]]}},{"type":"Feature","properties":{"code":"93029","nom":"Drancy","app":18.82,"app_bas":15.38,"app_haut":23.04,"app_ech":"commune","app_obs":4154,"mai":18.13,"mai_bas":13.36,"mai_haut":24.6,"mai_ech":"commune","mai_obs":330},"geometry":{"type":"Polygon","coordinates":[[[2.4422,48.9372],[2.4549,48.9378],[2.4608,48.9329],[2.4625,48.9263],[2.469,48.9191],[2.4743,48.9184],[2.4752,48.9164],[2.4537,48.9116],[2.4369,48.913],[2.4135,48.9193],[2.422,48.9296],[2.4444,48.9327],[2.4422,48.9372]]]}},{"type":"Feature","properties":{"code":"93063","nom":"Romainville","app":20.98,"app_bas":16.37,"app_haut":26.9,"app_ech":"commune","app_obs":2841,"mai":20.64,"mai_bas":12.57,"mai_haut":33.89,"mai_ech":"maille","mai_obs":76},"geometry":{"type":"Polygon","coordinates":[[[2.4244,48.8912],[2.4277,48.8959],[2.4413,48.8983],[2.439,48.8932],[2.4505,48.8855],[2.4517,48.8785],[2.4464,48.873],[2.4354,48.8746],[2.4297,48.8783],[2.4244,48.8912]]]}},{"type":"Feature","properties":{"code":"93057","nom":"Pavillons-sous-Bois","app":18.1,"app_bas":14.92,"app_haut":21.96,"app_ech":"commune","app_obs":2208,"mai":16.95,"mai_bas":12.64,"mai_haut":22.72,"mai_ech":"commune","mai_obs":130},"geometry":{"type":"Polygon","coordinates":[[[2.5109,48.9018],[2.5076,48.8985],[2.4998,48.8957],[2.4964,48.8985],[2.4917,48.9169],[2.5073,48.9187],[2.5087,48.9132],[2.5189,48.9093],[2.5109,48.9018]]]}},{"type":"Feature","properties":{"code":"93046","nom":"Livry-Gargan","app":18.46,"app_bas":15.28,"app_haut":22.29,"app_ech":"commune","app_obs":5751,"mai":16.39,"mai_bas":12.23,"mai_haut":21.97,"mai_ech":"commune","mai_obs":276},"geometry":{"type":"Polygon","coordinates":[[[2.5109,48.9018],[2.5189,48.9093],[2.5087,48.9132],[2.5073,48.9187],[2.5176,48.9257],[2.5312,48.9267],[2.5446,48.9341],[2.5572,48.9345],[2.5646,48.9283],[2.5592,48.9214],[2.5478,48.9178],[2.5215,48.9037],[2.5109,48.9018]]]}},{"type":"Feature","properties":{"code":"93064","nom":"Rosny-sous-Bois","app":20.65,"app_bas":17.06,"app_haut":24.98,"app_ech":"commune","app_obs":5983,"mai":18.14,"mai_bas":10.75,"mai_haut":30.62,"mai_ech":"commune","mai_obs":129},"geometry":{"type":"Polygon","coordinates":[[[2.4815,48.8614],[2.4648,48.8781],[2.4766,48.8887],[2.4868,48.887],[2.5008,48.8771],[2.5091,48.8779],[2.4964,48.8599],[2.4815,48.8614]]]}},{"type":"Feature","properties":{"code":"93077","nom":"Villemomble","app":19.88,"app_bas":16.06,"app_haut":24.61,"app_ech":"commune","app_obs":3635,"mai":17.11,"mai_bas":12.24,"mai_haut":23.94,"mai_ech":"commune","mai_obs":107},"geometry":{"type":"Polygon","coordinates":[[[2.5298,48.8743],[2.5204,48.8746],[2.5091,48.8779],[2.5008,48.8771],[2.4868,48.887],[2.4946,48.8894],[2.4998,48.8957],[2.5076,48.8985],[2.5125,48.889],[2.5182,48.8912],[2.5268,48.8814],[2.5298,48.8743]]]}},{"type":"Feature","properties":{"code":"93074","nom":"Vaujours","app":17.96,"app_bas":15.16,"app_haut":21.28,"app_ech":"commune","app_obs":956,"mai":16.49,"mai_bas":12.3,"mai_haut":22.1,"mai_ech":"maille","mai_obs":40},"geometry":{"type":"Polygon","coordinates":[[[2.557,48.9353],[2.5686,48.9367],[2.569,48.9432],[2.5796,48.9365],[2.5959,48.9386],[2.6032,48.9375],[2.6026,48.9294],[2.5923,48.925],[2.587,48.9275],[2.5736,48.9255],[2.5646,48.9283],[2.557,48.9353]]]}},{"type":"Feature","properties":{"code":"93033","nom":"Gournay-sur-Marne","app":19.13,"app_bas":16.3,"app_haut":22.45,"app_ech":"commune","app_obs":932,"mai":15.29,"mai_bas":10.76,"mai_haut":21.72,"mai_ech":"maille","mai_obs":40},"geometry":{"type":"Polygon","coordinates":[[[2.5738,48.8534],[2.5669,48.8577],[2.5676,48.8659],[2.5873,48.865],[2.5831,48.8572],[2.5738,48.8534]]]}},{"type":"Feature","properties":{"code":"93062","nom":"Raincy","app":20.51,"app_bas":16.7,"app_haut":25.17,"app_ech":"commune","app_obs":2132,"mai":18.14,"mai_bas":12.98,"mai_haut":25.35,"mai_ech":"maille","mai_obs":44},"geometry":{"type":"Polygon","coordinates":[[[2.5109,48.9018],[2.5215,48.9037],[2.5321,48.8952],[2.5125,48.889],[2.5076,48.8985],[2.5109,48.9018]]]}},{"type":"Feature","properties":{"code":"93030","nom":"Dugny","app":17.72,"app_bas":14.36,"app_haut":21.87,"app_ech":"commune","app_obs":403,"mai":17.49,"mai_bas":12.89,"mai_haut":23.74,"mai_ech":"maille","mai_obs":8},"geometry":{"type":"Polygon","coordinates":[[[2.4044,48.9513],[2.4074,48.9561],[2.4273,48.9592],[2.4475,48.9558],[2.435,48.9451],[2.4303,48.9463],[2.4175,48.9396],[2.4044,48.9513]]]}},{"type":"Feature","properties":{"code":"93010","nom":"Bondy","app":19.52,"app_bas":15.77,"app_haut":24.16,"app_ech":"commune","app_obs":2652,"mai":17.73,"mai_bas":13.08,"mai_haut":24.03,"mai_ech":"commune","mai_obs":156},"geometry":{"type":"Polygon","coordinates":[[[2.4868,48.887],[2.4712,48.8889],[2.4699,48.9048],[2.4752,48.9164],[2.4743,48.9184],[2.4794,48.9198],[2.4917,48.9169],[2.4964,48.8985],[2.4998,48.8957],[2.4946,48.8894],[2.4868,48.887]]]}},{"type":"Feature","properties":{"code":"93047","nom":"Montfermeil","app":18.01,"app_bas":14.82,"app_haut":21.88,"app_ech":"commune","app_obs":1352,"mai":16.31,"mai_bas":12.17,"mai_haut":21.86,"mai_ech":"commune","mai_obs":130},"geometry":{"type":"Polygon","coordinates":[[[2.5914,48.9071],[2.5838,48.8954],[2.5626,48.8889],[2.5594,48.8853],[2.5495,48.8872],[2.5466,48.8989],[2.5652,48.9084],[2.5914,48.9071]]]}},{"type":"Feature","properties":{"code":"93079","nom":"Villetaneuse","app":18.2,"app_bas":14.19,"app_haut":23.35,"app_ech":"commune","app_obs":207,"mai":17.19,"mai_bas":10.36,"mai_haut":28.52,"mai_ech":"maille","mai_obs":22},"geometry":{"type":"Polygon","coordinates":[[[2.3535,48.9656],[2.352,48.9505],[2.3458,48.9465],[2.3333,48.9554],[2.3402,48.9633],[2.3535,48.9656]]]}},{"type":"Feature","properties":{"code":"93059","nom":"Pierrefitte-sur-Seine","app":null,"app_bas":null,"app_haut":null,"app_ech":null,"app_obs":0,"mai":null,"mai_bas":null,"mai_haut":null,"mai_ech":null,"mai_obs":0},"geometry":{"type":"Polygon","coordinates":[[[2.3535,48.9656],[2.3662,48.9742],[2.3759,48.972],[2.3711,48.9599],[2.3715,48.9473],[2.352,48.9505],[2.3535,48.9656]]]}},{"type":"Feature","properties":{"code":"93049","nom":"Neuilly-Plaisance","app":21.56,"app_bas":18.22,"app_haut":25.51,"app_ech":"commune","app_obs":3065,"mai":18.14,"mai_bas":12.98,"mai_haut":25.35,"mai_ech":"maille","mai_obs":83},"geometry":{"type":"Polygon","coordinates":[[[2.5204,48.8746],[2.5187,48.8559],[2.5208,48.8522],[2.5157,48.8514],[2.5137,48.8502],[2.5063,48.8558],[2.4997,48.8557],[2.4964,48.8599],[2.5091,48.8779],[2.5204,48.8746]]]}},{"type":"Feature","properties":{"code":"93005","nom":"Aulnay-sous-Bois","app":19.45,"app_bas":15.5,"app_haut":24.41,"app_ech":"commune","app_obs":4157,"mai":18.33,"mai_bas":13.52,"mai_haut":24.84,"mai_ech":"commune","mai_obs":294},"geometry":{"type":"Polygon","coordinates":[[[2.496,48.9727],[2.5088,48.964],[2.5241,48.9506],[2.51,48.9426],[2.5071,48.9356],[2.5176,48.9257],[2.5073,48.9187],[2.4917,48.9169],[2.4794,48.9198],[2.483,48.9339],[2.4774,48.9445],[2.4595,48.955],[2.4673,48.9643],[2.496,48.9727]]]}},{"type":"Feature","properties":{"code":"93066","nom":"Saint-Denis","app":20.97,"app_bas":16.37,"app_haut":26.88,"app_ech":"commune","app_obs":7647,"mai":17.96,"mai_bas":10.81,"mai_haut":29.84,"mai_ech":"commune","mai_obs":256},"geometry":{"type":"Polygon","coordinates":[[[2.3658,48.9016],[2.3519,48.9015],[2.3514,48.9077],[2.3394,48.9197],[2.3328,48.9229],[2.3417,48.934],[2.3384,48.9426],[2.352,48.9505],[2.3715,48.9473],[2.384,48.9436],[2.3985,48.9481],[2.3776,48.9317],[2.3747,48.9237],[2.3671,48.9209],[2.3658,48.9016]]]}},{"type":"Feature","properties":{"code":"93045","nom":"Lilas","app":24.96,"app_bas":20.34,"app_haut":30.64,"app_ech":"commune","app_obs":2100,"mai":20.64,"mai_bas":12.57,"mai_haut":33.89,"mai_ech":"maille","mai_obs":51},"geometry":{"type":"Polygon","coordinates":[[[2.4244,48.8912],[2.4297,48.8783],[2.4219,48.8782],[2.4133,48.8731],[2.4107,48.8785],[2.4113,48.8832],[2.4187,48.8848],[2.4244,48.8912]]]}},{"type":"Feature","properties":{"code":"93071","nom":"Sevran","app":18.18,"app_bas":14.79,"app_haut":22.34,"app_ech":"commune","app_obs":2298,"mai":17.94,"mai_bas":12.36,"mai_haut":26.04,"mai_ech":"commune","mai_obs":198},"geometry":{"type":"Polygon","coordinates":[[[2.5176,48.9257],[2.5071,48.9356],[2.51,48.9426],[2.5241,48.9506],[2.5426,48.9507],[2.5542,48.943],[2.5572,48.9345],[2.5446,48.9341],[2.5312,48.9267],[2.5176,48.9257]]]}},{"type":"Feature","properties":{"code":"93048","nom":"Montreuil","app":22.86,"app_bas":17.64,"app_haut":29.62,"app_ech":"commune","app_obs":8009,"mai":22.99,"mai_bas":13.06,"mai_haut":40.45,"mai_ech":"commune","mai_obs":232},"geometry":{"type":"Polygon","coordinates":[[[2.4517,48.8785],[2.4648,48.8781],[2.4815,48.8614],[2.4626,48.8572],[2.4471,48.8512],[2.4163,48.8492],[2.4153,48.8552],[2.4228,48.8607],[2.4354,48.8746],[2.4464,48.873],[2.4517,48.8785]]]}}]}