{"type":"FeatureCollection","features":[{"type":"Feature","properties":{"code":"94070","nom":"Santeny","app":18.42,"app_bas":15.33,"app_haut":22.14,"app_ech":"commune","app_obs":288,"mai":16.44,"mai_bas":13.29,"mai_haut":20.33,"mai_ech":"maille","mai_obs":30,"a12":20.79,"a3":16.43},"geometry":{"type":"Polygon","coordinates":[[[2.5947,48.7318],[2.5852,48.7272],[2.5736,48.7131],[2.5681,48.709],[2.554,48.7154],[2.5537,48.7224],[2.5562,48.7306],[2.5717,48.743],[2.5702,48.7512],[2.5894,48.7615],[2.5975,48.7606],[2.6023,48.7537],[2.5962,48.7473],[2.5858,48.7415],[2.5947,48.7318]]]}},{"type":"Feature","properties":{"code":"94081","nom":"Vitry-sur-Seine","app":20.8,"app_bas":16.72,"app_haut":25.86,"app_ech":"commune","app_obs":6589,"mai":20.58,"mai_bas":13.38,"mai_haut":31.65,"mai_ech":"commune","mai_obs":224,"a12":23.9,"a3":18.75},"geometry":{"type":"Polygon","coordinates":[[[2.3712,48.804],[2.3757,48.8059],[2.3869,48.8003],[2.3943,48.8002],[2.4089,48.8085],[2.411,48.8038],[2.4227,48.7918],[2.4148,48.7773],[2.3751,48.7714],[2.3678,48.7719],[2.3673,48.7794],[2.3758,48.788],[2.3714,48.795],[2.3712,48.804]]]}},{"type":"Feature","properties":{"code":"94028","nom":"Créteil","app":21.03,"app_bas":15.39,"app_haut":28.74,"app_ech":"commune","app_obs":7111,"mai":18.53,"mai_bas":11.97,"mai_haut":28.69,"mai_ech":"commune","mai_obs":118,"a12":24.94,"a3":19.15},"geometry":{"type":"Polygon","coordinates":[[[2.4683,48.7623],[2.4655,48.7663],[2.4409,48.7719],[2.4356,48.7672],[2.428,48.776],[2.4327,48.7867],[2.436,48.7871],[2.447,48.8025],[2.464,48.8074],[2.4686,48.8037],[2.4749,48.7876],[2.4737,48.7748],[2.4772,48.7628],[2.4735,48.7618],[2.4683,48.7623]]]}},{"type":"Feature","properties":{"code":"94053","nom":"Noiseau","app":18.3,"app_bas":15.47,"app_haut":21.64,"app_ech":"commune","app_obs":283,"mai":16.15,"mai_bas":11.77,"mai_haut":22.17,"mai_ech":"maille","mai_obs":29,"a12":21.24,"a3":16.55},"geometry":{"type":"Polygon","coordinates":[[[2.562,48.7878],[2.5717,48.7671],[2.5615,48.7637],[2.5457,48.7653],[2.5396,48.7681],[2.5356,48.777],[2.5458,48.7825],[2.562,48.7878]]]}},{"type":"Feature","properties":{"code":"94016","nom":"Cachan","app":23.3,"app_bas":19.17,"app_haut":28.32,"app_ech":"commune","app_obs":3723,"mai":22.56,"mai_bas":13.29,"mai_haut":38.32,"mai_ech":"maille","mai_obs":75,"a12":26.51,"a3":20.98},"geometry":{"type":"Polygon","coordinates":[[[2.3438,48.7977],[2.3442,48.7908],[2.3386,48.7827],[2.3258,48.7819],[2.3187,48.788],[2.3239,48.8016],[2.3438,48.7977]]]}},{"type":"Feature","properties":{"code":"94047","nom":"Mandres-les-Roses","app":17.88,"app_bas":14.77,"app_haut":21.65,"app_ech":"commune","app_obs":382,"mai":16.44,"mai_bas":13.29,"mai_haut":20.33,"mai_ech":"maille","mai_obs":40,"a12":21.01,"a3":15.92},"geometry":{"type":"Polygon","coordinates":[[[2.5296,48.7062],[2.554,48.7154],[2.5681,48.709],[2.5688,48.7072],[2.5572,48.7006],[2.5443,48.6984],[2.5311,48.6998],[2.5269,48.7047],[2.5296,48.7062]]]}},{"type":"Feature","properties":{"code":"94034","nom":"Fresnes","app":19.76,"app_bas":16.76,"app_haut":23.3,"app_ech":"commune","app_obs":1914,"mai":19.81,"mai_bas":14.26,"mai_haut":27.53,"mai_ech":"maille","mai_obs":37,"a12":23.29,"a3":16.83},"geometry":{"type":"Polygon","coordinates":[[[2.3327,48.7646],[2.3439,48.7562],[2.3307,48.7481],[2.3207,48.7488],[2.3102,48.757],[2.3159,48.7668],[2.3327,48.7646]]]}},{"type":"Feature","properties":{"code":"94078","nom":"Villeneuve-Saint-Georges","app":17.82,"app_bas":14.19,"app_haut":22.4,"app_ech":"commune","app_obs":1900,"mai":16.77,"mai_bas":12.41,"mai_haut":22.68,"mai_ech":"maille","mai_obs":85,"a12":22.01,"a3":15.5},"geometry":{"type":"Polygon","coordinates":[[[2.4275,48.751],[2.4266,48.7606],[2.434,48.7635],[2.4491,48.7611],[2.4576,48.7482],[2.4585,48.7425],[2.4712,48.7382],[2.473,48.7276],[2.4674,48.7287],[2.4549,48.7227],[2.4512,48.7149],[2.4428,48.7207],[2.4401,48.7254],[2.445,48.7355],[2.4368,48.7452],[2.4275,48.751]]]}},{"type":"Feature","properties":{"code":"94015","nom":"Bry-sur-Marne","app":21.31,"app_bas":17.92,"app_haut":25.33,"app_ech":"commune","app_obs":2138,"mai":15.29,"mai_bas":10.76,"mai_haut":21.72,"mai_ech":"maille","mai_obs":72,"a12":24.6,"a3":19.4},"geometry":{"type":"Polygon","coordinates":[[[2.525,48.8273],[2.521,48.8293],[2.5047,48.8297],[2.5165,48.8318],[2.5112,48.8455],[2.5137,48.8502],[2.5157,48.8514],[2.5313,48.8444],[2.5367,48.8385],[2.5317,48.8294],[2.525,48.8273]]]}},{"type":"Feature","properties":{"code":"94033","nom":"Fontenay-sous-Bois","app":22.92,"app_bas":18.39,"app_haut":28.56,"app_ech":"commune","app_obs":4814,"mai":19.55,"mai_bas":11.58,"mai_haut":33.03,"mai_ech":"commune","mai_obs":189,"a12":25.74,"a3":21.02},"geometry":{"type":"Polygon","coordinates":[[[2.4471,48.8512],[2.4626,48.8572],[2.4815,48.8614],[2.4964,48.8599],[2.4997,48.8557],[2.4915,48.8476],[2.4798,48.842],[2.4672,48.8391],[2.4634,48.8421],[2.4478,48.8448],[2.4471,48.8512]]]}},{"type":"Feature","properties":{"code":"94076","nom":"Villejuif","app":22.84,"app_bas":17.7,"app_haut":29.47,"app_ech":"commune","app_obs":4959,"mai":20.03,"mai_bas":14.45,"mai_haut":27.78,"mai_ech":"commune","mai_obs":165,"a12":25.84,"a3":20.62},"geometry":{"type":"Polygon","coordinates":[[[2.3712,48.804],[2.3714,48.795],[2.3758,48.788],[2.3673,48.7794],[2.3549,48.7787],[2.3454,48.7853],[2.3438,48.7977],[2.3478,48.8015],[2.3672,48.808],[2.3712,48.804]]]}},{"type":"Feature","properties":{"code":"94018","nom":"Charenton-le-Pont","app":27.2,"app_bas":22.19,"app_haut":33.34,"app_ech":"commune","app_obs":3626,"mai":23.09,"mai_bas":15.46,"mai_haut":34.48,"mai_ech":"maille","mai_obs":15,"a12":29.08,"a3":26.86},"geometry":{"type":"Polygon","coordinates":[[[2.3901,48.8257],[2.406,48.8276],[2.42,48.8241],[2.4196,48.8169],[2.4094,48.8167],[2.3901,48.8257]]]}},{"type":"Feature","properties":{"code":"94048","nom":"Marolles-en-Brie","app":18.42,"app_bas":15.33,"app_haut":22.14,"app_ech":"maille","app_obs":68,"mai":16.15,"mai_bas":11.77,"mai_haut":22.17,"mai_ech":"maille","mai_obs":26,"a12":20.87,"a3":16.36},"geometry":{"type":"Polygon","coordinates":[[[2.5365,48.7282],[2.5528,48.7469],[2.5566,48.7545],[2.5702,48.7512],[2.5717,48.743],[2.5562,48.7306],[2.5537,48.7224],[2.5365,48.7282]]]}},{"type":"Feature","properties":{"code":"94067","nom":"Saint-Mandé","app":31.36,"app_bas":25.4,"app_haut":38.71,"app_ech":"commune","app_obs":2630,"mai":18.51,"mai_bas":11.01,"mai_haut":31.12,"mai_ech":"maille","mai_obs":6,"a12":34.08,"a3":28.46},"geometry":{"type":"Polygon","coordinates":[[[2.4276,48.8416],[2.4221,48.8358],[2.4122,48.8345],[2.4163,48.8492],[2.419,48.8493],[2.4276,48.8416]]]}},{"type":"Feature","properties":{"code":"94001","nom":"Ablon-sur-Seine","app":18.38,"app_bas":15.55,"app_haut":21.72,"app_ech":"commune","app_obs":512,"mai":16.23,"mai_bas":11.51,"mai_haut":22.87,"mai_ech":"maille","mai_obs":32,"a12":21.77,"a3":15.98},"geometry":{"type":"Polygon","coordinates":[[[2.4143,48.7178],[2.411,48.7261],[2.4227,48.7292],[2.4351,48.7241],[2.4255,48.7227],[2.4143,48.7178]]]}},{"type":"Feature","properties":{"code":"94003","nom":"Arcueil","app":23.28,"app_bas":19.21,"app_haut":28.22,"app_ech":"commune","app_obs":2484,"mai":22.56,"mai_bas":13.29,"mai_haut":38.32,"mai_ech":"maille","mai_obs":80,"a12":26.07,"a3":21.18},"geometry":{"type":"Polygon","coordinates":[[[2.3438,48.7977],[2.3239,48.8016],[2.326,48.8067],[2.319,48.81],[2.3291,48.8138],[2.3412,48.811],[2.3478,48.8015],[2.3438,48.7977]]]}},{"type":"Feature","properties":{"code":"94069","nom":"Saint-Maurice","app":25.79,"app_bas":21.12,"app_haut":31.49,"app_ech":"commune","app_obs":2180,"mai":23.09,"mai_bas":15.46,"mai_haut":34.48,"mai_ech":"maille","mai_obs":9,"a12":26.99,"a3":24.95},"geometry":{"type":"Polygon","coordinates":[[[2.4546,48.8135],[2.4457,48.8162],[2.4196,48.8169],[2.42,48.8241],[2.4384,48.8182],[2.4612,48.8184],[2.4546,48.8135]]]}},{"type":"Feature","properties":{"code":"94073","nom":"Thiais","app":19.73,"app_bas":16.18,"app_haut":24.06,"app_ech":"commune","app_obs":3167,"mai":16.97,"mai_bas":12.39,"mai_haut":23.23,"mai_ech":"maille","mai_obs":65,"a12":22.85,"a3":18.15},"geometry":{"type":"Polygon","coordinates":[[[2.3694,48.7461],[2.3678,48.7719],[2.3751,48.7714],[2.3987,48.7747],[2.4032,48.768],[2.4025,48.7617],[2.4061,48.7511],[2.3912,48.7521],[2.3694,48.7461]]]}},{"type":"Feature","properties":{"code":"94022","nom":"Choisy-le-Roi","app":20.23,"app_bas":16.6,"app_haut":24.65,"app_ech":"commune","app_obs":3444,"mai":20.22,"mai_bas":13.21,"mai_haut":30.96,"mai_ech":"maille","mai_obs":86,"a12":22.86,"a3":19.33},"geometry":{"type":"Polygon","coordinates":[[[2.4148,48.7773],[2.428,48.776],[2.4356,48.7672],[2.4426,48.762],[2.434,48.7635],[2.4266,48.7606],[2.4275,48.751],[2.4133,48.7524],[2.4061,48.7511],[2.4025,48.7617],[2.4032,48.768],[2.3987,48.7747],[2.4148,48.7773]]]}},{"type":"Feature","properties":{"code":"94056","nom":"Périgny","app":17.31,"app_bas":14.32,"app_haut":20.92,"app_ech":"maille","app_obs":70,"mai":16.5,"mai_bas":12.5,"mai_haut":21.78,"mai_ech":"maille","mai_obs":12,"a12":20.64,"a3":15.15},"geometry":{"type":"Polygon","coordinates":[[[2.5743,48.701],[2.5717,48.692],[2.5539,48.6883],[2.549,48.689],[2.5443,48.6984],[2.5572,48.7006],[2.5688,48.7072],[2.5743,48.701]]]}},{"type":"Feature","properties":{"code":"94071","nom":"Sucy-en-Brie","app":19.47,"app_bas":16.47,"app_haut":23.03,"app_ech":"commune","app_obs":2139,"mai":18.58,"mai_bas":13.54,"mai_haut":25.51,"mai_ech":"commune","mai_obs":169,"a12":22.42,"a3":17.96},"geometry":{"type":"Polygon","coordinates":[[[2.5179,48.7855],[2.5125,48.7812],[2.5226,48.7775],[2.5356,48.777],[2.5396,48.7681],[2.5457,48.7653],[2.5615,48.7637],[2.5717,48.7671],[2.5797,48.7653],[2.572,48.7591],[2.5771,48.7551],[2.5702,48.7512],[2.5566,48.7545],[2.5226,48.7576],[2.4998,48.763],[2.4979,48.7733],[2.5125,48.7849],[2.5169,48.7865],[2.5179,48.7855]]]}},{"type":"Feature","properties":{"code":"94075","nom":"Villecresnes","app":18.49,"app_bas":15.39,"app_haut":22.22,"app_ech":"commune","app_obs":966,"mai":16.44,"mai_bas":13.29,"mai_haut":20.33,"mai_ech":"maille","mai_obs":93,"a12":20.67,"a3":16.91},"geometry":{"type":"Polygon","coordinates":[[[2.5296,48.7062],[2.5191,48.7126],[2.5157,48.7289],[2.5101,48.7347],[2.517,48.7385],[2.5308,48.7275],[2.5365,48.7282],[2.5537,48.7224],[2.554,48.7154],[2.5296,48.7062]]]}},{"type":"Feature","properties":{"code":"94037","nom":"Gentilly","app":23.59,"app_bas":19.43,"app_haut":28.63,"app_ech":"commune","app_obs":1612,"mai":22.56,"mai_bas":13.29,"mai_haut":38.32,"mai_ech":"maille","mai_obs":53,"a12":26.39,"a3":22.22},"geometry":{"type":"Polygon","coordinates":[[[2.3291,48.8138],[2.3319,48.817],[2.3439,48.8158],[2.3565,48.816],[2.3449,48.8054],[2.3412,48.811],[2.3291,48.8138]]]}},{"type":"Feature","properties":{"code":"94060","nom":"Queue-en-Brie","app":18.82,"app_bas":16.16,"app_haut":21.91,"app_ech":"commune","app_obs":504,"mai":16.15,"mai_bas":11.77,"mai_haut":22.17,"mai_ech":"maille","mai_obs":77,"a12":22.21,"a3":16.76},"geometry":{"type":"Polygon","coordinates":[[[2.5555,48.7921],[2.5717,48.7989],[2.5772,48.7938],[2.5885,48.7933],[2.5915,48.7974],[2.5991,48.7932],[2.5856,48.7786],[2.592,48.7714],[2.607,48.7744],[2.6148,48.7611],[2.5975,48.7606],[2.5894,48.7615],[2.5771,48.7551],[2.572,48.7591],[2.5797,48.7653],[2.5717,48.7671],[2.562,48.7878],[2.5555,48.7921]]]}},{"type":"Feature","properties":{"code":"94011","nom":"Bonneuil-sur-Marne","app":20.7,"app_bas":17.24,"app_haut":24.85,"app_ech":"commune","app_obs":512,"mai":20.22,"mai_bas":13.21,"mai_haut":30.96,"mai_ech":"maille","mai_obs":31,"a12":24.41,"a3":18.33},"geometry":{"type":"Polygon","coordinates":[[[2.4735,48.7618],[2.4772,48.7628],[2.4737,48.7748],[2.4749,48.7876],[2.4872,48.7842],[2.5125,48.7849],[2.4979,48.7733],[2.4998,48.763],[2.4932,48.7592],[2.487,48.7578],[2.4735,48.7618]]]}},{"type":"Feature","properties":{"code":"94041","nom":"Ivry-sur-Seine","app":23.61,"app_bas":18.82,"app_haut":29.64,"app_ech":"commune","app_obs":4853,"mai":20.22,"mai_bas":13.21,"mai_haut":30.96,"mai_ech":"maille","mai_obs":52,"a12":26.78,"a3":21.25},"geometry":{"type":"Polygon","coordinates":[[[2.3712,48.804],[2.3672,48.808],[2.3642,48.8164],[2.3901,48.8257],[2.4094,48.8167],[2.4089,48.8085],[2.3943,48.8002],[2.3869,48.8003],[2.3757,48.8059],[2.3712,48.804]]]}},{"type":"Feature","properties":{"code":"94068","nom":"Saint-Maur-des-Fossés","app":22.95,"app_bas":18.69,"app_haut":28.18,"app_ech":"commune","app_obs":12640,"mai":21.12,"mai_bas":14.18,"mai_haut":31.45,"mai_ech":"commune","mai_obs":560,"a12":25.17,"a3":22.37},"geometry":{"type":"Polygon","coordinates":[[[2.4749,48.7876],[2.4686,48.8037],[2.4606,48.8094],[2.4728,48.8146],[2.498,48.8104],[2.5165,48.8089],[2.5223,48.8041],[2.5235,48.7958],[2.5169,48.7865],[2.5125,48.7849],[2.4872,48.7842],[2.4749,48.7876]]]}},{"type":"Feature","properties":{"code":"94038","nom":"Haÿ-les-Roses","app":21.74,"app_bas":18.21,"app_haut":25.95,"app_ech":"commune","app_obs":2809,"mai":19.81,"mai_bas":14.26,"mai_haut":27.53,"mai_ech":"maille","mai_obs":89,"a12":24.28,"a3":20.59},"geometry":{"type":"Polygon","coordinates":[[[2.3258,48.7819],[2.3386,48.7827],[2.3442,48.7908],[2.3454,48.7853],[2.3549,48.7787],[2.3673,48.7794],[2.3549,48.7747],[2.3338,48.7707],[2.3327,48.7646],[2.3159,48.7668],[2.3199,48.7707],[2.3258,48.7819]]]}},{"type":"Feature","properties":{"code":"94021","nom":"Chevilly-Larue","app":19.83,"app_bas":16.42,"app_haut":23.94,"app_ech":"commune","app_obs":1198,"mai":19.81,"mai_bas":14.26,"mai_haut":27.53,"mai_ech":"maille","mai_obs":36,"a12":23.19,"a3":18.1},"geometry":{"type":"Polygon","coordinates":[[[2.3327,48.7646],[2.3338,48.7707],[2.3549,48.7747],[2.3673,48.7794],[2.3686,48.7575],[2.3531,48.7599],[2.3439,48.7562],[2.3327,48.7646]]]}},{"type":"Feature","properties":{"code":"94046","nom":"Maisons-Alfort","app":23.55,"app_bas":18.76,"app_haut":29.57,"app_ech":"commune","app_obs":3002,"mai":21.46,"mai_bas":14.34,"mai_haut":32.12,"mai_ech":"commune","mai_obs":107,"a12":26.25,"a3":22.25},"geometry":{"type":"Polygon","coordinates":[[[2.4606,48.8094],[2.464,48.8074],[2.447,48.8025],[2.436,48.7871],[2.4327,48.7867],[2.4241,48.8075],[2.4159,48.8163],[2.4457,48.8162],[2.4546,48.8135],[2.4606,48.8094]]]}},{"type":"Feature","properties":{"code":"94052","nom":"Nogent-sur-Marne","app":24.08,"app_bas":19.54,"app_haut":29.68,"app_ech":"commune","app_obs":6273,"mai":18.51,"mai_bas":11.01,"mai_haut":31.12,"mai_ech":"maille","mai_obs":84,"a12":26.58,"a3":23.14},"geometry":{"type":"Polygon","coordinates":[[[2.4758,48.8306],[2.4657,48.8262],[2.4672,48.8391],[2.4798,48.842],[2.4915,48.8476],[2.4976,48.8308],[2.4758,48.8306]]]}},{"type":"Feature","properties":{"code":"94059","nom":"Plessis-Trévise","app":19.22,"app_bas":16.52,"app_haut":22.37,"app_ech":"commune","app_obs":2484,"mai":17.67,"mai_bas":12.6,"mai_haut":24.78,"mai_ech":"commune","mai_obs":124,"a12":22.44,"a3":17.66},"geometry":{"type":"Polygon","coordinates":[[[2.5574,48.8187],[2.5685,48.8183],[2.5741,48.8129],[2.5923,48.8074],[2.5915,48.7974],[2.5885,48.7933],[2.5772,48.7938],[2.5717,48.7989],[2.5585,48.8076],[2.5574,48.8187]]]}},{"type":"Feature","properties":{"code":"94054","nom":"Orly","app":19.7,"app_bas":16.09,"app_haut":24.13,"app_ech":"commune","app_obs":1119,"mai":20.22,"mai_bas":13.21,"mai_haut":30.96,"mai_ech":"maille","mai_obs":69,"a12":23.46,"a3":17.31},"geometry":{"type":"Polygon","coordinates":[[[2.3694,48.7461],[2.3912,48.7521],[2.4061,48.7511],[2.4133,48.7524],[2.4275,48.751],[2.4368,48.7452],[2.4108,48.7426],[2.392,48.7369],[2.3823,48.7295],[2.3704,48.7279],[2.3694,48.7461]]]}},{"type":"Feature","properties":{"code":"94004","nom":"Boissy-Saint-Léger","app":18.69,"app_bas":15.92,"app_haut":21.95,"app_ech":"commune","app_obs":1816,"mai":16.44,"mai_bas":13.29,"mai_haut":20.33,"mai_ech":"maille","mai_obs":46,"a12":21.6,"a3":17.08},"geometry":{"type":"Polygon","coordinates":[[[2.4998,48.763],[2.5226,48.7576],[2.5566,48.7545],[2.5528,48.7469],[2.5365,48.7282],[2.5308,48.7275],[2.517,48.7385],[2.5118,48.7446],[2.5017,48.749],[2.4932,48.7592],[2.4998,48.763]]]}},{"type":"Feature","properties":{"code":"94042","nom":"Joinville-le-Pont","app":23.22,"app_bas":18.92,"app_haut":28.49,"app_ech":"commune","app_obs":2901,"mai":23.09,"mai_bas":15.46,"mai_haut":34.48,"mai_ech":"maille","mai_obs":90,"a12":25.5,"a3":22.54},"geometry":{"type":"Polygon","coordinates":[[[2.4606,48.8094],[2.4546,48.8135],[2.4612,48.8184],[2.4657,48.8262],[2.4758,48.8306],[2.4823,48.8188],[2.4802,48.8135],[2.4728,48.8146],[2.4606,48.8094]]]}},{"type":"Feature","properties":{"code":"94002","nom":"Alfortville","app":21.71,"app_bas":17.55,"app_haut":26.86,"app_ech":"commune","app_obs":4444,"mai":20.22,"mai_bas":13.21,"mai_haut":30.96,"mai_ech":"maille","mai_obs":50,"a12":24.7,"a3":19.92},"geometry":{"type":"Polygon","coordinates":[[[2.4148,48.7773],[2.4227,48.7918],[2.411,48.8038],[2.4089,48.8085],[2.4094,48.8167],[2.4159,48.8163],[2.4241,48.8075],[2.4327,48.7867],[2.428,48.776],[2.4148,48.7773]]]}},{"type":"Feature","properties":{"code":"94043","nom":"Kremlin-Bicêtre","app":24.58,"app_bas":20.02,"app_haut":30.16,"app_ech":"commune","app_obs":3148,"mai":22.56,"mai_bas":13.29,"mai_haut":38.32,"mai_ech":"maille","mai_obs":17,"a12":27.18,"a3":23.08},"geometry":{"type":"Polygon","coordinates":[[[2.3642,48.8164],[2.3672,48.808],[2.3478,48.8015],[2.3449,48.8054],[2.3565,48.816],[2.3642,48.8164]]]}},{"type":"Feature","properties":{"code":"94019","nom":"Chennevières-sur-Marne","app":19.4,"app_bas":16.18,"app_haut":23.26,"app_ech":"commune","app_obs":1746,"mai":18.14,"mai_bas":12.98,"mai_haut":25.35,"mai_ech":"maille","mai_obs":60,"a12":22.06,"a3":18.2},"geometry":{"type":"Polygon","coordinates":[[[2.5179,48.7855],[2.5169,48.7865],[2.5235,48.7958],[2.5223,48.8041],[2.5301,48.806],[2.5585,48.8076],[2.5717,48.7989],[2.5555,48.7921],[2.5514,48.7958],[2.5316,48.7897],[2.5223,48.782],[2.5179,48.7855]]]}},{"type":"Feature","properties":{"code":"94017","nom":"Champigny-sur-Marne","app":19.87,"app_bas":16.19,"app_haut":24.38,"app_ech":"commune","app_obs":6478,"mai":18.06,"mai_bas":12.92,"mai_haut":25.25,"mai_ech":"commune","mai_obs":379,"a12":23.06,"a3":18.15},"geometry":{"type":"Polygon","coordinates":[[[2.5574,48.8187],[2.5585,48.8076],[2.5301,48.806],[2.5223,48.8041],[2.5165,48.8089],[2.498,48.8104],[2.4802,48.8135],[2.4823,48.8188],[2.4758,48.8306],[2.4976,48.8308],[2.5047,48.8297],[2.521,48.8293],[2.525,48.8273],[2.5332,48.8189],[2.5574,48.8187]]]}},{"type":"Feature","properties":{"code":"94058","nom":"Perreux-sur-Marne","app":22.79,"app_bas":19.04,"app_haut":27.27,"app_ech":"commune","app_obs":5896,"mai":21.35,"mai_bas":15.26,"mai_haut":29.86,"mai_ech":"commune","mai_obs":171,"a12":25.4,"a3":21.48},"geometry":{"type":"Polygon","coordinates":[[[2.4976,48.8308],[2.4915,48.8476],[2.4997,48.8557],[2.5063,48.8558],[2.5137,48.8502],[2.5112,48.8455],[2.5165,48.8318],[2.5047,48.8297],[2.4976,48.8308]]]}},{"type":"Feature","properties":{"code":"94077","nom":"Villeneuve-le-Roi","app":18.67,"app_bas":15.7,"app_haut":22.21,"app_ech":"commune","app_obs":1563,"mai":16.31,"mai_bas":11.52,"mai_haut":23.1,"mai_ech":"commune","mai_obs":101,"a12":21.82,"a3":16.97},"geometry":{"type":"Polygon","coordinates":[[[2.4351,48.7241],[2.4227,48.7292],[2.3867,48.72],[2.3707,48.7202],[2.3704,48.7279],[2.3823,48.7295],[2.392,48.7369],[2.4108,48.7426],[2.4368,48.7452],[2.445,48.7355],[2.4401,48.7254],[2.4351,48.7241]]]}},{"type":"Feature","properties":{"code":"94055","nom":"Ormesson-sur-Marne","app":19.07,"app_bas":16.12,"app_haut":22.56,"app_ech":"commune","app_obs":396,"mai":17.66,"mai_bas":12.85,"mai_haut":24.26,"mai_ech":"commune","mai_obs":101,"a12":21.91,"a3":16.98},"geometry":{"type":"Polygon","coordinates":[[[2.5179,48.7855],[2.5223,48.782],[2.5316,48.7897],[2.5514,48.7958],[2.562,48.7878],[2.5458,48.7825],[2.5356,48.777],[2.5226,48.7775],[2.5125,48.7812],[2.5179,48.7855]]]}},{"type":"Feature","properties":{"code":"94074","nom":"Valenton","app":18.83,"app_bas":14.94,"app_haut":23.75,"app_ech":"commune","app_obs":322,"mai":16.77,"mai_bas":12.41,"mai_haut":22.68,"mai_ech":"maille","mai_obs":18,"a12":21.7,"a3":17.27},"geometry":{"type":"Polygon","coordinates":[[[2.4754,48.7276],[2.473,48.7276],[2.4712,48.7382],[2.4585,48.7425],[2.4576,48.7482],[2.4491,48.7611],[2.4426,48.762],[2.4356,48.7672],[2.4409,48.7719],[2.4655,48.7663],[2.4683,48.7623],[2.4744,48.7413],[2.4846,48.7291],[2.4754,48.7276]]]}},{"type":"Feature","properties":{"code":"94080","nom":"Vincennes","app":29.41,"app_bas":23.32,"app_haut":37.09,"app_ech":"commune","app_obs":6873,"mai":18.51,"mai_bas":11.01,"mai_haut":31.12,"mai_ech":"maille","mai_obs":51,"a12":31.13,"a3":28.96},"geometry":{"type":"Polygon","coordinates":[[[2.419,48.8493],[2.4471,48.8512],[2.4478,48.8448],[2.4276,48.8416],[2.419,48.8493]]]}},{"type":"Feature","properties":{"code":"94079","nom":"Villiers-sur-Marne","app":19.29,"app_bas":16.19,"app_haut":22.98,"app_ech":"commune","app_obs":5486,"mai":17.76,"mai_bas":12.7,"mai_haut":24.83,"mai_ech":"commune","mai_obs":161,"a12":21.83,"a3":17.96},"geometry":{"type":"Polygon","coordinates":[[[2.5574,48.8187],[2.5332,48.8189],[2.525,48.8273],[2.5317,48.8294],[2.5367,48.8385],[2.5485,48.8349],[2.571,48.8227],[2.5685,48.8183],[2.5574,48.8187]]]}},{"type":"Feature","properties":{"code":"94044","nom":"Limeil-Brévannes","app":18.62,"app_bas":15.8,"app_haut":21.95,"app_ech":"commune","app_obs":2503,"mai":16.44,"mai_bas":13.29,"mai_haut":20.33,"mai_ech":"maille","mai_obs":88,"a12":21.89,"a3":16.87},"geometry":{"type":"Polygon","coordinates":[[[2.4735,48.7618],[2.487,48.7578],[2.4932,48.7592],[2.5017,48.749],[2.5118,48.7446],[2.517,48.7385],[2.5101,48.7347],[2.5035,48.7352],[2.4846,48.7291],[2.4744,48.7413],[2.4683,48.7623],[2.4735,48.7618]]]}},{"type":"Feature","properties":{"code":"94065","nom":"Rungis","app":19.87,"app_bas":17.13,"app_haut":23.05,"app_ech":"commune","app_obs":694,"mai":21.6,"mai_bas":16.17,"mai_haut":28.85,"mai_ech":"maille","mai_obs":23,"a12":23.45,"a3":18.82},"geometry":{"type":"Polygon","coordinates":[[[2.3307,48.7481],[2.3439,48.7562],[2.3531,48.7599],[2.3686,48.7575],[2.3694,48.7461],[2.3629,48.7461],[2.354,48.7387],[2.3368,48.7432],[2.3307,48.7481]]]}}]}