{"type":"FeatureCollection","features":[{"type":"Feature","properties":{"code":"95277","nom":"Gonesse","app":18.32,"app_bas":15.08,"app_haut":22.25,"app_ech":"commune","app_obs":1407,"mai":18,"mai_bas":12.4,"mai_haut":26.13,"mai_ech":"maille","mai_obs":79},"geometry":{"type":"Polygon","coordinates":[[[2.4858,48.9993],[2.484,48.9965],[2.4959,48.9885],[2.5019,48.9785],[2.5005,48.9753],[2.496,48.9727],[2.4673,48.9643],[2.4595,48.955],[2.456,48.9558],[2.4521,48.9626],[2.4367,48.978],[2.4323,48.9798],[2.4206,48.9963],[2.4165,48.9985],[2.4251,49.014],[2.4432,49.0126],[2.4447,49.0063],[2.4573,49.002],[2.467,48.9945],[2.4798,48.995],[2.4835,48.9992],[2.4858,48.9993]]]}},{"type":"Feature","properties":{"code":"95476","nom":"Osny","app":18.09,"app_bas":15.71,"app_haut":20.83,"app_ech":"commune","app_obs":1792,"mai":16.39,"mai_bas":12.3,"mai_haut":21.84,"mai_ech":"commune","mai_obs":147},"geometry":{"type":"Polygon","coordinates":[[[2.0346,49.0628],[2.0456,49.083],[2.0631,49.0864],[2.0841,49.0842],[2.093,49.0676],[2.0722,49.0472],[2.0547,49.055],[2.0278,49.0565],[2.0346,49.0628]]]}},{"type":"Feature","properties":{"code":"95585","nom":"Sarcelles","app":18.04,"app_bas":13.1,"app_haut":24.86,"app_ech":"commune","app_obs":1483,"mai":17.36,"mai_bas":12.12,"mai_haut":24.88,"mai_ech":"maille","mai_obs":86},"geometry":{"type":"Polygon","coordinates":[[[2.3643,48.9787],[2.3657,48.9888],[2.3687,48.9946],[2.3637,49.0096],[2.3796,49.0135],[2.3789,49.0069],[2.384,49.0016],[2.4081,48.992],[2.4008,48.9827],[2.3824,48.9713],[2.3662,48.9742],[2.3643,48.9787]]]}},{"type":"Feature","properties":{"code":"95580","nom":"Saint-Witz","app":17.72,"app_bas":15.32,"app_haut":20.5,"app_ech":"maille","app_obs":75,"mai":12.66,"mai_bas":10.08,"mai_haut":15.89,"mai_ech":"maille","mai_obs":52},"geometry":{"type":"Polygon","coordinates":[[[2.5457,49.0704],[2.5346,49.0802],[2.5291,49.0784],[2.5247,49.0874],[2.5245,49.0979],[2.5308,49.0961],[2.5304,49.0919],[2.5509,49.0928],[2.5595,49.0976],[2.5732,49.0942],[2.5799,49.0897],[2.583,49.0807],[2.5666,49.0767],[2.5536,49.079],[2.5457,49.0704]]]}},{"type":"Feature","properties":{"code":"95052","nom":"Beaumont-sur-Oise","app":15.41,"app_bas":12.52,"app_haut":18.95,"app_ech":"commune","app_obs":1199,"mai":15.13,"mai_bas":11.52,"mai_haut":19.87,"mai_ech":"maille","mai_obs":55},"geometry":{"type":"Polygon","coordinates":[[[2.3201,49.1247],[2.3136,49.1228],[2.3059,49.1325],[2.2972,49.1366],[2.2782,49.1352],[2.2681,49.1394],[2.2942,49.1512],[2.3119,49.1502],[2.3227,49.1466],[2.3156,49.1393],[2.3201,49.1247]]]}},{"type":"Feature","properties":{"code":"95116","nom":"Bruyères-sur-Oise","app":15.55,"app_bas":12.84,"app_haut":18.83,"app_ech":"maille","app_obs":67,"mai":15.13,"mai_bas":11.52,"mai_haut":19.87,"mai_ech":"maille","mai_obs":60},"geometry":{"type":"Polygon","coordinates":[[[2.3218,49.1844],[2.3223,49.1809],[2.3463,49.1618],[2.3593,49.1473],[2.3386,49.1457],[2.3295,49.1419],[2.3227,49.1466],[2.3119,49.1502],[2.3136,49.1686],[2.3106,49.1849],[2.3218,49.1844]]]}},{"type":"Feature","properties":{"code":"95258","nom":"Frouville","app":15.96,"app_bas":13.25,"app_haut":19.23,"app_ech":"maille","app_obs":22,"mai":13.71,"mai_bas":10.98,"mai_haut":17.12,"mai_ech":"maille","mai_obs":5},"geometry":{"type":"Polygon","coordinates":[[[2.1287,49.1538],[2.1273,49.1599],[2.1276,49.1732],[2.1367,49.1746],[2.1489,49.1663],[2.1577,49.1725],[2.1639,49.1661],[2.1598,49.16],[2.1662,49.1563],[2.1633,49.1486],[2.1651,49.1426],[2.1599,49.1396],[2.1507,49.1443],[2.1392,49.1453],[2.1287,49.1538]]]}},{"type":"Feature","properties":{"code":"95308","nom":"Hérouville","app":16.17,"app_bas":13.71,"app_haut":19.08,"app_ech":"maille","app_obs":19,"mai":13.71,"mai_bas":10.98,"mai_haut":17.12,"mai_ech":"maille","mai_obs":6},"geometry":{"type":"Polygon","coordinates":[[[2.1354,49.1165],[2.1482,49.1101],[2.1498,49.1042],[2.1422,49.092],[2.1303,49.086],[2.1165,49.0936],[2.1094,49.1026],[2.1097,49.1113],[2.1056,49.1136],[2.1142,49.1229],[2.1354,49.1165]]]}},{"type":"Feature","properties":{"code":"95019","nom":"Arnouville","app":18.15,"app_bas":14.68,"app_haut":22.43,"app_ech":"commune","app_obs":420,"mai":17.36,"mai_bas":12.12,"mai_haut":24.88,"mai_ech":"maille","mai_obs":58},"geometry":{"type":"Polygon","coordinates":[[[2.4165,48.9985],[2.4206,48.9963],[2.4323,48.9798],[2.4248,48.975],[2.4066,48.9827],[2.4008,48.9827],[2.4081,48.992],[2.4165,48.9985]]]}},{"type":"Feature","properties":{"code":"95055","nom":"Bellefontaine","app":17.31,"app_bas":14.61,"app_haut":20.53,"app_ech":"maille","app_obs":47,"mai":17.08,"mai_bas":13.32,"mai_haut":21.91,"mai_ech":"maille","mai_obs":24},"geometry":{"type":"Polygon","coordinates":[[[2.4537,49.0896],[2.465,49.0968],[2.45,49.1008],[2.4632,49.1118],[2.4832,49.1117],[2.4842,49.1069],[2.4805,49.1061],[2.4782,49.0944],[2.4879,49.0943],[2.4866,49.0893],[2.4724,49.071],[2.4621,49.0727],[2.4537,49.0896]]]}},{"type":"Feature","properties":{"code":"95395","nom":"Mesnil-Aubry","app":17.34,"app_bas":14.43,"app_haut":20.83,"app_ech":"maille","app_obs":34,"mai":13.81,"mai_bas":10.77,"mai_haut":17.7,"mai_ech":"maille","mai_obs":3},"geometry":{"type":"Polygon","coordinates":[[[2.3996,49.0397],[2.3829,49.042],[2.3698,49.0545],[2.3752,49.0635],[2.3863,49.0684],[2.3943,49.0687],[2.4087,49.0572],[2.4136,49.0563],[2.4185,49.0464],[2.4029,49.0445],[2.3996,49.0397]]]}},{"type":"Feature","properties":{"code":"95574","nom":"Saint-Prix","app":18.89,"app_bas":15.83,"app_haut":22.55,"app_ech":"commune","app_obs":396,"mai":17.64,"mai_bas":13.21,"mai_haut":23.55,"mai_ech":"maille","mai_obs":36},"geometry":{"type":"Polygon","coordinates":[[[2.2583,49.04],[2.2748,49.0364],[2.2944,49.0302],[2.2956,49.0268],[2.2846,49.0199],[2.2816,49.0117],[2.2734,49.0065],[2.2635,48.9982],[2.2523,49.0018],[2.2585,49.0171],[2.2558,49.025],[2.2583,49.04]]]}},{"type":"Feature","properties":{"code":"95011","nom":"Ambleville","app":13.99,"app_bas":11.83,"app_haut":16.54,"app_ech":"maille","app_obs":4,"mai":11.62,"mai_bas":9.1,"mai_haut":14.83,"mai_ech":"maille","mai_obs":2},"geometry":{"type":"Polygon","coordinates":[[[1.7222,49.172],[1.7188,49.1657],[1.7086,49.1588],[1.7051,49.1487],[1.707,49.1439],[1.7028,49.1361],[1.6921,49.1287],[1.6744,49.1393],[1.6732,49.1451],[1.6787,49.1562],[1.6937,49.1637],[1.7182,49.1733],[1.7222,49.172]]]}},{"type":"Feature","properties":{"code":"95316","nom":"Jagny-sous-Bois","app":17.31,"app_bas":14.61,"app_haut":20.53,"app_ech":"maille","app_obs":2,"mai":17.08,"mai_bas":13.32,"mai_haut":21.91,"mai_ech":"maille","mai_obs":5},"geometry":{"type":"Polygon","coordinates":[[[2.4223,49.0839],[2.423,49.087],[2.4357,49.0882],[2.4492,49.095],[2.4537,49.0896],[2.4621,49.0727],[2.4418,49.069],[2.4397,49.0749],[2.4223,49.0839]]]}},{"type":"Feature","properties":{"code":"95584","nom":"Santeuil","app":15.67,"app_bas":13.63,"app_haut":18.03,"app_ech":"maille","app_obs":6,"mai":13.71,"mai_bas":10.98,"mai_haut":17.12,"mai_ech":"maille","mai_obs":16},"geometry":{"type":"Polygon","coordinates":[[[1.9609,49.1448],[1.9821,49.1308],[1.9753,49.1246],[1.9637,49.1196],[1.9504,49.1192],[1.9425,49.1211],[1.9311,49.1294],[1.9339,49.1321],[1.944,49.1297],[1.9531,49.1337],[1.9609,49.1448]]]}},{"type":"Feature","properties":{"code":"95510","nom":"Puiseux-Pontoise","app":17.43,"app_bas":14.63,"app_haut":20.75,"app_ech":"maille","app_obs":26,"mai":14.15,"mai_bas":10.61,"mai_haut":18.87,"mai_ech":"maille","mai_obs":1},"geometry":{"type":"Polygon","coordinates":[[[2.0346,49.0628],[2.0241,49.0542],[2.0106,49.0561],[1.9943,49.0607],[1.9947,49.0634],[2.0056,49.0654],[2.013,49.07],[2.015,49.0775],[2.0252,49.0738],[2.0257,49.0688],[2.0346,49.0628]]]}},{"type":"Feature","properties":{"code":"95060","nom":"Bessancourt","app":18.02,"app_bas":15.46,"app_haut":21.01,"app_ech":"commune","app_obs":653,"mai":16.56,"mai_bas":13.07,"mai_haut":21,"mai_ech":"maille","mai_obs":73},"geometry":{"type":"Polygon","coordinates":[[[2.2239,49.0453],[2.2285,49.0407],[2.2255,49.0356],[2.2169,49.0311],[2.1924,49.0308],[2.1832,49.0254],[2.1683,49.0316],[2.1739,49.0388],[2.1863,49.0447],[2.1994,49.0446],[2.2161,49.0468],[2.2239,49.0453]]]}},{"type":"Feature","properties":{"code":"95074","nom":"Boisemont","app":18.5,"app_bas":15.57,"app_haut":21.97,"app_ech":"commune","app_obs":240,"mai":15.97,"mai_bas":12.3,"mai_haut":20.73,"mai_ech":"maille","mai_obs":43},"geometry":{"type":"Polygon","coordinates":[[[2.0049,49.0101],[1.9919,49.021],[1.9915,49.0237],[1.9992,49.0273],[2.0097,49.0269],[2.0108,49.0207],[2.0141,49.0137],[2.0076,49.0082],[2.0049,49.0101]]]}},{"type":"Feature","properties":{"code":"95256","nom":"Frépillon","app":17.91,"app_bas":15.37,"app_haut":20.87,"app_ech":"commune","app_obs":103,"mai":15.99,"mai_bas":12.47,"mai_haut":20.51,"mai_ech":"maille","mai_obs":36},"geometry":{"type":"Polygon","coordinates":[[[2.2239,49.0453],[2.2161,49.0468],[2.1994,49.0446],[2.1863,49.0447],[2.1739,49.0388],[2.1748,49.0451],[2.1981,49.0517],[2.2041,49.0611],[2.2313,49.0518],[2.2239,49.0453]]]}},{"type":"Feature","properties":{"code":"95352","nom":"Luzarches","app":16.33,"app_bas":13.5,"app_haut":19.76,"app_ech":"commune","app_obs":392,"mai":17.08,"mai_bas":13.32,"mai_haut":21.91,"mai_ech":"maille","mai_obs":57},"geometry":{"type":"Polygon","coordinates":[[[2.4613,49.1366],[2.4776,49.1311],[2.4817,49.1269],[2.4992,49.1223],[2.5021,49.1189],[2.4916,49.1113],[2.4899,49.1064],[2.4842,49.1069],[2.4832,49.1117],[2.4632,49.1118],[2.45,49.1008],[2.4381,49.1021],[2.4259,49.0919],[2.4092,49.0943],[2.4101,49.0981],[2.3936,49.0981],[2.3895,49.105],[2.3917,49.1104],[2.396,49.1157],[2.4078,49.1263],[2.4113,49.1341],[2.4262,49.1399],[2.4389,49.1415],[2.4354,49.1339],[2.4196,49.1337],[2.4109,49.1248],[2.4209,49.122],[2.431,49.1147],[2.4364,49.1163],[2.4483,49.1288],[2.4613,49.1366]]]}},{"type":"Feature","properties":{"code":"95491","nom":"Plessis-Bouchard","app":18.67,"app_bas":16.32,"app_haut":21.35,"app_ech":"commune","app_obs":770,"mai":15.99,"mai_bas":12.47,"mai_haut":20.51,"mai_ech":"maille","mai_obs":60},"geometry":{"type":"Polygon","coordinates":[[[2.2435,48.9943],[2.2171,49.0029],[2.2239,49.0118],[2.246,49.0052],[2.2504,49.0007],[2.2435,48.9943]]]}},{"type":"Feature","properties":{"code":"95641","nom":"Vémars","app":16.75,"app_bas":13.78,"app_haut":20.35,"app_ech":"commune","app_obs":289,"mai":14.12,"mai_bas":11.66,"mai_haut":17.11,"mai_ech":"maille","mai_obs":65},"geometry":{"type":"Polygon","coordinates":[[[2.5457,49.0704],[2.5536,49.079],[2.5666,49.0767],[2.583,49.0807],[2.5905,49.0797],[2.5824,49.0692],[2.5715,49.0598],[2.5742,49.0541],[2.5847,49.0526],[2.5945,49.0471],[2.5736,49.0431],[2.5693,49.0396],[2.5677,49.0414],[2.5684,49.0463],[2.55,49.0531],[2.5502,49.0624],[2.5457,49.0704]]]}},{"type":"Feature","properties":{"code":"95059","nom":"Berville","app":15.96,"app_bas":13.25,"app_haut":19.23,"app_ech":"maille","app_obs":15,"mai":13.71,"mai_bas":10.98,"mai_haut":17.12,"mai_ech":"maille","mai_obs":13},"geometry":{"type":"Polygon","coordinates":[[[2.0384,49.1924],[2.0668,49.2029],[2.0809,49.2104],[2.0915,49.2044],[2.0959,49.1901],[2.0891,49.1903],[2.0762,49.1733],[2.0476,49.1854],[2.0384,49.1924]]]}},{"type":"Feature","properties":{"code":"95213","nom":"Épiais-Rhus","app":16.42,"app_bas":14.25,"app_haut":18.92,"app_ech":"maille","app_obs":17,"mai":13.71,"mai_bas":10.98,"mai_haut":17.12,"mai_ech":"maille","mai_obs":19},"geometry":{"type":"Polygon","coordinates":[[[2.0918,49.1164],[2.0726,49.1008],[2.0637,49.1027],[2.0606,49.1096],[2.0502,49.1094],[2.0502,49.1217],[2.058,49.1269],[2.0674,49.1398],[2.0674,49.1434],[2.0853,49.1491],[2.0905,49.1467],[2.0892,49.133],[2.0935,49.125],[2.0918,49.1164]]]}},{"type":"Feature","properties":{"code":"95270","nom":"Genainville","app":14.68,"app_bas":12.41,"app_haut":17.37,"app_ech":"maille","app_obs":36,"mai":12.81,"mai_bas":9.93,"mai_haut":16.52,"mai_ech":"maille","mai_obs":10},"geometry":{"type":"Polygon","coordinates":[[[1.7415,49.138],[1.7669,49.1323],[1.7719,49.1294],[1.7704,49.1241],[1.7806,49.1178],[1.7751,49.1072],[1.7596,49.1026],[1.7542,49.0902],[1.7433,49.094],[1.7409,49.0992],[1.7454,49.1066],[1.7303,49.1249],[1.7415,49.138]]]}},{"type":"Feature","properties":{"code":"95298","nom":"Haravilliers","app":15.01,"app_bas":12.42,"app_haut":18.13,"app_ech":"maille","app_obs":4,"mai":13.71,"mai_bas":10.98,"mai_haut":17.12,"mai_ech":"maille","mai_obs":16},"geometry":{"type":"Polygon","coordinates":[[[2.0124,49.1659],[1.9991,49.1754],[2.0218,49.1887],[2.0382,49.1921],[2.0476,49.1854],[2.0762,49.1733],[2.0734,49.1696],[2.0492,49.1628],[2.0317,49.1619],[2.0124,49.1659]]]}},{"type":"Feature","properties":{"code":"95271","nom":"Génicourt","app":17.43,"app_bas":14.63,"app_haut":20.75,"app_ech":"maille","app_obs":5,"mai":13.71,"mai_bas":10.98,"mai_haut":17.12,"mai_ech":"maille","mai_obs":10},"geometry":{"type":"Polygon","coordinates":[[[2.0456,49.083],[2.0447,49.094],[2.0395,49.1],[2.0439,49.1082],[2.0502,49.1094],[2.0606,49.1096],[2.0637,49.1027],[2.0726,49.1008],[2.0741,49.0964],[2.0842,49.0873],[2.0841,49.0842],[2.0631,49.0864],[2.0456,49.083]]]}},{"type":"Feature","properties":{"code":"95331","nom":"Lassy","app":17.34,"app_bas":14.43,"app_haut":20.83,"app_ech":"maille","app_obs":24,"mai":17.08,"mai_bas":13.32,"mai_haut":21.91,"mai_ech":"maille","mai_obs":8},"geometry":{"type":"Polygon","coordinates":[[[2.4492,49.095],[2.4357,49.0882],[2.423,49.087],[2.4259,49.0919],[2.4381,49.1021],[2.45,49.1008],[2.4492,49.095]]]}},{"type":"Feature","properties":{"code":"95388","nom":"Menucourt","app":17.48,"app_bas":14.69,"app_haut":20.79,"app_ech":"commune","app_obs":131,"mai":15.31,"mai_bas":11.7,"mai_haut":20.04,"mai_ech":"maille","mai_obs":47},"geometry":{"type":"Polygon","coordinates":[[[1.9915,49.0237],[1.9919,49.021],[1.9741,49.0194],[1.9571,49.0218],[1.9549,49.0245],[1.9609,49.0348],[1.9837,49.0346],[1.9922,49.0277],[1.9915,49.0237]]]}},{"type":"Feature","properties":{"code":"95094","nom":"Bouqueval","app":17.34,"app_bas":14.43,"app_haut":20.83,"app_ech":"maille","app_obs":27,"mai":18,"mai_bas":12.4,"mai_haut":26.13,"mai_ech":"maille","mai_obs":1},"geometry":{"type":"Polygon","coordinates":[[[2.4103,49.024],[2.4173,49.0282],[2.4284,49.028],[2.4349,49.0343],[2.4382,49.0287],[2.4432,49.0126],[2.4251,49.014],[2.4103,49.024]]]}},{"type":"Feature","properties":{"code":"95447","nom":"Neuilly-en-Vexin","app":15.01,"app_bas":12.42,"app_haut":18.13,"app_ech":"maille","app_obs":24,"mai":12.81,"mai_bas":9.93,"mai_haut":16.52,"mai_ech":"maille","mai_obs":9},"geometry":{"type":"Polygon","coordinates":[[[1.978,49.1641],[1.9627,49.1746],[1.9734,49.1839],[1.9991,49.1754],[1.9915,49.1684],[1.978,49.1641]]]}},{"type":"Feature","properties":{"code":"95026","nom":"Asnières-sur-Oise","app":16.76,"app_bas":13.89,"app_haut":20.21,"app_ech":"maille","app_obs":90,"mai":14.01,"mai_bas":10.74,"mai_haut":18.26,"mai_ech":"maille","mai_obs":15},"geometry":{"type":"Polygon","coordinates":[[[2.3386,49.1457],[2.3593,49.1473],[2.3732,49.1593],[2.383,49.1559],[2.3913,49.1494],[2.4154,49.1518],[2.4409,49.1458],[2.4389,49.1415],[2.4262,49.1399],[2.4113,49.1341],[2.4045,49.1362],[2.3769,49.1378],[2.3609,49.1293],[2.3545,49.1213],[2.3488,49.1169],[2.3415,49.1176],[2.3368,49.1231],[2.3406,49.132],[2.3386,49.1457]]]}},{"type":"Feature","properties":{"code":"95219","nom":"Ermont","app":19.04,"app_bas":16.04,"app_haut":22.6,"app_ech":"commune","app_obs":3289,"mai":17.36,"mai_bas":13.69,"mai_haut":22.01,"mai_ech":"commune","mai_obs":102},"geometry":{"type":"Polygon","coordinates":[[[2.2435,48.9943],[2.2523,49.0018],[2.2635,48.9982],[2.2678,48.9862],[2.2738,48.9768],[2.2468,48.9799],[2.2424,48.9836],[2.2435,48.9943]]]}},{"type":"Feature","properties":{"code":"95430","nom":"Montsoult","app":18.9,"app_bas":15.78,"app_haut":22.62,"app_ech":"commune","app_obs":137,"mai":15.99,"mai_bas":12.47,"mai_haut":20.51,"mai_ech":"maille","mai_obs":25},"geometry":{"type":"Polygon","coordinates":[[[2.33,49.0637],[2.2993,49.0664],[2.288,49.0723],[2.2742,49.0688],[2.2719,49.0694],[2.274,49.0765],[2.2838,49.0783],[2.2905,49.0781],[2.3051,49.0724],[2.3346,49.0753],[2.33,49.0637]]]}},{"type":"Feature","properties":{"code":"95604","nom":"Survilliers","app":17.7,"app_bas":15.31,"app_haut":20.47,"app_ech":"commune","app_obs":336,"mai":17.08,"mai_bas":13.32,"mai_haut":21.91,"mai_ech":"maille","mai_obs":40},"geometry":{"type":"Polygon","coordinates":[[[2.5311,49.0996],[2.533,49.1192],[2.5526,49.1241],[2.5562,49.1186],[2.552,49.1139],[2.5595,49.0976],[2.5509,49.0928],[2.5304,49.0919],[2.5311,49.0996]]]}},{"type":"Feature","properties":{"code":"95658","nom":"Vigny","app":16.2,"app_bas":13.6,"app_haut":19.29,"app_ech":"maille","app_obs":47,"mai":13.71,"mai_bas":10.98,"mai_haut":17.12,"mai_ech":"maille","mai_obs":17},"geometry":{"type":"Polygon","coordinates":[[[1.9532,49.0782],[1.9346,49.0694],[1.9231,49.0675],[1.9045,49.0746],[1.9199,49.0887],[1.9215,49.0948],[1.9419,49.0914],[1.9512,49.086],[1.9532,49.0782]]]}},{"type":"Feature","properties":{"code":"95144","nom":"Châtenay-en-France","app":17.34,"app_bas":14.43,"app_haut":20.83,"app_ech":"maille","app_obs":2,"mai":14.12,"mai_bas":11.66,"mai_haut":17.11,"mai_ech":"maille","mai_obs":1},"geometry":{"type":"Polygon","coordinates":[[[2.4414,49.0675],[2.4418,49.069],[2.4621,49.0727],[2.4724,49.071],[2.4818,49.0548],[2.4525,49.0605],[2.4414,49.0675]]]}},{"type":"Feature","properties":{"code":"95170","nom":"Condécourt","app":14.65,"app_bas":12.45,"app_haut":17.24,"app_ech":"maille","app_obs":52,"mai":15.31,"mai_bas":11.7,"mai_haut":20.04,"mai_ech":"maille","mai_obs":10},"geometry":{"type":"Polygon","coordinates":[[[1.9141,49.0458],[1.9189,49.0501],[1.9286,49.0507],[1.9413,49.0485],[1.9445,49.051],[1.9609,49.0348],[1.9549,49.0245],[1.9378,49.0218],[1.9337,49.0264],[1.9125,49.0416],[1.9141,49.0458]]]}},{"type":"Feature","properties":{"code":"95012","nom":"Amenucourt","app":13.06,"app_bas":10.95,"app_haut":15.58,"app_ech":"maille","app_obs":3,"mai":11.62,"mai_bas":9.1,"mai_haut":14.83,"mai_ech":"maille","mai_obs":5},"geometry":{"type":"Polygon","coordinates":[[[1.656,49.1304],[1.6713,49.1275],[1.6696,49.1152],[1.6765,49.1081],[1.6584,49.0958],[1.6516,49.1046],[1.6453,49.0976],[1.6348,49.1],[1.6333,49.0906],[1.6233,49.0861],[1.6175,49.094],[1.627,49.1051],[1.6471,49.1247],[1.656,49.1304]]]}},{"type":"Feature","properties":{"code":"95489","nom":"Piscop","app":18.35,"app_bas":14.84,"app_haut":22.68,"app_ech":"maille","app_obs":23,"mai":17.32,"mai_bas":12.87,"mai_haut":23.32,"mai_ech":"maille","mai_obs":12},"geometry":{"type":"Polygon","coordinates":[[[2.3546,49.0266],[2.3639,49.0219],[2.3635,49.02],[2.3517,49.0132],[2.3458,49.0065],[2.3219,49.0107],[2.3235,49.0193],[2.3546,49.0266]]]}},{"type":"Feature","properties":{"code":"95492","nom":"Plessis-Gassot","app":16.86,"app_bas":14.47,"app_haut":19.64,"app_ech":"maille","app_obs":29,"mai":13.81,"mai_bas":10.77,"mai_haut":17.7,"mai_ech":"maille","mai_obs":3},"geometry":{"type":"Polygon","coordinates":[[[2.3996,49.0397],[2.4029,49.0445],[2.4185,49.0464],[2.4349,49.0343],[2.4284,49.028],[2.4173,49.0282],[2.4103,49.024],[2.4008,49.034],[2.3996,49.0397]]]}},{"type":"Feature","properties":{"code":"95612","nom":"Thillay","app":18.32,"app_bas":15.12,"app_haut":22.2,"app_ech":"commune","app_obs":216,"mai":13.81,"mai_bas":10.77,"mai_haut":17.7,"mai_ech":"maille","mai_obs":35},"geometry":{"type":"Polygon","coordinates":[[[2.4911,49.01],[2.4881,49.0022],[2.4835,48.9992],[2.4798,48.995],[2.467,48.9945],[2.4573,49.002],[2.4447,49.0063],[2.4432,49.0126],[2.4575,49.0095],[2.4911,49.01]]]}},{"type":"Feature","properties":{"code":"95142","nom":"Chars","app":14.54,"app_bas":12.13,"app_haut":17.42,"app_ech":"commune","app_obs":188,"mai":14.15,"mai_bas":10.61,"mai_haut":18.87,"mai_ech":"maille","mai_obs":64},"geometry":{"type":"Polygon","coordinates":[[[1.8936,49.144],[1.8918,49.1624],[1.8824,49.1613],[1.8826,49.1625],[1.9174,49.1716],[1.9343,49.1736],[1.953,49.1715],[1.9627,49.1746],[1.978,49.1641],[1.9601,49.148],[1.9317,49.1445],[1.9246,49.1396],[1.9196,49.1422],[1.9068,49.1413],[1.8936,49.144]]]}},{"type":"Feature","properties":{"code":"95462","nom":"Omerville","app":14.68,"app_bas":12.41,"app_haut":17.37,"app_ech":"maille","app_obs":0,"mai":11.62,"mai_bas":9.1,"mai_haut":14.83,"mai_ech":"maille","mai_obs":6},"geometry":{"type":"Polygon","coordinates":[[[1.7415,49.138],[1.7303,49.1249],[1.7383,49.1146],[1.7298,49.116],[1.7178,49.1236],[1.6989,49.126],[1.6921,49.1287],[1.7028,49.1361],[1.707,49.1439],[1.7051,49.1487],[1.7086,49.1588],[1.7188,49.1657],[1.733,49.1663],[1.745,49.163],[1.7385,49.1484],[1.7425,49.147],[1.7415,49.138]]]}},{"type":"Feature","properties":{"code":"95120","nom":"Butry-sur-Oise","app":18,"app_bas":15.03,"app_haut":21.56,"app_ech":"maille","app_obs":15,"mai":15.99,"mai_bas":12.47,"mai_haut":20.51,"mai_ech":"maille","mai_obs":20},"geometry":{"type":"Polygon","coordinates":[[[2.1931,49.0739],[2.1805,49.0788],[2.1736,49.0882],[2.1868,49.0874],[2.1986,49.092],[2.2082,49.0911],[2.206,49.0868],[2.1931,49.0739]]]}},{"type":"Feature","properties":{"code":"95214","nom":"Épinay-Champlâtreux","app":17.34,"app_bas":14.43,"app_haut":20.83,"app_ech":"maille","app_obs":4,"mai":13.81,"mai_bas":10.77,"mai_haut":17.7,"mai_ech":"maille","mai_obs":0},"geometry":{"type":"Polygon","coordinates":[[[2.4223,49.0839],[2.4049,49.0827],[2.3879,49.0905],[2.3936,49.0981],[2.4101,49.0981],[2.4092,49.0943],[2.4259,49.0919],[2.423,49.087],[2.4223,49.0839]]]}},{"type":"Feature","properties":{"code":"95379","nom":"Maudétour-en-Vexin","app":16.2,"app_bas":13.6,"app_haut":19.29,"app_ech":"maille","app_obs":0,"mai":11.62,"mai_bas":9.1,"mai_haut":14.83,"mai_ech":"maille","mai_obs":1},"geometry":{"type":"Polygon","coordinates":[[[1.7935,49.1148],[1.782,49.1032],[1.7775,49.0898],[1.7608,49.0874],[1.7542,49.0902],[1.7596,49.1026],[1.7751,49.1072],[1.7806,49.1178],[1.7704,49.1241],[1.7719,49.1294],[1.7884,49.1318],[1.7985,49.1315],[1.7925,49.1234],[1.7935,49.1148]]]}},{"type":"Feature","properties":{"code":"95500","nom":"Pontoise","app":17.79,"app_bas":15.01,"app_haut":21.09,"app_ech":"commune","app_obs":5906,"mai":16.67,"mai_bas":12.73,"mai_haut":21.84,"mai_ech":"commune","mai_obs":185},"geometry":{"type":"Polygon","coordinates":[[[2.1204,49.0647],[2.127,49.064],[2.1052,49.0495],[2.0958,49.0361],[2.0907,49.024],[2.0857,49.0286],[2.0806,49.0416],[2.0722,49.0472],[2.093,49.0676],[2.0904,49.0722],[2.0961,49.072],[2.1048,49.0617],[2.111,49.0597],[2.1204,49.0647]]]}},{"type":"Feature","properties":{"code":"95295","nom":"Guiry-en-Vexin","app":16.2,"app_bas":13.6,"app_haut":19.29,"app_ech":"maille","app_obs":24,"mai":11.62,"mai_bas":9.1,"mai_haut":14.83,"mai_ech":"maille","mai_obs":8},"geometry":{"type":"Polygon","coordinates":[[[1.8276,49.1167],[1.8316,49.1201],[1.844,49.12],[1.8618,49.1256],[1.8657,49.1324],[1.8764,49.1271],[1.8811,49.1186],[1.8756,49.1162],[1.8556,49.0998],[1.8489,49.1014],[1.8349,49.1143],[1.8276,49.1167]]]}},{"type":"Feature","properties":{"code":"95607","nom":"Taverny","app":18.05,"app_bas":15.56,"app_haut":20.95,"app_ech":"commune","app_obs":2424,"mai":17.43,"mai_bas":13.57,"mai_haut":22.38,"mai_ech":"commune","mai_obs":158},"geometry":{"type":"Polygon","coordinates":[[[2.1832,49.0254],[2.1924,49.0308],[2.2169,49.0311],[2.2255,49.0356],[2.2285,49.0407],[2.2239,49.0453],[2.2313,49.0518],[2.2394,49.0458],[2.2531,49.0414],[2.253,49.0359],[2.2427,49.0294],[2.2403,49.0239],[2.2312,49.0149],[2.2239,49.0118],[2.2171,49.0029],[2.2024,49.009],[2.2054,49.0196],[2.1832,49.0254]]]}},{"type":"Feature","properties":{"code":"95054","nom":"Bellay-en-Vexin","app":14.46,"app_bas":12.02,"app_haut":17.38,"app_ech":"maille","app_obs":2,"mai":14.15,"mai_bas":10.61,"mai_haut":18.87,"mai_ech":"maille","mai_obs":15},"geometry":{"type":"Polygon","coordinates":[[[1.8667,49.1382],[1.8575,49.1431],[1.8694,49.1571],[1.8824,49.1613],[1.8918,49.1624],[1.8936,49.144],[1.8822,49.1378],[1.8667,49.1382]]]}},{"type":"Feature","properties":{"code":"95254","nom":"Frémécourt","app":15.67,"app_bas":13.63,"app_haut":18.03,"app_ech":"maille","app_obs":5,"mai":13.71,"mai_bas":10.98,"mai_haut":17.12,"mai_ech":"maille","mai_obs":4},"geometry":{"type":"Polygon","coordinates":[[[2.0003,49.1357],[2.0113,49.1317],[2.0062,49.1284],[2.0048,49.1181],[1.9911,49.1081],[1.989,49.1092],[1.9753,49.1246],[1.9821,49.1308],[1.9938,49.1317],[2.0003,49.1357]]]}},{"type":"Feature","properties":{"code":"95151","nom":"Chauvry","app":17.88,"app_bas":15.09,"app_haut":21.18,"app_ech":"maille","app_obs":2,"mai":17.32,"mai_bas":12.87,"mai_haut":23.32,"mai_ech":"maille","mai_obs":10},"geometry":{"type":"Polygon","coordinates":[[[2.2531,49.0414],[2.2595,49.0437],[2.2625,49.0577],[2.2591,49.0693],[2.2554,49.0707],[2.2742,49.0688],[2.2791,49.0598],[2.2805,49.05],[2.285,49.0491],[2.2767,49.0418],[2.2748,49.0364],[2.2531,49.0414]]]}},{"type":"Feature","properties":{"code":"95675","nom":"Villeron","app":15.55,"app_bas":12.77,"app_haut":18.92,"app_ech":"commune","app_obs":119,"mai":14.12,"mai_bas":11.66,"mai_haut":17.11,"mai_ech":"maille","mai_obs":16},"geometry":{"type":"Polygon","coordinates":[[[2.5457,49.0704],[2.5502,49.0624],[2.55,49.0531],[2.54,49.0509],[2.5299,49.0449],[2.5283,49.038],[2.522,49.051],[2.5153,49.0528],[2.5268,49.0678],[2.5291,49.0784],[2.5346,49.0802],[2.5457,49.0704]]]}},{"type":"Feature","properties":{"code":"95309","nom":"Hodent","app":14.68,"app_bas":12.41,"app_haut":17.37,"app_ech":"maille","app_obs":0,"mai":12.81,"mai_bas":9.93,"mai_haut":16.52,"mai_ech":"maille","mai_obs":3},"geometry":{"type":"Polygon","coordinates":[[[1.7415,49.138],[1.7425,49.147],[1.7515,49.1472],[1.7739,49.1523],[1.7837,49.1447],[1.7766,49.1376],[1.7669,49.1323],[1.7415,49.138]]]}},{"type":"Feature","properties":{"code":"95487","nom":"Persan","app":16.89,"app_bas":14.54,"app_haut":19.62,"app_ech":"commune","app_obs":2126,"mai":15.13,"mai_bas":11.52,"mai_haut":19.87,"mai_ech":"maille","mai_obs":95},"geometry":{"type":"Polygon","coordinates":[[[2.2636,49.1359],[2.2528,49.1469],[2.2416,49.1516],[2.2525,49.1529],[2.2622,49.1583],[2.2695,49.1563],[2.2864,49.1599],[2.2942,49.1512],[2.2681,49.1394],[2.2636,49.1359]]]}},{"type":"Feature","properties":{"code":"95119","nom":"Buhy","app":14.3,"app_bas":12.06,"app_haut":16.95,"app_ech":"maille","app_obs":1,"mai":10.18,"mai_bas":8.26,"mai_haut":12.56,"mai_ech":"maille","mai_obs":7},"geometry":{"type":"Polygon","coordinates":[[[1.712,49.1784],[1.7076,49.1773],[1.6812,49.1827],[1.6823,49.1955],[1.6862,49.2003],[1.7155,49.2027],[1.7243,49.2007],[1.7259,49.1943],[1.7204,49.1914],[1.712,49.1784]]]}},{"type":"Feature","properties":{"code":"95002","nom":"Ableiges","app":16.2,"app_bas":13.6,"app_haut":19.29,"app_ech":"maille","app_obs":75,"mai":13.71,"mai_bas":10.98,"mai_haut":17.12,"mai_ech":"maille","mai_obs":22},"geometry":{"type":"Polygon","coordinates":[[[1.9588,49.0718],[1.9532,49.0782],[1.9512,49.086],[1.9724,49.0955],[1.989,49.1092],[1.9911,49.1081],[1.9941,49.1028],[1.9921,49.0865],[1.9951,49.0834],[1.9784,49.0714],[1.9786,49.0693],[1.9706,49.0662],[1.9588,49.0718]]]}},{"type":"Feature","properties":{"code":"95387","nom":"Menouville","app":16.17,"app_bas":13.71,"app_haut":19.08,"app_ech":"maille","app_obs":9,"mai":12.81,"mai_bas":9.93,"mai_haut":16.52,"mai_ech":"maille","mai_obs":5},"geometry":{"type":"Polygon","coordinates":[[[2.112,49.1437],[2.0998,49.1506],[2.0855,49.1525],[2.0871,49.1606],[2.1195,49.1557],[2.1273,49.1599],[2.1287,49.1538],[2.112,49.1437]]]}},{"type":"Feature","properties":{"code":"95287","nom":"Grisy-les-Plâtres","app":16.42,"app_bas":14.25,"app_haut":18.92,"app_ech":"maille","app_obs":52,"mai":13.71,"mai_bas":10.98,"mai_haut":17.12,"mai_ech":"maille","mai_obs":21},"geometry":{"type":"Polygon","coordinates":[[[2.0301,49.1309],[2.0357,49.141],[2.0414,49.1459],[2.0586,49.1532],[2.0674,49.1434],[2.0674,49.1398],[2.058,49.1269],[2.0502,49.1217],[2.0502,49.1094],[2.0439,49.1082],[2.0392,49.1116],[2.0376,49.1217],[2.0301,49.1309]]]}},{"type":"Feature","properties":{"code":"95341","nom":"Livilliers","app":16.42,"app_bas":14.25,"app_haut":18.92,"app_ech":"maille","app_obs":9,"mai":14.15,"mai_bas":10.61,"mai_haut":18.87,"mai_ech":"maille","mai_obs":6},"geometry":{"type":"Polygon","coordinates":[[[2.0918,49.1164],[2.1056,49.1136],[2.1097,49.1113],[2.1094,49.1026],[2.1165,49.0936],[2.0841,49.0842],[2.0842,49.0873],[2.0741,49.0964],[2.0726,49.1008],[2.0918,49.1164]]]}},{"type":"Feature","properties":{"code":"95637","nom":"Vauréal","app":17.78,"app_bas":15.68,"app_haut":20.15,"app_ech":"commune","app_obs":976,"mai":15.31,"mai_bas":11.7,"mai_haut":20.04,"mai_ech":"maille","mai_obs":74},"geometry":{"type":"Polygon","coordinates":[[[2.0108,49.0207],[2.0097,49.0269],[2.0158,49.0399],[2.0343,49.0381],[2.0382,49.0337],[2.0406,49.0257],[2.0211,49.0211],[2.0108,49.0207]]]}},{"type":"Feature","properties":{"code":"95063","nom":"Bezons","app":19.7,"app_bas":16.09,"app_haut":24.12,"app_ech":"commune","app_obs":3620,"mai":16.75,"mai_bas":11.31,"mai_haut":24.81,"mai_ech":"commune","mai_obs":161},"geometry":{"type":"Polygon","coordinates":[[[2.2061,48.9407],[2.2212,48.9347],[2.2311,48.9277],[2.2006,48.9087],[2.2037,48.9144],[2.1992,48.919],[2.2017,48.9305],[2.1989,48.9353],[2.2061,48.9407]]]}},{"type":"Feature","properties":{"code":"95176","nom":"Cormeilles-en-Parisis","app":19.09,"app_bas":15.78,"app_haut":23.1,"app_ech":"commune","app_obs":2448,"mai":17.82,"mai_bas":13.32,"mai_haut":23.84,"mai_ech":"commune","mai_obs":165},"geometry":{"type":"Polygon","coordinates":[[[2.1731,48.9533],[2.1781,48.9598],[2.1852,48.9628],[2.1834,48.9793],[2.2012,48.9905],[2.2042,48.99],[2.2041,48.9863],[2.2288,48.9729],[2.2098,48.9635],[2.2041,48.9571],[2.2059,48.9497],[2.1731,48.9533]]]}},{"type":"Feature","properties":{"code":"95042","nom":"Baillet-en-France","app":17.94,"app_bas":15.38,"app_haut":20.93,"app_ech":"commune","app_obs":143,"mai":15.99,"mai_bas":12.47,"mai_haut":20.51,"mai_ech":"maille","mai_obs":23},"geometry":{"type":"Polygon","coordinates":[[[2.33,49.0637],[2.3353,49.0515],[2.3219,49.0508],[2.3099,49.0482],[2.285,49.0491],[2.2805,49.05],[2.2791,49.0598],[2.2742,49.0688],[2.288,49.0723],[2.2993,49.0664],[2.33,49.0637]]]}},{"type":"Feature","properties":{"code":"95523","nom":"Roche-Guyon","app":13.06,"app_bas":10.95,"app_haut":15.58,"app_ech":"maille","app_obs":50,"mai":11.81,"mai_bas":9.56,"mai_haut":14.6,"mai_ech":"maille","mai_obs":8},"geometry":{"type":"Polygon","coordinates":[[[1.6233,49.0861],[1.6333,49.0906],[1.6348,49.1],[1.6453,49.0976],[1.6516,49.1046],[1.6584,49.0958],[1.6449,49.0952],[1.6435,49.0868],[1.6466,49.0813],[1.6293,49.0783],[1.6143,49.0712],[1.6088,49.0779],[1.6233,49.0861]]]}},{"type":"Feature","properties":{"code":"95046","nom":"Banthelu","app":14.3,"app_bas":12.06,"app_haut":16.95,"app_ech":"maille","app_obs":11,"mai":12.81,"mai_bas":9.93,"mai_haut":16.52,"mai_ech":"maille","mai_obs":3},"geometry":{"type":"Polygon","coordinates":[[[1.836,49.1404],[1.8316,49.1201],[1.8153,49.108],[1.7935,49.1148],[1.7925,49.1234],[1.7985,49.1315],[1.8132,49.141],[1.836,49.1404]]]}},{"type":"Feature","properties":{"code":"95150","nom":"Chaussy","app":13.99,"app_bas":11.83,"app_haut":16.54,"app_ech":"maille","app_obs":10,"mai":12.81,"mai_bas":9.93,"mai_haut":16.52,"mai_ech":"maille","mai_obs":21},"geometry":{"type":"Polygon","coordinates":[[[1.6765,49.1081],[1.6696,49.1152],[1.6713,49.1275],[1.6744,49.1393],[1.6921,49.1287],[1.6989,49.126],[1.7178,49.1236],[1.7298,49.116],[1.7383,49.1146],[1.7454,49.1066],[1.7409,49.0992],[1.7386,49.1013],[1.7075,49.0939],[1.6925,49.1002],[1.689,49.1052],[1.6765,49.1081]]]}},{"type":"Feature","properties":{"code":"95288","nom":"Groslay","app":18.03,"app_bas":15.21,"app_haut":21.38,"app_ech":"commune","app_obs":489,"mai":17.32,"mai_bas":12.87,"mai_haut":23.32,"mai_ech":"maille","mai_obs":37},"geometry":{"type":"Polygon","coordinates":[[[2.3443,48.9779],[2.3352,48.981],[2.3375,48.9927],[2.349,48.9932],[2.3612,48.9866],[2.3657,48.9888],[2.3643,48.9787],[2.3443,48.9779]]]}},{"type":"Feature","properties":{"code":"95446","nom":"Nesles-la-Vallée","app":15.96,"app_bas":13.25,"app_haut":19.23,"app_ech":"maille","app_obs":91,"mai":13.71,"mai_bas":10.98,"mai_haut":17.12,"mai_ech":"maille","mai_obs":48},"geometry":{"type":"Polygon","coordinates":[[[2.1597,49.1037],[2.1498,49.1042],[2.1482,49.1101],[2.1354,49.1165],[2.1447,49.1207],[2.1599,49.1396],[2.1651,49.1426],[2.1735,49.142],[2.1926,49.1557],[2.1977,49.1435],[2.1908,49.1354],[2.1972,49.1196],[2.1951,49.1157],[2.1811,49.1084],[2.1742,49.1096],[2.1591,49.107],[2.1597,49.1037]]]}},{"type":"Feature","properties":{"code":"95088","nom":"Bonneuil-en-France","app":17.52,"app_bas":14.17,"app_haut":21.68,"app_ech":"maille","app_obs":85,"mai":18,"mai_bas":12.4,"mai_haut":26.13,"mai_ech":"maille","mai_obs":12},"geometry":{"type":"Polygon","coordinates":[[[2.456,48.9558],[2.4475,48.9558],[2.4273,48.9592],[2.4188,48.9578],[2.4181,48.967],[2.4248,48.975],[2.4323,48.9798],[2.4367,48.978],[2.4521,48.9626],[2.456,48.9558]]]}},{"type":"Feature","properties":{"code":"95127","nom":"Cergy","app":18.49,"app_bas":15.53,"app_haut":22,"app_ech":"commune","app_obs":11217,"mai":16.5,"mai_bas":12.39,"mai_haut":21.98,"mai_ech":"commune","mai_obs":274},"geometry":{"type":"Polygon","coordinates":[[[2.0809,49.019],[2.073,49.0184],[2.0382,49.0337],[2.0343,49.0381],[2.0158,49.0399],[2,49.0518],[2.0106,49.0561],[2.0241,49.0542],[2.0278,49.0565],[2.0547,49.055],[2.0722,49.0472],[2.0806,49.0416],[2.0857,49.0286],[2.0907,49.024],[2.0809,49.019]]]}},{"type":"Feature","properties":{"code":"95301","nom":"Haute-Isle","app":14.74,"app_bas":12.52,"app_haut":17.36,"app_ech":"maille","app_obs":10,"mai":11.81,"mai_bas":9.56,"mai_haut":14.6,"mai_ech":"maille","mai_obs":2},"geometry":{"type":"Polygon","coordinates":[[[1.6532,49.0956],[1.6515,49.0919],[1.6633,49.0861],[1.6916,49.0752],[1.6876,49.0718],[1.6737,49.0782],[1.6602,49.0811],[1.6466,49.0813],[1.6435,49.0868],[1.6449,49.0952],[1.6532,49.0956]]]}},{"type":"Feature","properties":{"code":"95370","nom":"Marines","app":15.12,"app_bas":12.55,"app_haut":18.23,"app_ech":"commune","app_obs":344,"mai":13.45,"mai_bas":10.41,"mai_haut":17.38,"mai_ech":"commune","mai_obs":104},"geometry":{"type":"Polygon","coordinates":[[[1.9609,49.1448],[1.9601,49.148],[1.978,49.1641],[1.9915,49.1684],[1.9892,49.1623],[1.9959,49.1589],[2.0002,49.1531],[2.0042,49.1387],[1.9938,49.1317],[1.9821,49.1308],[1.9609,49.1448]]]}},{"type":"Feature","properties":{"code":"95572","nom":"Saint-Ouen-l'Aumône","app":18.42,"app_bas":15.68,"app_haut":21.65,"app_ech":"commune","app_obs":2844,"mai":15.64,"mai_bas":12.33,"mai_haut":19.83,"mai_ech":"commune","mai_obs":166},"geometry":{"type":"Polygon","coordinates":[[[2.1161,49.0232],[2.1038,49.0333],[2.0958,49.0361],[2.1052,49.0495],[2.127,49.064],[2.1416,49.0665],[2.1524,49.0596],[2.1505,49.0477],[2.1562,49.0427],[2.1558,49.0363],[2.1287,49.0229],[2.1224,49.0293],[2.1161,49.0232]]]}},{"type":"Feature","properties":{"code":"95652","nom":"Viarmes","app":16.85,"app_bas":14,"app_haut":20.28,"app_ech":"commune","app_obs":425,"mai":17.08,"mai_bas":13.32,"mai_haut":21.91,"mai_ech":"maille","mai_obs":70},"geometry":{"type":"Polygon","coordinates":[[[2.396,49.1157],[2.3917,49.1104],[2.3673,49.1087],[2.3614,49.107],[2.3545,49.1213],[2.3609,49.1293],[2.3769,49.1378],[2.4045,49.1362],[2.4113,49.1341],[2.4078,49.1263],[2.3867,49.129],[2.3845,49.119],[2.396,49.1157]]]}},{"type":"Feature","properties":{"code":"95166","nom":"Cléry-en-Vexin","app":16.2,"app_bas":13.6,"app_haut":19.29,"app_ech":"maille","app_obs":16,"mai":14.15,"mai_bas":10.61,"mai_haut":18.87,"mai_ech":"maille","mai_obs":4},"geometry":{"type":"Polygon","coordinates":[[[1.836,49.1404],[1.8407,49.143],[1.8575,49.1431],[1.8667,49.1382],[1.8657,49.1324],[1.8618,49.1256],[1.844,49.12],[1.8316,49.1201],[1.836,49.1404]]]}},{"type":"Feature","properties":{"code":"95313","nom":"Isle-Adam","app":19.57,"app_bas":15.39,"app_haut":24.89,"app_ech":"commune","app_obs":1810,"mai":17.5,"mai_bas":13.34,"mai_haut":22.95,"mai_ech":"commune","mai_obs":152},"geometry":{"type":"Polygon","coordinates":[[[2.236,49.0874],[2.206,49.0868],[2.209,49.0936],[2.2092,49.1124],[2.2175,49.1242],[2.235,49.1303],[2.2623,49.1242],[2.2568,49.1134],[2.2604,49.1008],[2.2509,49.0908],[2.2497,49.0854],[2.236,49.0874]]]}},{"type":"Feature","properties":{"code":"95056","nom":"Belloy-en-France","app":16.36,"app_bas":13.59,"app_haut":19.69,"app_ech":"maille","app_obs":96,"mai":13.81,"mai_bas":10.77,"mai_haut":17.7,"mai_ech":"maille","mai_obs":23},"geometry":{"type":"Polygon","coordinates":[[[2.3704,49.0727],[2.3625,49.0797],[2.3494,49.0806],[2.3475,49.0916],[2.3614,49.107],[2.3673,49.1087],[2.3917,49.1104],[2.3895,49.105],[2.3936,49.0981],[2.3879,49.0905],[2.3964,49.0865],[2.3704,49.0727]]]}},{"type":"Feature","properties":{"code":"95409","nom":"Moisselles","app":18.33,"app_bas":15.75,"app_haut":21.32,"app_ech":"commune","app_obs":199,"mai":15.99,"mai_bas":12.47,"mai_haut":20.51,"mai_ech":"maille","mai_obs":22},"geometry":{"type":"Polygon","coordinates":[[[2.3219,49.0508],[2.3353,49.0515],[2.352,49.0447],[2.3498,49.0403],[2.3405,49.0384],[2.3373,49.0454],[2.3245,49.0451],[2.3219,49.0508]]]}},{"type":"Feature","properties":{"code":"95535","nom":"Sagy","app":15.67,"app_bas":13.63,"app_haut":18.03,"app_ech":"maille","app_obs":34,"mai":14.15,"mai_bas":10.61,"mai_haut":18.87,"mai_ech":"maille","mai_obs":36},"geometry":{"type":"Polygon","coordinates":[[[1.9837,49.0346],[1.9609,49.0348],[1.9445,49.051],[1.9402,49.054],[1.9536,49.0644],[1.9588,49.0718],[1.9706,49.0662],[1.9786,49.0693],[1.9947,49.0634],[1.9943,49.0607],[1.986,49.0438],[1.9837,49.0346]]]}},{"type":"Feature","properties":{"code":"95348","nom":"Longuesse","app":16.2,"app_bas":13.6,"app_haut":19.29,"app_ech":"maille","app_obs":15,"mai":14.15,"mai_bas":10.61,"mai_haut":18.87,"mai_ech":"maille","mai_obs":10},"geometry":{"type":"Polygon","coordinates":[[[1.9085,49.048],[1.8993,49.0653],[1.9045,49.0746],[1.9231,49.0675],[1.9346,49.0694],[1.9532,49.0782],[1.9588,49.0718],[1.9536,49.0644],[1.9402,49.054],[1.9445,49.051],[1.9413,49.0485],[1.9286,49.0507],[1.9189,49.0501],[1.9141,49.0458],[1.9085,49.048]]]}},{"type":"Feature","properties":{"code":"95582","nom":"Sannois","app":19.82,"app_bas":16.44,"app_haut":23.9,"app_ech":"commune","app_obs":2309,"mai":17.64,"mai_bas":13.21,"mai_haut":23.55,"mai_ech":"maille","mai_obs":83},"geometry":{"type":"Polygon","coordinates":[[[2.2746,48.9641],[2.2622,48.9625],[2.2489,48.9648],[2.2257,48.971],[2.2288,48.9729],[2.2365,48.9739],[2.2424,48.9836],[2.2468,48.9799],[2.2734,48.9767],[2.2746,48.9641]]]}},{"type":"Feature","properties":{"code":"95328","nom":"Labbeville","app":16.17,"app_bas":13.71,"app_haut":19.08,"app_ech":"maille","app_obs":27,"mai":12.81,"mai_bas":9.93,"mai_haut":16.52,"mai_ech":"maille","mai_obs":6},"geometry":{"type":"Polygon","coordinates":[[[2.112,49.1437],[2.1287,49.1538],[2.1392,49.1453],[2.1507,49.1443],[2.1599,49.1396],[2.1447,49.1207],[2.1354,49.1165],[2.1142,49.1229],[2.121,49.1331],[2.1298,49.1386],[2.1233,49.1429],[2.112,49.1437]]]}},{"type":"Feature","properties":{"code":"95682","nom":"Villiers-le-Sec","app":17.34,"app_bas":14.43,"app_haut":20.83,"app_ech":"maille","app_obs":8,"mai":13.81,"mai_bas":10.77,"mai_haut":17.7,"mai_ech":"maille","mai_obs":0},"geometry":{"type":"Polygon","coordinates":[[[2.3704,49.0727],[2.3964,49.0865],[2.4049,49.0827],[2.3943,49.0687],[2.3863,49.0684],[2.3752,49.0635],[2.3673,49.0683],[2.3704,49.0727]]]}},{"type":"Feature","properties":{"code":"95426","nom":"Montlignon","app":17.84,"app_bas":14.96,"app_haut":21.29,"app_ech":"commune","app_obs":289,"mai":17.64,"mai_bas":13.21,"mai_haut":23.55,"mai_ech":"maille","mai_obs":31},"geometry":{"type":"Polygon","coordinates":[[[2.2918,49.0063],[2.2831,49.0029],[2.2734,49.0065],[2.2816,49.0117],[2.2846,49.0199],[2.2956,49.0268],[2.3014,49.0238],[2.3009,49.0168],[2.2918,49.0063]]]}},{"type":"Feature","properties":{"code":"95592","nom":"Seraincourt","app":15.7,"app_bas":13.18,"app_haut":18.69,"app_ech":"commune","app_obs":130,"mai":14.15,"mai_bas":10.61,"mai_haut":18.87,"mai_ech":"maille","mai_obs":34},"geometry":{"type":"Polygon","coordinates":[[[1.8617,49.0141],[1.8592,49.014],[1.8621,49.0233],[1.8513,49.0334],[1.8606,49.0463],[1.8655,49.0575],[1.8772,49.0568],[1.8963,49.0664],[1.8993,49.0653],[1.9085,49.048],[1.8912,49.0393],[1.8832,49.0335],[1.8819,49.0195],[1.8691,49.0182],[1.8617,49.0141]]]}},{"type":"Feature","properties":{"code":"95023","nom":"Arronville","app":15.96,"app_bas":13.25,"app_haut":19.23,"app_ech":"maille","app_obs":13,"mai":13.71,"mai_bas":10.98,"mai_haut":17.12,"mai_ech":"maille","mai_obs":32},"geometry":{"type":"Polygon","coordinates":[[[2.0959,49.1901],[2.1133,49.1865],[2.1327,49.1914],[2.1407,49.1853],[2.1524,49.1838],[2.1646,49.1797],[2.1577,49.1725],[2.1489,49.1663],[2.1367,49.1746],[2.1276,49.1732],[2.1273,49.1599],[2.1195,49.1557],[2.0757,49.163],[2.0734,49.1696],[2.0891,49.1903],[2.0959,49.1901]]]}},{"type":"Feature","properties":{"code":"95218","nom":"Éragny","app":18.62,"app_bas":15.78,"app_haut":21.97,"app_ech":"commune","app_obs":1060,"mai":15.31,"mai_bas":11.7,"mai_haut":20.04,"mai_ech":"maille","mai_obs":94},"geometry":{"type":"Polygon","coordinates":[[[2.0958,49.0361],[2.1038,49.0333],[2.121,49.0181],[2.1102,49.0087],[2.0849,49.0147],[2.0809,49.019],[2.0907,49.024],[2.0958,49.0361]]]}},{"type":"Feature","properties":{"code":"95427","nom":"Montmagny","app":19.31,"app_bas":15.77,"app_haut":23.65,"app_ech":"commune","app_obs":726,"mai":17.19,"mai_bas":10.36,"mai_haut":28.52,"mai_ech":"maille","mai_obs":65},"geometry":{"type":"Polygon","coordinates":[[[2.3283,48.9597],[2.3367,48.9726],[2.3443,48.9779],[2.3643,48.9787],[2.3662,48.9742],[2.3535,48.9656],[2.3402,48.9633],[2.3333,48.9554],[2.3283,48.9597]]]}},{"type":"Feature","properties":{"code":"95134","nom":"Champagne-sur-Oise","app":17.64,"app_bas":13.48,"app_haut":23.1,"app_ech":"commune","app_obs":130,"mai":15.13,"mai_bas":11.52,"mai_haut":19.87,"mai_ech":"maille","mai_obs":53},"geometry":{"type":"Polygon","coordinates":[[[2.2636,49.1359],[2.257,49.1318],[2.235,49.1303],[2.2175,49.1242],[2.2119,49.131],[2.209,49.1458],[2.1985,49.1566],[2.1969,49.167],[2.2062,49.1585],[2.223,49.1519],[2.2416,49.1516],[2.2528,49.1469],[2.2636,49.1359]]]}},{"type":"Feature","properties":{"code":"95205","nom":"Écouen","app":18,"app_bas":15.45,"app_haut":20.97,"app_ech":"commune","app_obs":555,"mai":17.36,"mai_bas":12.12,"mai_haut":24.88,"mai_ech":"maille","mai_obs":71},"geometry":{"type":"Polygon","coordinates":[[[2.3639,49.0219],[2.3714,49.0315],[2.3829,49.042],[2.3996,49.0397],[2.4008,49.034],[2.4095,49.0242],[2.395,49.0154],[2.3796,49.0135],[2.3637,49.0096],[2.3639,49.0219]]]}},{"type":"Feature","properties":{"code":"95210","nom":"Enghien-les-Bains","app":21.05,"app_bas":16.74,"app_haut":26.48,"app_ech":"commune","app_obs":2747,"mai":17.32,"mai_bas":12.87,"mai_haut":23.32,"mai_ech":"maille","mai_obs":75},"geometry":{"type":"Polygon","coordinates":[[[2.2986,48.9663],[2.293,48.9716],[2.2979,48.9751],[2.307,48.9776],[2.3108,48.9719],[2.3132,48.9622],[2.2986,48.9663]]]}},{"type":"Feature","properties":{"code":"95351","nom":"Louvres","app":17.5,"app_bas":14.42,"app_haut":21.24,"app_ech":"commune","app_obs":1200,"mai":14.75,"mai_bas":11.49,"mai_haut":18.94,"mai_ech":"commune","mai_obs":117},"geometry":{"type":"Polygon","coordinates":[[[2.5072,49.0647],[2.5227,49.0627],[2.5153,49.0528],[2.522,49.051],[2.5283,49.038],[2.5256,49.0269],[2.5088,49.0276],[2.4986,49.0241],[2.4851,49.0293],[2.4743,49.0417],[2.4827,49.0505],[2.482,49.0539],[2.4933,49.0529],[2.5068,49.0607],[2.5072,49.0647]]]}},{"type":"Feature","properties":{"code":"95058","nom":"Bernes-sur-Oise","app":15.55,"app_bas":12.84,"app_haut":18.83,"app_ech":"maille","app_obs":6,"mai":15.13,"mai_bas":11.52,"mai_haut":19.87,"mai_ech":"maille","mai_obs":15},"geometry":{"type":"Polygon","coordinates":[[[2.3012,49.1839],[2.3106,49.1849],[2.3136,49.1686],[2.3119,49.1502],[2.2942,49.1512],[2.2864,49.1599],[2.2888,49.1707],[2.2994,49.1758],[2.3012,49.1839]]]}},{"type":"Feature","properties":{"code":"95139","nom":"Chapelle-en-Vexin","app":14.3,"app_bas":12.06,"app_haut":16.95,"app_ech":"maille","app_obs":0,"mai":10.18,"mai_bas":8.26,"mai_haut":12.56,"mai_ech":"maille","mai_obs":3},"geometry":{"type":"Polygon","coordinates":[[[1.7222,49.172],[1.7182,49.1733],[1.712,49.1784],[1.7204,49.1914],[1.7259,49.1943],[1.7374,49.1946],[1.7427,49.1798],[1.7359,49.1743],[1.7249,49.1776],[1.7222,49.172]]]}},{"type":"Feature","properties":{"code":"95177","nom":"Cormeilles-en-Vexin","app":15.67,"app_bas":13.63,"app_haut":18.03,"app_ech":"maille","app_obs":35,"mai":12.81,"mai_bas":9.93,"mai_haut":16.52,"mai_ech":"maille","mai_obs":25},"geometry":{"type":"Polygon","coordinates":[[[2.0301,49.1309],[2.0376,49.1217],[2.0392,49.1116],[2.0439,49.1082],[2.0395,49.1],[2.0269,49.0965],[2.0122,49.1002],[1.9993,49.0998],[1.9941,49.1028],[1.9911,49.1081],[2.0048,49.1181],[2.0062,49.1284],[2.0113,49.1317],[2.0301,49.1309]]]}},{"type":"Feature","properties":{"code":"95394","nom":"Méry-sur-Oise","app":17.78,"app_bas":15.08,"app_haut":20.96,"app_ech":"commune","app_obs":518,"mai":16.56,"mai_bas":13.07,"mai_haut":21,"mai_ech":"maille","mai_obs":81},"geometry":{"type":"Polygon","coordinates":[[[2.2027,49.065],[2.2041,49.0611],[2.1981,49.0517],[2.1748,49.0451],[2.1739,49.0388],[2.1683,49.0316],[2.1558,49.0363],[2.1562,49.0427],[2.1505,49.0477],[2.1524,49.0596],[2.1416,49.0665],[2.1682,49.0642],[2.1889,49.0721],[2.2027,49.065]]]}},{"type":"Feature","properties":{"code":"95676","nom":"Villers-en-Arthies","app":14.68,"app_bas":12.41,"app_haut":17.37,"app_ech":"maille","app_obs":12,"mai":11.62,"mai_bas":9.1,"mai_haut":14.83,"mai_ech":"maille","mai_obs":22},"geometry":{"type":"Polygon","coordinates":[[[1.7063,49.0777],[1.7039,49.0789],[1.7075,49.0939],[1.7386,49.1013],[1.7409,49.0992],[1.7433,49.094],[1.7608,49.0874],[1.7552,49.0877],[1.7463,49.0728],[1.7409,49.0727],[1.7063,49.0777]]]}},{"type":"Feature","properties":{"code":"95303","nom":"Heaulme","app":15.01,"app_bas":12.42,"app_haut":18.13,"app_ech":"maille","app_obs":7,"mai":12.81,"mai_bas":9.93,"mai_haut":16.52,"mai_ech":"maille","mai_obs":1},"geometry":{"type":"Polygon","coordinates":[[[1.999,49.1752],[2.0124,49.1659],[2.0067,49.1615],[1.9959,49.1589],[1.9892,49.1623],[1.9915,49.1684],[1.999,49.1752]]]}},{"type":"Feature","properties":{"code":"95554","nom":"Saint-Gervais","app":13.99,"app_bas":11.83,"app_haut":16.54,"app_ech":"maille","app_obs":0,"mai":10.18,"mai_bas":8.26,"mai_haut":12.56,"mai_ech":"maille","mai_obs":14},"geometry":{"type":"Polygon","coordinates":[[[1.7222,49.172],[1.7249,49.1776],[1.7359,49.1743],[1.7427,49.1798],[1.7552,49.1745],[1.7769,49.1852],[1.7936,49.1803],[1.7979,49.177],[1.7962,49.1632],[1.7799,49.1638],[1.7699,49.1611],[1.7739,49.1523],[1.7515,49.1472],[1.7425,49.147],[1.7385,49.1484],[1.745,49.163],[1.733,49.1663],[1.7188,49.1657],[1.7222,49.172]]]}},{"type":"Feature","properties":{"code":"95157","nom":"Chérence","app":13.99,"app_bas":11.83,"app_haut":16.54,"app_ech":"maille","app_obs":0,"mai":11.62,"mai_bas":9.1,"mai_haut":14.83,"mai_ech":"maille","mai_obs":2},"geometry":{"type":"Polygon","coordinates":[[[1.6916,49.0752],[1.6633,49.0861],[1.6515,49.0919],[1.6532,49.0956],[1.6584,49.0958],[1.6765,49.1081],[1.689,49.1052],[1.6925,49.1002],[1.7075,49.0939],[1.7039,49.0789],[1.6916,49.0752]]]}},{"type":"Feature","properties":{"code":"95211","nom":"Ennery","app":16.35,"app_bas":13.72,"app_haut":19.49,"app_ech":"commune","app_obs":114,"mai":13.71,"mai_bas":10.98,"mai_haut":17.12,"mai_ech":"maille","mai_obs":62},"geometry":{"type":"Polygon","coordinates":[[[2.1204,49.0647],[2.111,49.0597],[2.1048,49.0617],[2.0961,49.072],[2.0904,49.0722],[2.0841,49.0842],[2.1165,49.0936],[2.1303,49.086],[2.1289,49.0791],[2.1204,49.0647]]]}},{"type":"Feature","properties":{"code":"95014","nom":"Andilly","app":18.38,"app_bas":15.24,"app_haut":22.18,"app_ech":"commune","app_obs":127,"mai":17.64,"mai_bas":13.21,"mai_haut":23.55,"mai_ech":"maille","mai_obs":20},"geometry":{"type":"Polygon","coordinates":[[[2.2903,48.9967],[2.2959,49.0023],[2.2918,49.0063],[2.3009,49.0168],[2.3014,49.0238],[2.3059,49.0238],[2.3129,49.0148],[2.3106,49.002],[2.3036,48.9974],[2.2929,48.9958],[2.2903,48.9967]]]}},{"type":"Feature","properties":{"code":"95252","nom":"Franconville","app":18.41,"app_bas":15.76,"app_haut":21.5,"app_ech":"commune","app_obs":4761,"mai":16.62,"mai_bas":13.08,"mai_haut":21.11,"mai_ech":"commune","mai_obs":133},"geometry":{"type":"Polygon","coordinates":[[[2.2171,49.0029],[2.2435,48.9943],[2.2424,48.9836],[2.2365,48.9739],[2.2288,48.9729],[2.2041,48.9863],[2.2042,48.99],[2.2132,49.0017],[2.2149,49.0035],[2.2171,49.0029]]]}},{"type":"Feature","properties":{"code":"95610","nom":"Théméricourt","app":15.67,"app_bas":13.63,"app_haut":18.03,"app_ech":"maille","app_obs":0,"mai":14.15,"mai_bas":10.61,"mai_haut":18.87,"mai_ech":"maille","mai_obs":10},"geometry":{"type":"Polygon","coordinates":[[[1.9045,49.0746],[1.8993,49.0653],[1.8963,49.0664],[1.8906,49.0716],[1.8926,49.0757],[1.8893,49.0886],[1.8951,49.1001],[1.9058,49.1114],[1.9261,49.1027],[1.9215,49.0948],[1.9199,49.0887],[1.9045,49.0746]]]}},{"type":"Feature","properties":{"code":"95424","nom":"Montigny-lès-Cormeilles","app":18.22,"app_bas":15.56,"app_haut":21.33,"app_ech":"commune","app_obs":1245,"mai":16.56,"mai_bas":13.07,"mai_haut":21,"mai_ech":"maille","mai_obs":82},"geometry":{"type":"Polygon","coordinates":[[[2.1936,49.0057],[2.1971,49.0075],[2.2132,49.0017],[2.2042,48.99],[2.2012,48.9905],[2.1834,48.9793],[2.1739,48.9866],[2.1926,49.0022],[2.1936,49.0057]]]}},{"type":"Feature","properties":{"code":"95611","nom":"Theuville","app":16.17,"app_bas":13.71,"app_haut":19.08,"app_ech":"maille","app_obs":1,"mai":12.81,"mai_bas":9.93,"mai_haut":16.52,"mai_ech":"maille","mai_obs":2},"geometry":{"type":"Polygon","coordinates":[[[2.0674,49.1434],[2.0586,49.1532],[2.0496,49.1566],[2.0492,49.1628],[2.0734,49.1696],[2.0757,49.163],[2.0871,49.1606],[2.0853,49.1491],[2.0674,49.1434]]]}},{"type":"Feature","properties":{"code":"95078","nom":"Boissy-l'Aillerie","app":16.33,"app_bas":13.67,"app_haut":19.51,"app_ech":"commune","app_obs":155,"mai":13.71,"mai_bas":10.98,"mai_haut":17.12,"mai_ech":"maille","mai_obs":14},"geometry":{"type":"Polygon","coordinates":[[[2.0456,49.083],[2.0346,49.0628],[2.0257,49.0688],[2.0252,49.0738],[2.0159,49.0774],[2.0197,49.0888],[2.0269,49.0965],[2.0395,49.1],[2.0447,49.094],[2.0456,49.083]]]}},{"type":"Feature","properties":{"code":"95257","nom":"Frette-sur-Seine","app":18.7,"app_bas":15.43,"app_haut":22.66,"app_ech":"commune","app_obs":348,"mai":17.16,"mai_bas":13.39,"mai_haut":22,"mai_ech":"maille","mai_obs":56},"geometry":{"type":"Polygon","coordinates":[[[2.1664,48.9815],[2.1739,48.9866],[2.1834,48.9793],[2.1852,48.9628],[2.1781,48.9598],[2.1782,48.9635],[2.1755,48.9724],[2.1664,48.9815]]]}},{"type":"Feature","properties":{"code":"95306","nom":"Herblay","app":19.59,"app_bas":16.74,"app_haut":22.92,"app_ech":"commune","app_obs":2420,"mai":16.94,"mai_bas":13.21,"mai_haut":21.73,"mai_ech":"commune","mai_obs":197},"geometry":{"type":"Polygon","coordinates":[[[2.1664,48.9815],[2.1549,48.9857],[2.1275,48.9891],[2.1207,48.9933],[2.1267,49.0122],[2.1161,49.0232],[2.1224,49.0293],[2.1384,49.0142],[2.1547,49.0052],[2.1608,49.0125],[2.1821,49.0007],[2.1936,49.0057],[2.1926,49.0022],[2.1739,48.9866],[2.1664,48.9815]]]}},{"type":"Feature","properties":{"code":"95169","nom":"Commeny","app":16.2,"app_bas":13.6,"app_haut":19.29,"app_ech":"maille","app_obs":8,"mai":14.15,"mai_bas":10.61,"mai_haut":18.87,"mai_ech":"maille","mai_obs":15},"geometry":{"type":"Polygon","coordinates":[[[1.9087,49.1195],[1.899,49.1142],[1.8864,49.116],[1.8811,49.1186],[1.8764,49.1271],[1.8657,49.1324],[1.8667,49.1382],[1.8822,49.1378],[1.8845,49.1345],[1.9019,49.1285],[1.9149,49.1267],[1.9087,49.1195]]]}},{"type":"Feature","properties":{"code":"95212","nom":"Épiais-lès-Louvres","app":17.44,"app_bas":14.82,"app_haut":20.52,"app_ech":"maille","app_obs":14,"mai":13.81,"mai_bas":10.77,"mai_haut":17.7,"mai_ech":"maille","mai_obs":0},"geometry":{"type":"Polygon","coordinates":[[[2.5256,49.0269],[2.5261,49.0301],[2.5473,49.0349],[2.5677,49.0414],[2.5693,49.0396],[2.5662,49.0301],[2.5476,49.0234],[2.535,49.0238],[2.5256,49.0269]]]}},{"type":"Feature","properties":{"code":"95282","nom":"Gouzangrez","app":null,"app_bas":null,"app_haut":null,"app_ech":null,"app_obs":0,"mai":null,"mai_bas":null,"mai_haut":null,"mai_ech":null,"mai_obs":0},"geometry":{"type":"Polygon","coordinates":[[[1.9137,49.1078],[1.899,49.1142],[1.9087,49.1195],[1.9155,49.1152],[1.9137,49.1078]]]}},{"type":"Feature","properties":{"code":"95197","nom":"Deuil-la-Barre","app":19.56,"app_bas":16.29,"app_haut":23.5,"app_ech":"commune","app_obs":2554,"mai":17.26,"mai_bas":12.83,"mai_haut":23.23,"mai_ech":"commune","mai_obs":141},"geometry":{"type":"Polygon","coordinates":[[[2.3283,48.9597],[2.3132,48.9622],[2.3108,48.9719],[2.3168,48.9796],[2.3255,48.9831],[2.3443,48.9779],[2.3367,48.9726],[2.3283,48.9597]]]}},{"type":"Feature","properties":{"code":"95483","nom":"Perchay","app":15.67,"app_bas":13.63,"app_haut":18.03,"app_ech":"maille","app_obs":2,"mai":13.71,"mai_bas":10.98,"mai_haut":17.12,"mai_ech":"maille","mai_obs":6},"geometry":{"type":"Polygon","coordinates":[[[1.9311,49.1294],[1.9425,49.1211],[1.9504,49.1192],[1.9364,49.1054],[1.9261,49.1027],[1.9137,49.1078],[1.9155,49.1152],[1.9087,49.1195],[1.9149,49.1267],[1.9311,49.1294]]]}},{"type":"Feature","properties":{"code":"95183","nom":"Courdimanche","app":17.9,"app_bas":15.57,"app_haut":20.58,"app_ech":"commune","app_obs":564,"mai":15.31,"mai_bas":11.7,"mai_haut":20.04,"mai_ech":"maille","mai_obs":46},"geometry":{"type":"Polygon","coordinates":[[[1.9915,49.0237],[1.9922,49.0277],[1.9837,49.0346],[1.986,49.0438],[1.9943,49.0607],[2.0106,49.0561],[2,49.0518],[2.0158,49.0399],[2.0097,49.0269],[1.9992,49.0273],[1.9915,49.0237]]]}},{"type":"Feature","properties":{"code":"95436","nom":"Mours","app":18.28,"app_bas":15.53,"app_haut":21.51,"app_ech":"maille","app_obs":56,"mai":17.08,"mai_bas":13.32,"mai_haut":21.91,"mai_ech":"maille","mai_obs":4},"geometry":{"type":"Polygon","coordinates":[[[2.235,49.1303],[2.257,49.1318],[2.2681,49.1394],[2.2782,49.1352],[2.2795,49.1257],[2.2623,49.1242],[2.235,49.1303]]]}},{"type":"Feature","properties":{"code":"95061","nom":"Béthemont-la-Forêt","app":17.88,"app_bas":15.09,"app_haut":21.18,"app_ech":"maille","app_obs":0,"mai":17.32,"mai_bas":12.87,"mai_haut":23.32,"mai_ech":"maille","mai_obs":2},"geometry":{"type":"Polygon","coordinates":[[[2.2349,49.0494],[2.2554,49.0707],[2.2591,49.0693],[2.2625,49.0577],[2.2595,49.0437],[2.2531,49.0414],[2.2394,49.0458],[2.2349,49.0494]]]}},{"type":"Feature","properties":{"code":"95651","nom":"Vétheuil","app":13.99,"app_bas":11.83,"app_haut":16.54,"app_ech":"maille","app_obs":46,"mai":11.81,"mai_bas":9.56,"mai_haut":14.6,"mai_ech":"maille","mai_obs":29},"geometry":{"type":"Polygon","coordinates":[[[1.7235,49.045],[1.7171,49.049],[1.6937,49.0567],[1.6971,49.066],[1.6876,49.0718],[1.6916,49.0752],[1.7039,49.0789],[1.7063,49.0777],[1.7129,49.0651],[1.7128,49.0531],[1.7244,49.0549],[1.7321,49.0504],[1.7235,49.045]]]}},{"type":"Feature","properties":{"code":"95203","nom":"Eaubonne","app":19.57,"app_bas":16.28,"app_haut":23.52,"app_ech":"commune","app_obs":2160,"mai":17.86,"mai_bas":14.08,"mai_haut":22.65,"mai_ech":"commune","mai_obs":133},"geometry":{"type":"Polygon","coordinates":[[[2.2903,48.9967],[2.2929,48.9958],[2.2858,48.9874],[2.2919,48.9762],[2.2738,48.9768],[2.2678,48.9862],[2.2635,48.9982],[2.2734,49.0065],[2.2831,49.0029],[2.2903,48.9967]]]}},{"type":"Feature","properties":{"code":"95241","nom":"Fontenay-en-Parisis","app":17.54,"app_bas":14.6,"app_haut":21.08,"app_ech":"commune","app_obs":130,"mai":13.81,"mai_bas":10.77,"mai_haut":17.7,"mai_ech":"maille","mai_obs":45},"geometry":{"type":"Polygon","coordinates":[[[2.4382,49.0287],[2.4349,49.0343],[2.4185,49.0464],[2.4136,49.0563],[2.4348,49.0626],[2.4414,49.0675],[2.4525,49.0605],[2.4818,49.0548],[2.4827,49.0505],[2.4743,49.0417],[2.4467,49.0376],[2.4382,49.0287]]]}},{"type":"Feature","properties":{"code":"95428","nom":"Montmorency","app":19.83,"app_bas":16.2,"app_haut":24.27,"app_ech":"commune","app_obs":2646,"mai":18.27,"mai_bas":13.58,"mai_haut":24.59,"mai_ech":"commune","mai_obs":127},"geometry":{"type":"Polygon","coordinates":[[[2.3352,48.981],[2.3255,48.9831],[2.3168,48.9796],[2.3108,48.9719],[2.307,48.9776],[2.3162,48.9994],[2.3106,49.002],[2.3129,49.0148],[2.3219,49.0107],[2.3235,49.0045],[2.3319,48.9999],[2.3375,48.9927],[2.3352,48.981]]]}},{"type":"Feature","properties":{"code":"95563","nom":"Saint-Leu-la-Forêt","app":19.06,"app_bas":16.09,"app_haut":22.57,"app_ech":"commune","app_obs":1552,"mai":16.65,"mai_bas":12.98,"mai_haut":21.35,"mai_ech":"commune","mai_obs":126},"geometry":{"type":"Polygon","coordinates":[[[2.2531,49.0414],[2.2583,49.04],[2.2558,49.025],[2.2585,49.0171],[2.2523,49.0018],[2.2504,49.0007],[2.246,49.0052],[2.2239,49.0118],[2.2312,49.0149],[2.2403,49.0239],[2.2427,49.0294],[2.253,49.0359],[2.2531,49.0414]]]}},{"type":"Feature","properties":{"code":"95365","nom":"Mareil-en-France","app":17.01,"app_bas":14.17,"app_haut":20.43,"app_ech":"commune","app_obs":128,"mai":17.08,"mai_bas":13.32,"mai_haut":21.91,"mai_ech":"maille","mai_obs":2},"geometry":{"type":"Polygon","coordinates":[[[2.4223,49.0839],[2.4397,49.0749],[2.4418,49.069],[2.4414,49.0675],[2.4348,49.0626],[2.4136,49.0563],[2.4087,49.0572],[2.3943,49.0687],[2.4049,49.0827],[2.4223,49.0839]]]}},{"type":"Feature","properties":{"code":"95392","nom":"Mériel","app":18.81,"app_bas":15.68,"app_haut":22.56,"app_ech":"commune","app_obs":293,"mai":15.99,"mai_bas":12.47,"mai_haut":20.51,"mai_ech":"maille","mai_obs":44},"geometry":{"type":"Polygon","coordinates":[[[2.1931,49.0739],[2.206,49.0868],[2.236,49.0874],[2.2337,49.0768],[2.2204,49.0701],[2.2027,49.065],[2.1889,49.0721],[2.1931,49.0739]]]}},{"type":"Feature","properties":{"code":"95566","nom":"Saint-Martin-du-Tertre","app":16.36,"app_bas":13.59,"app_haut":19.69,"app_ech":"maille","app_obs":90,"mai":17.08,"mai_bas":13.32,"mai_haut":21.91,"mai_ech":"maille","mai_obs":26},"geometry":{"type":"Polygon","coordinates":[[[2.3201,49.1247],[2.3368,49.1231],[2.3415,49.1176],[2.3488,49.1169],[2.3545,49.1213],[2.3614,49.107],[2.3475,49.0916],[2.3494,49.0806],[2.3388,49.0769],[2.3239,49.0934],[2.3124,49.0977],[2.3089,49.1024],[2.3201,49.1247]]]}},{"type":"Feature","properties":{"code":"95040","nom":"Avernes","app":16.2,"app_bas":13.6,"app_haut":19.29,"app_ech":"maille","app_obs":19,"mai":11.62,"mai_bas":9.1,"mai_haut":14.83,"mai_ech":"maille","mai_obs":44},"geometry":{"type":"Polygon","coordinates":[[[1.8311,49.0828],[1.8417,49.0837],[1.8592,49.0902],[1.8697,49.1017],[1.8854,49.1128],[1.8864,49.116],[1.899,49.1142],[1.9058,49.1114],[1.8951,49.1001],[1.8893,49.0886],[1.8926,49.0757],[1.8906,49.0716],[1.8757,49.0747],[1.8636,49.075],[1.8489,49.07],[1.8406,49.0693],[1.8236,49.0767],[1.8311,49.0828]]]}},{"type":"Feature","properties":{"code":"95149","nom":"Chaumontel","app":17.31,"app_bas":14.34,"app_haut":20.89,"app_ech":"commune","app_obs":146,"mai":17.08,"mai_bas":13.32,"mai_haut":21.91,"mai_ech":"maille","mai_obs":27},"geometry":{"type":"Polygon","coordinates":[[[2.4354,49.1339],[2.4471,49.1356],[2.4582,49.1411],[2.4613,49.1366],[2.4483,49.1288],[2.4364,49.1163],[2.431,49.1147],[2.4209,49.122],[2.4109,49.1248],[2.4196,49.1337],[2.4354,49.1339]]]}},{"type":"Feature","properties":{"code":"95250","nom":"Fosses","app":18.02,"app_bas":15.24,"app_haut":21.32,"app_ech":"commune","app_obs":268,"mai":17.08,"mai_bas":13.32,"mai_haut":21.91,"mai_ech":"maille","mai_obs":59},"geometry":{"type":"Polygon","coordinates":[[[2.4879,49.0943],[2.4782,49.0944],[2.4805,49.1061],[2.4842,49.1069],[2.4899,49.1064],[2.5311,49.0996],[2.5308,49.0961],[2.5245,49.0979],[2.4998,49.0939],[2.4879,49.0943]]]}},{"type":"Feature","properties":{"code":"95628","nom":"Valmondois","app":18,"app_bas":15.03,"app_haut":21.56,"app_ech":"maille","app_obs":84,"mai":15.99,"mai_bas":12.47,"mai_haut":20.51,"mai_ech":"maille","mai_obs":11},"geometry":{"type":"Polygon","coordinates":[[[2.1597,49.1037],[2.1591,49.107],[2.1742,49.1096],[2.1811,49.1084],[2.1979,49.0953],[2.209,49.0936],[2.2082,49.0911],[2.1986,49.092],[2.1868,49.0874],[2.1736,49.0882],[2.1705,49.0947],[2.1597,49.1037]]]}},{"type":"Feature","properties":{"code":"95480","nom":"Parmain","app":17.47,"app_bas":14.52,"app_haut":21.02,"app_ech":"commune","app_obs":248,"mai":15.53,"mai_bas":12.44,"mai_haut":19.38,"mai_ech":"commune","mai_obs":134},"geometry":{"type":"Polygon","coordinates":[[[2.1985,49.1566],[2.209,49.1458],[2.2119,49.131],[2.2175,49.1242],[2.2092,49.1124],[2.209,49.0936],[2.1979,49.0953],[2.1811,49.1084],[2.1951,49.1157],[2.1972,49.1196],[2.1908,49.1354],[2.1977,49.1435],[2.1926,49.1557],[2.1985,49.1566]]]}},{"type":"Feature","properties":{"code":"95353","nom":"Maffliers","app":18.48,"app_bas":15.71,"app_haut":21.75,"app_ech":"commune","app_obs":208,"mai":17.08,"mai_bas":13.32,"mai_haut":21.91,"mai_ech":"maille","mai_obs":29},"geometry":{"type":"Polygon","coordinates":[[[2.3346,49.0753],[2.3051,49.0724],[2.2905,49.0781],[2.2838,49.0783],[2.2917,49.0876],[2.303,49.0922],[2.3124,49.0977],[2.3239,49.0934],[2.3388,49.0769],[2.3346,49.0753]]]}},{"type":"Feature","properties":{"code":"95656","nom":"Vienne-en-Arthies","app":14.68,"app_bas":12.41,"app_haut":17.37,"app_ech":"maille","app_obs":6,"mai":11.62,"mai_bas":9.1,"mai_haut":14.83,"mai_ech":"maille","mai_obs":12},"geometry":{"type":"Polygon","coordinates":[[[1.7063,49.0777],[1.7409,49.0727],[1.7244,49.0549],[1.7128,49.0531],[1.7129,49.0651],[1.7063,49.0777]]]}},{"type":"Feature","properties":{"code":"95229","nom":"Ézanville","app":18.22,"app_bas":15.49,"app_haut":21.43,"app_ech":"commune","app_obs":504,"mai":17.36,"mai_bas":12.12,"mai_haut":24.88,"mai_ech":"maille","mai_obs":46},"geometry":{"type":"Polygon","coordinates":[[[2.3405,49.0384],[2.3498,49.0403],[2.352,49.0447],[2.3698,49.0545],[2.3829,49.042],[2.3714,49.0315],[2.3639,49.0219],[2.3432,49.034],[2.3405,49.0384]]]}},{"type":"Feature","properties":{"code":"95459","nom":"Nucourt","app":15.01,"app_bas":12.42,"app_haut":18.13,"app_ech":"maille","app_obs":7,"mai":12.81,"mai_bas":9.93,"mai_haut":16.52,"mai_ech":"maille","mai_obs":8},"geometry":{"type":"Polygon","coordinates":[[[1.8491,49.1705],[1.8582,49.1699],[1.8768,49.1753],[1.8824,49.1613],[1.8694,49.1571],[1.8575,49.1431],[1.8407,49.143],[1.8363,49.1483],[1.8341,49.1651],[1.8491,49.1705]]]}},{"type":"Feature","properties":{"code":"95690","nom":"Wy-dit-Joli-Village","app":16.2,"app_bas":13.6,"app_haut":19.29,"app_ech":"maille","app_obs":12,"mai":11.62,"mai_bas":9.1,"mai_haut":14.83,"mai_ech":"maille","mai_obs":2},"geometry":{"type":"Polygon","coordinates":[[[1.8311,49.0828],[1.8236,49.0767],[1.8154,49.0764],[1.8037,49.0821],[1.8013,49.0859],[1.8153,49.108],[1.8276,49.1167],[1.8349,49.1143],[1.8489,49.1014],[1.8311,49.0828]]]}},{"type":"Feature","properties":{"code":"95154","nom":"Chennevières-lès-Louvres","app":15.81,"app_bas":13.02,"app_haut":19.2,"app_ech":"maille","app_obs":9,"mai":14.12,"mai_bas":11.66,"mai_haut":17.11,"mai_ech":"maille","mai_obs":12},"geometry":{"type":"Polygon","coordinates":[[[2.5261,49.0301],[2.5299,49.0449],[2.54,49.0509],[2.55,49.0531],[2.5684,49.0463],[2.5677,49.0414],[2.5473,49.0349],[2.5261,49.0301]]]}},{"type":"Feature","properties":{"code":"95091","nom":"Bouffémont","app":18.09,"app_bas":15.53,"app_haut":21.07,"app_ech":"maille","app_obs":98,"mai":17.32,"mai_bas":12.87,"mai_haut":23.32,"mai_ech":"maille","mai_obs":22},"geometry":{"type":"Polygon","coordinates":[[[2.3219,49.0508],[2.3245,49.0451],[2.3148,49.0389],[2.2995,49.0351],[2.2944,49.0302],[2.2748,49.0364],[2.2767,49.0418],[2.285,49.0491],[2.3099,49.0482],[2.3219,49.0508]]]}},{"type":"Feature","properties":{"code":"95438","nom":"Moussy","app":14.46,"app_bas":12.02,"app_haut":17.38,"app_ech":"maille","app_obs":3,"mai":12.81,"mai_bas":9.93,"mai_haut":16.52,"mai_ech":"maille","mai_obs":3},"geometry":{"type":"Polygon","coordinates":[[[1.8936,49.144],[1.9068,49.1413],[1.9196,49.1422],[1.9246,49.1396],[1.9339,49.1321],[1.9311,49.1294],[1.9149,49.1267],[1.9019,49.1285],[1.8845,49.1345],[1.8822,49.1378],[1.8936,49.144]]]}},{"type":"Feature","properties":{"code":"95527","nom":"Roissy-en-France","app":18.75,"app_bas":15.91,"app_haut":22.09,"app_ech":"commune","app_obs":456,"mai":14.12,"mai_bas":11.66,"mai_haut":17.11,"mai_ech":"maille","mai_obs":45},"geometry":{"type":"Polygon","coordinates":[[[2.4986,49.0241],[2.5088,49.0276],[2.5256,49.0269],[2.535,49.0238],[2.5378,49.0166],[2.549,49.0147],[2.5531,49.0098],[2.5478,49.0049],[2.5322,49.0052],[2.5184,48.9895],[2.5148,48.9823],[2.5019,48.9785],[2.4959,48.9885],[2.484,48.9965],[2.4881,49.0022],[2.4911,49.01],[2.4986,49.0241]]]}},{"type":"Feature","properties":{"code":"95429","nom":"Montreuil-sur-Epte","app":13.99,"app_bas":11.83,"app_haut":16.54,"app_ech":"maille","app_obs":0,"mai":11.62,"mai_bas":9.1,"mai_haut":14.83,"mai_ech":"maille","mai_obs":5},"geometry":{"type":"Polygon","coordinates":[[[1.6718,49.1809],[1.6812,49.1827],[1.7076,49.1773],[1.712,49.1784],[1.7182,49.1733],[1.6937,49.1637],[1.6787,49.1562],[1.6714,49.1585],[1.6643,49.154],[1.6629,49.1602],[1.6674,49.1675],[1.667,49.1786],[1.6718,49.1809]]]}},{"type":"Feature","properties":{"code":"95627","nom":"Vallangoujard","app":16.42,"app_bas":14.25,"app_haut":18.92,"app_ech":"maille","app_obs":23,"mai":13.71,"mai_bas":10.98,"mai_haut":17.12,"mai_ech":"maille","mai_obs":10},"geometry":{"type":"Polygon","coordinates":[[[2.0918,49.1164],[2.0935,49.125],[2.0892,49.133],[2.0905,49.1467],[2.0853,49.1491],[2.0855,49.1525],[2.0998,49.1506],[2.112,49.1437],[2.1233,49.1429],[2.1298,49.1386],[2.121,49.1331],[2.1142,49.1229],[2.1056,49.1136],[2.0918,49.1164]]]}},{"type":"Feature","properties":{"code":"95541","nom":"Saint-Clair-sur-Epte","app":11.31,"app_bas":9.44,"app_haut":13.54,"app_ech":"maille","app_obs":78,"mai":10.18,"mai_bas":8.26,"mai_haut":12.56,"mai_ech":"maille","mai_obs":20},"geometry":{"type":"Polygon","coordinates":[[[1.6718,49.1809],[1.6705,49.1899],[1.677,49.2025],[1.6732,49.2056],[1.6757,49.2119],[1.7041,49.2293],[1.7044,49.2322],[1.7135,49.2327],[1.7297,49.2292],[1.7404,49.2234],[1.7341,49.2213],[1.7337,49.211],[1.723,49.2097],[1.7155,49.2027],[1.6862,49.2003],[1.6823,49.1955],[1.6812,49.1827],[1.6718,49.1809]]]}},{"type":"Feature","properties":{"code":"95633","nom":"Vaudherland","app":17.44,"app_bas":14.82,"app_haut":20.52,"app_ech":"maille","app_obs":3,"mai":18,"mai_bas":12.4,"mai_haut":26.13,"mai_ech":"maille","mai_obs":1},"geometry":{"type":"Polygon","coordinates":[[[2.4858,48.9993],[2.4835,48.9992],[2.4881,49.0022],[2.4858,48.9993]]]}},{"type":"Feature","properties":{"code":"95450","nom":"Neuville-sur-Oise","app":17.76,"app_bas":15.2,"app_haut":20.75,"app_ech":"maille","app_obs":73,"mai":15.31,"mai_bas":11.7,"mai_haut":20.04,"mai_ech":"maille","mai_obs":23},"geometry":{"type":"Polygon","coordinates":[[[2.0382,49.0337],[2.073,49.0184],[2.0809,49.019],[2.0849,49.0147],[2.0755,49.0023],[2.0717,49.0017],[2.0644,49.0082],[2.0406,49.0257],[2.0382,49.0337]]]}},{"type":"Feature","properties":{"code":"95678","nom":"Villiers-Adam","app":18,"app_bas":15.03,"app_haut":21.56,"app_ech":"maille","app_obs":25,"mai":15.99,"mai_bas":12.47,"mai_haut":20.51,"mai_ech":"maille","mai_obs":3},"geometry":{"type":"Polygon","coordinates":[[[2.236,49.0874],[2.2497,49.0854],[2.2509,49.0908],[2.2584,49.0912],[2.2579,49.0837],[2.274,49.0765],[2.2719,49.0694],[2.2554,49.0707],[2.2349,49.0494],[2.2313,49.0518],[2.2041,49.0611],[2.2027,49.065],[2.2204,49.0701],[2.2337,49.0768],[2.236,49.0874]]]}},{"type":"Feature","properties":{"code":"95018","nom":"Argenteuil","app":19.36,"app_bas":15.38,"app_haut":24.38,"app_ech":"commune","app_obs":7596,"mai":18.23,"mai_bas":13.23,"mai_haut":25.14,"mai_ech":"commune","mai_obs":588},"geometry":{"type":"Polygon","coordinates":[[[2.2923,48.9514],[2.2687,48.9466],[2.2476,48.9367],[2.2311,48.9277],[2.2212,48.9347],[2.2061,48.9407],[2.2059,48.9497],[2.2041,48.9571],[2.2098,48.9635],[2.2257,48.971],[2.2489,48.9648],[2.2622,48.9625],[2.2746,48.9641],[2.2885,48.959],[2.2923,48.9514]]]}},{"type":"Feature","properties":{"code":"95259","nom":"Gadancourt","app":null,"app_bas":null,"app_haut":null,"app_ech":null,"app_obs":0,"mai":null,"mai_bas":null,"mai_haut":null,"mai_ech":null,"mai_obs":0},"geometry":{"type":"Polygon","coordinates":[[[1.8311,49.0828],[1.8489,49.1014],[1.8556,49.0998],[1.8756,49.1162],[1.8811,49.1186],[1.8864,49.116],[1.8854,49.1128],[1.8697,49.1017],[1.8592,49.0902],[1.8417,49.0837],[1.8311,49.0828]]]}},{"type":"Feature","properties":{"code":"95422","nom":"Montgeroult","app":15.67,"app_bas":13.63,"app_haut":18.03,"app_ech":"maille","app_obs":30,"mai":13.71,"mai_bas":10.98,"mai_haut":17.12,"mai_ech":"maille","mai_obs":12},"geometry":{"type":"Polygon","coordinates":[[[2.015,49.0775],[2.0007,49.0794],[1.9921,49.0865],[1.9941,49.1028],[1.9993,49.0998],[2.0122,49.1002],[2.0269,49.0965],[2.0197,49.0888],[2.0159,49.0774],[2.015,49.0775]]]}},{"type":"Feature","properties":{"code":"95488","nom":"Pierrelaye","app":17.96,"app_bas":15.01,"app_haut":21.49,"app_ech":"commune","app_obs":1001,"mai":16.56,"mai_bas":13.07,"mai_haut":21,"mai_ech":"maille","mai_obs":78},"geometry":{"type":"Polygon","coordinates":[[[2.1936,49.0057],[2.1821,49.0007],[2.1608,49.0125],[2.1547,49.0052],[2.1384,49.0142],[2.1287,49.0229],[2.1558,49.0363],[2.1832,49.0254],[2.1753,49.0176],[2.1812,49.012],[2.1971,49.0075],[2.1936,49.0057]]]}},{"type":"Feature","properties":{"code":"95028","nom":"Attainville","app":18.09,"app_bas":15.53,"app_haut":21.07,"app_ech":"maille","app_obs":34,"mai":13.81,"mai_bas":10.77,"mai_haut":17.7,"mai_ech":"maille","mai_obs":25},"geometry":{"type":"Polygon","coordinates":[[[2.352,49.0447],[2.3353,49.0515],[2.33,49.0637],[2.3346,49.0753],[2.3386,49.0766],[2.3539,49.0698],[2.3673,49.0683],[2.3752,49.0635],[2.3698,49.0545],[2.352,49.0447]]]}},{"type":"Feature","properties":{"code":"95101","nom":"Bray-et-Lû","app":13.06,"app_bas":10.95,"app_haut":15.58,"app_ech":"maille","app_obs":43,"mai":11.62,"mai_bas":9.1,"mai_haut":14.83,"mai_ech":"maille","mai_obs":20},"geometry":{"type":"Polygon","coordinates":[[[1.6643,49.154],[1.6714,49.1585],[1.6787,49.1562],[1.6732,49.1451],[1.6744,49.1393],[1.6713,49.1275],[1.656,49.1304],[1.6524,49.1394],[1.6539,49.1454],[1.6643,49.154]]]}},{"type":"Feature","properties":{"code":"95253","nom":"Frémainville","app":16.2,"app_bas":13.6,"app_haut":19.29,"app_ech":"maille","app_obs":38,"mai":11.62,"mai_bas":9.1,"mai_haut":14.83,"mai_ech":"maille","mai_obs":13},"geometry":{"type":"Polygon","coordinates":[[[1.8406,49.0693],[1.8489,49.07],[1.8636,49.075],[1.8757,49.0747],[1.8906,49.0716],[1.8963,49.0664],[1.8772,49.0568],[1.8655,49.0575],[1.8553,49.0618],[1.8414,49.0648],[1.8406,49.0693]]]}},{"type":"Feature","properties":{"code":"95594","nom":"Seugy","app":17.12,"app_bas":14.23,"app_haut":20.61,"app_ech":"commune","app_obs":117,"mai":17.08,"mai_bas":13.32,"mai_haut":21.91,"mai_ech":"maille","mai_obs":16},"geometry":{"type":"Polygon","coordinates":[[[2.396,49.1157],[2.3845,49.119],[2.3867,49.129],[2.4078,49.1263],[2.396,49.1157]]]}},{"type":"Feature","properties":{"code":"95008","nom":"Aincourt","app":14.68,"app_bas":12.41,"app_haut":17.37,"app_ech":"maille","app_obs":29,"mai":11.62,"mai_bas":9.1,"mai_haut":14.83,"mai_ech":"maille","mai_obs":6},"geometry":{"type":"Polygon","coordinates":[[[1.7775,49.0898],[1.794,49.0816],[1.7965,49.0722],[1.7998,49.0646],[1.7943,49.0582],[1.7778,49.0566],[1.7594,49.0633],[1.7484,49.0661],[1.7463,49.0728],[1.7552,49.0877],[1.7608,49.0874],[1.7775,49.0898]]]}},{"type":"Feature","properties":{"code":"95555","nom":"Saint-Gratien","app":20.42,"app_bas":16.83,"app_haut":24.77,"app_ech":"commune","app_obs":1774,"mai":17.64,"mai_bas":13.21,"mai_haut":23.55,"mai_ech":"maille","mai_obs":71},"geometry":{"type":"Polygon","coordinates":[[[2.2746,48.9641],[2.2734,48.9767],[2.2919,48.9762],[2.2979,48.9751],[2.293,48.9716],[2.2986,48.9663],[2.2885,48.959],[2.2746,48.9641]]]}},{"type":"Feature","properties":{"code":"95141","nom":"Charmont","app":14.3,"app_bas":12.06,"app_haut":16.95,"app_ech":"maille","app_obs":0,"mai":12.81,"mai_bas":9.93,"mai_haut":16.52,"mai_ech":"maille","mai_obs":1},"geometry":{"type":"Polygon","coordinates":[[[1.7837,49.1447],[1.7965,49.1474],[1.8132,49.141],[1.7985,49.1315],[1.7884,49.1318],[1.7719,49.1294],[1.7669,49.1323],[1.7766,49.1376],[1.7837,49.1447]]]}},{"type":"Feature","properties":{"code":"95456","nom":"Noisy-sur-Oise","app":16.36,"app_bas":13.59,"app_haut":19.69,"app_ech":"maille","app_obs":20,"mai":14.01,"mai_bas":10.74,"mai_haut":18.26,"mai_ech":"maille","mai_obs":4},"geometry":{"type":"Polygon","coordinates":[[[2.3227,49.1466],[2.3295,49.1419],[2.3386,49.1457],[2.3406,49.132],[2.3368,49.1231],[2.3201,49.1247],[2.3156,49.1393],[2.3227,49.1466]]]}},{"type":"Feature","properties":{"code":"95369","nom":"Margency","app":19.01,"app_bas":15.92,"app_haut":22.68,"app_ech":"commune","app_obs":200,"mai":17.64,"mai_bas":13.21,"mai_haut":23.55,"mai_ech":"maille","mai_obs":17},"geometry":{"type":"Polygon","coordinates":[[[2.2903,48.9967],[2.2831,49.0029],[2.2918,49.0063],[2.2959,49.0023],[2.2903,48.9967]]]}},{"type":"Feature","properties":{"code":"95452","nom":"Nointel","app":18.28,"app_bas":15.53,"app_haut":21.51,"app_ech":"maille","app_obs":38,"mai":17.08,"mai_bas":13.32,"mai_haut":21.91,"mai_ech":"maille","mai_obs":9},"geometry":{"type":"Polygon","coordinates":[[[2.2782,49.1352],[2.2972,49.1366],[2.3059,49.1325],[2.3136,49.1228],[2.3058,49.1204],[2.2795,49.1257],[2.2782,49.1352]]]}},{"type":"Feature","properties":{"code":"95493","nom":"Plessis-Luzarches","app":17.34,"app_bas":14.43,"app_haut":20.83,"app_ech":"maille","app_obs":11,"mai":17.08,"mai_bas":13.32,"mai_haut":21.91,"mai_ech":"maille","mai_obs":3},"geometry":{"type":"Polygon","coordinates":[[[2.4492,49.095],[2.45,49.1008],[2.465,49.0968],[2.4537,49.0896],[2.4492,49.095]]]}},{"type":"Feature","properties":{"code":"95539","nom":"Saint-Brice-sous-Forêt","app":18.65,"app_bas":15.92,"app_haut":21.85,"app_ech":"commune","app_obs":1465,"mai":17.36,"mai_bas":12.12,"mai_haut":24.88,"mai_ech":"maille","mai_obs":66},"geometry":{"type":"Polygon","coordinates":[[[2.3635,49.02],[2.3637,49.0096],[2.3687,48.9946],[2.3657,48.9888],[2.3612,48.9866],[2.349,48.9932],[2.3375,48.9927],[2.3319,48.9999],[2.3235,49.0045],[2.3223,49.0101],[2.3458,49.0065],[2.3517,49.0132],[2.3635,49.02]]]}},{"type":"Feature","properties":{"code":"95509","nom":"Puiseux-en-France","app":17.52,"app_bas":14.56,"app_haut":21.07,"app_ech":"commune","app_obs":105,"mai":14.12,"mai_bas":11.66,"mai_haut":17.11,"mai_ech":"maille","mai_obs":36},"geometry":{"type":"Polygon","coordinates":[[[2.4724,49.071],[2.4866,49.0893],[2.4897,49.0868],[2.4862,49.0783],[2.5072,49.0647],[2.5068,49.0607],[2.4933,49.0529],[2.482,49.0539],[2.4724,49.071]]]}},{"type":"Feature","properties":{"code":"95280","nom":"Goussainville","app":17.97,"app_bas":14.82,"app_haut":21.8,"app_ech":"commune","app_obs":954,"mai":15.53,"mai_bas":12.12,"mai_haut":19.89,"mai_ech":"commune","mai_obs":229},"geometry":{"type":"Polygon","coordinates":[[[2.4382,49.0287],[2.4467,49.0376],[2.4743,49.0417],[2.4851,49.0293],[2.4986,49.0241],[2.4911,49.01],[2.4575,49.0095],[2.4432,49.0126],[2.4382,49.0287]]]}},{"type":"Feature","properties":{"code":"95355","nom":"Magny-en-Vexin","app":15.34,"app_bas":12.95,"app_haut":18.17,"app_ech":"commune","app_obs":758,"mai":12.59,"mai_bas":9.76,"mai_haut":16.25,"mai_ech":"commune","mai_obs":235},"geometry":{"type":"Polygon","coordinates":[[[1.836,49.1404],[1.8132,49.141],[1.7965,49.1474],[1.7837,49.1447],[1.7739,49.1523],[1.7699,49.1611],[1.7799,49.1638],[1.7962,49.1632],[1.7979,49.177],[1.7936,49.1803],[1.797,49.1852],[1.8144,49.1762],[1.8266,49.1795],[1.8371,49.1717],[1.8341,49.1651],[1.8363,49.1483],[1.8407,49.143],[1.836,49.1404]]]}},{"type":"Feature","properties":{"code":"95529","nom":"Ronquerolles","app":17.68,"app_bas":13.84,"app_haut":22.59,"app_ech":"maille","app_obs":47,"mai":13.71,"mai_bas":10.98,"mai_haut":17.12,"mai_ech":"maille","mai_obs":2},"geometry":{"type":"Polygon","coordinates":[[[2.2203,49.1792],[2.2239,49.1739],[2.2354,49.167],[2.2164,49.1544],[2.2062,49.1585],[2.1969,49.167],[2.1874,49.1732],[2.205,49.1743],[2.2203,49.1792]]]}},{"type":"Feature","properties":{"code":"95051","nom":"Beauchamp","app":17.93,"app_bas":15.35,"app_haut":20.95,"app_ech":"commune","app_obs":614,"mai":15.99,"mai_bas":12.47,"mai_haut":20.51,"mai_ech":"maille","mai_obs":67},"geometry":{"type":"Polygon","coordinates":[[[2.1832,49.0254],[2.2054,49.0196],[2.2024,49.009],[2.2149,49.0035],[2.2132,49.0017],[2.1971,49.0075],[2.1812,49.012],[2.1753,49.0176],[2.1832,49.0254]]]}},{"type":"Feature","properties":{"code":"95504","nom":"Presles","app":17.56,"app_bas":14.9,"app_haut":20.7,"app_ech":"commune","app_obs":130,"mai":17.08,"mai_bas":13.32,"mai_haut":21.91,"mai_ech":"maille","mai_obs":46},"geometry":{"type":"Polygon","coordinates":[[[2.3124,49.0977],[2.303,49.0922],[2.29,49.1012],[2.2604,49.1008],[2.2568,49.1134],[2.2623,49.1242],[2.2795,49.1257],[2.3058,49.1204],[2.3201,49.1247],[2.3089,49.1024],[2.3124,49.0977]]]}},{"type":"Feature","properties":{"code":"95102","nom":"Bréançon","app":16.42,"app_bas":14.25,"app_haut":18.92,"app_ech":"maille","app_obs":8,"mai":12.81,"mai_bas":9.93,"mai_haut":16.52,"mai_ech":"maille","mai_obs":6},"geometry":{"type":"Polygon","coordinates":[[[2.0003,49.1357],[2.0042,49.1387],[2.0002,49.1531],[1.9959,49.1589],[2.0067,49.1615],[2.0124,49.1659],[2.0317,49.1619],[2.0492,49.1628],[2.0496,49.1566],[2.0586,49.1532],[2.0414,49.1459],[2.0357,49.141],[2.0301,49.1309],[2.0113,49.1317],[2.0003,49.1357]]]}},{"type":"Feature","properties":{"code":"95181","nom":"Courcelles-sur-Viosne","app":15.67,"app_bas":13.63,"app_haut":18.03,"app_ech":"maille","app_obs":26,"mai":13.71,"mai_bas":10.98,"mai_haut":17.12,"mai_ech":"maille","mai_obs":10},"geometry":{"type":"Polygon","coordinates":[[[1.9786,49.0693],[1.9784,49.0714],[1.9951,49.0834],[2.0007,49.0794],[2.015,49.0775],[2.013,49.07],[2.0056,49.0654],[1.9947,49.0634],[1.9786,49.0693]]]}},{"type":"Feature","properties":{"code":"95304","nom":"Hédouville","app":17.68,"app_bas":13.84,"app_haut":22.59,"app_ech":"maille","app_obs":0,"mai":13.71,"mai_bas":10.98,"mai_haut":17.12,"mai_ech":"maille","mai_obs":4},"geometry":{"type":"Polygon","coordinates":[[[2.1761,49.176],[2.1874,49.1732],[2.1969,49.167],[2.1985,49.1566],[2.1926,49.1557],[2.1735,49.142],[2.1651,49.1426],[2.1633,49.1486],[2.1662,49.1563],[2.1598,49.16],[2.1639,49.1661],[2.1759,49.1696],[2.1761,49.176]]]}},{"type":"Feature","properties":{"code":"95024","nom":"Arthies","app":16.2,"app_bas":13.6,"app_haut":19.29,"app_ech":"maille","app_obs":6,"mai":12.81,"mai_bas":9.93,"mai_haut":16.52,"mai_ech":"maille","mai_obs":14},"geometry":{"type":"Polygon","coordinates":[[[1.7775,49.0898],[1.782,49.1032],[1.7935,49.1148],[1.8153,49.108],[1.8013,49.0859],[1.8037,49.0821],[1.8154,49.0764],[1.8106,49.073],[1.7965,49.0722],[1.794,49.0816],[1.7775,49.0898]]]}},{"type":"Feature","properties":{"code":"95268","nom":"Garges-lès-Gonesse","app":18.65,"app_bas":14.54,"app_haut":23.91,"app_ech":"commune","app_obs":703,"mai":17.49,"mai_bas":12.89,"mai_haut":23.74,"mai_ech":"maille","mai_obs":61},"geometry":{"type":"Polygon","coordinates":[[[2.4188,48.9578],[2.4074,48.9561],[2.3943,48.9626],[2.3824,48.9713],[2.4008,48.9827],[2.4066,48.9827],[2.4248,48.975],[2.4181,48.967],[2.4188,48.9578]]]}},{"type":"Feature","properties":{"code":"95371","nom":"Marly-la-Ville","app":18.16,"app_bas":15.34,"app_haut":21.49,"app_ech":"commune","app_obs":300,"mai":14.12,"mai_bas":11.66,"mai_haut":17.11,"mai_ech":"maille","mai_obs":64},"geometry":{"type":"Polygon","coordinates":[[[2.5072,49.0647],[2.4862,49.0783],[2.4897,49.0868],[2.4866,49.0893],[2.4879,49.0943],[2.4998,49.0939],[2.5245,49.0979],[2.5247,49.0874],[2.5291,49.0784],[2.5268,49.0678],[2.5227,49.0627],[2.5072,49.0647]]]}},{"type":"Feature","properties":{"code":"95680","nom":"Villiers-le-Bel","app":18.58,"app_bas":15.02,"app_haut":22.98,"app_ech":"commune","app_obs":1433,"mai":17.36,"mai_bas":12.12,"mai_haut":24.88,"mai_ech":"maille","mai_obs":63},"geometry":{"type":"Polygon","coordinates":[[[2.4103,49.024],[2.4251,49.014],[2.4165,48.9985],[2.4081,48.992],[2.384,49.0016],[2.3789,49.0069],[2.3796,49.0135],[2.395,49.0154],[2.4103,49.024]]]}},{"type":"Feature","properties":{"code":"95039","nom":"Auvers-sur-Oise","app":17.35,"app_bas":14.72,"app_haut":20.46,"app_ech":"commune","app_obs":417,"mai":15.99,"mai_bas":12.47,"mai_haut":20.51,"mai_ech":"maille","mai_obs":67},"geometry":{"type":"Polygon","coordinates":[[[2.1303,49.086],[2.1422,49.092],[2.1498,49.1042],[2.1597,49.1037],[2.1705,49.0947],[2.1736,49.0882],[2.1805,49.0788],[2.1931,49.0739],[2.1682,49.0642],[2.1416,49.0665],[2.127,49.064],[2.1204,49.0647],[2.1289,49.0791],[2.1303,49.086]]]}},{"type":"Feature","properties":{"code":"95323","nom":"Jouy-le-Moutier","app":17.41,"app_bas":15.45,"app_haut":19.62,"app_ech":"commune","app_obs":1091,"mai":15.32,"mai_bas":11.81,"mai_haut":19.86,"mai_ech":"maille","mai_obs":75},"geometry":{"type":"Polygon","coordinates":[[[2.0076,49.0082],[2.0141,49.0137],[2.0108,49.0207],[2.0211,49.0211],[2.0406,49.0257],[2.0644,49.0082],[2.0499,49.0032],[2.0236,48.9979],[2.0144,49.0011],[2.0076,49.0082]]]}},{"type":"Feature","properties":{"code":"95598","nom":"Soisy-sous-Montmorency","app":19.29,"app_bas":15.92,"app_haut":23.36,"app_ech":"commune","app_obs":1481,"mai":17.64,"mai_bas":13.21,"mai_haut":23.55,"mai_ech":"maille","mai_obs":91},"geometry":{"type":"Polygon","coordinates":[[[2.2929,48.9958],[2.3036,48.9974],[2.3106,49.002],[2.3162,48.9994],[2.307,48.9776],[2.2979,48.9751],[2.2919,48.9762],[2.2858,48.9874],[2.2929,48.9958]]]}},{"type":"Feature","properties":{"code":"95199","nom":"Domont","app":17.98,"app_bas":15.54,"app_haut":20.81,"app_ech":"commune","app_obs":1805,"mai":16.52,"mai_bas":12.31,"mai_haut":22.18,"mai_ech":"commune","mai_obs":106},"geometry":{"type":"Polygon","coordinates":[[[2.3405,49.0384],[2.3432,49.034],[2.3546,49.0266],[2.3235,49.0193],[2.3219,49.0107],[2.3129,49.0148],[2.3059,49.0238],[2.3014,49.0238],[2.2956,49.0268],[2.2944,49.0302],[2.2995,49.0351],[2.3148,49.0389],[2.3245,49.0451],[2.3373,49.0454],[2.3405,49.0384]]]}},{"type":"Feature","properties":{"code":"95625","nom":"Us","app":16.2,"app_bas":13.6,"app_haut":19.29,"app_ech":"maille","app_obs":27,"mai":14.15,"mai_bas":10.61,"mai_haut":18.87,"mai_ech":"maille","mai_obs":23},"geometry":{"type":"Polygon","coordinates":[[[1.9504,49.1192],[1.9637,49.1196],[1.9753,49.1246],[1.989,49.1092],[1.9724,49.0955],[1.9512,49.086],[1.9419,49.0914],[1.9215,49.0948],[1.9261,49.1027],[1.9364,49.1054],[1.9504,49.1192]]]}},{"type":"Feature","properties":{"code":"95660","nom":"Villaines-sous-Bois","app":18.28,"app_bas":15.53,"app_haut":21.51,"app_ech":"maille","app_obs":38,"mai":17.08,"mai_bas":13.32,"mai_haut":21.91,"mai_ech":"maille","mai_obs":11},"geometry":{"type":"Polygon","coordinates":[[[2.3494,49.0806],[2.3625,49.0797],[2.3704,49.0727],[2.3673,49.0683],[2.3539,49.0698],[2.3386,49.0766],[2.3494,49.0806]]]}},{"type":"Feature","properties":{"code":"95110","nom":"Brignancourt","app":14.46,"app_bas":12.02,"app_haut":17.38,"app_ech":"maille","app_obs":9,"mai":12.81,"mai_bas":9.93,"mai_haut":16.52,"mai_ech":"maille","mai_obs":5},"geometry":{"type":"Polygon","coordinates":[[[1.9339,49.1321],[1.9246,49.1396],[1.9317,49.1445],[1.9601,49.148],[1.9609,49.1448],[1.9531,49.1337],[1.944,49.1297],[1.9339,49.1321]]]}},{"type":"Feature","properties":{"code":"95445","nom":"Nerville-la-Forêt","app":18.28,"app_bas":15.53,"app_haut":21.51,"app_ech":"maille","app_obs":60,"mai":15.99,"mai_bas":12.47,"mai_haut":20.51,"mai_ech":"maille","mai_obs":12},"geometry":{"type":"Polygon","coordinates":[[[2.2838,49.0783],[2.274,49.0765],[2.2579,49.0837],[2.2584,49.0912],[2.2509,49.0908],[2.2604,49.1008],[2.29,49.1012],[2.303,49.0922],[2.2917,49.0876],[2.2838,49.0783]]]}},{"type":"Feature","properties":{"code":"95543","nom":"Saint-Cyr-en-Arthies","app":13.99,"app_bas":11.83,"app_haut":16.54,"app_ech":"maille","app_obs":1,"mai":11.62,"mai_bas":9.1,"mai_haut":14.83,"mai_ech":"maille","mai_obs":0},"geometry":{"type":"Polygon","coordinates":[[[1.7321,49.0504],[1.7244,49.0549],[1.7409,49.0727],[1.7463,49.0728],[1.7484,49.0661],[1.7594,49.0633],[1.7502,49.0541],[1.7512,49.0482],[1.7356,49.0487],[1.7321,49.0504]]]}}]}