{"type":"FeatureCollection","features":[{"type":"Feature","properties":{"code":"02","nom":"Aisne","ppsm":1124,"count":17957},"geometry":{"type":"Point","coordinates":[3.5595,49.5614]}},{"type":"Feature","properties":{"code":"10","nom":"Aube","ppsm":1443,"count":11529},"geometry":{"type":"Point","coordinates":[4.1614,48.3046]}},{"type":"Feature","properties":{"code":"14","nom":"Calvados","ppsm":2538,"count":33699},"geometry":{"type":"Point","coordinates":[-0.363,49.0996]}},{"type":"Feature","properties":{"code":"15","nom":"Cantal","ppsm":1150,"count":5903},"geometry":{"type":"Point","coordinates":[2.6688,45.0512]}},{"type":"Feature","properties":{"code":"28","nom":"Eure-et-Loir","ppsm":1704,"count":16273},"geometry":{"type":"Point","coordinates":[1.3694,48.388]}},{"type":"Feature","properties":{"code":"35","nom":"Ille-et-Vilaine","ppsm":2716,"count":42183},"geometry":{"type":"Point","coordinates":[-1.6337,48.1509]}},{"type":"Feature","properties":{"code":"39","nom":"Jura","ppsm":1475,"count":9843},"geometry":{"type":"Point","coordinates":[5.6976,46.7297]}},{"type":"Feature","properties":{"code":"40","nom":"Landes","ppsm":2556,"count":19804},"geometry":{"type":"Point","coordinates":[-0.7847,43.9657]}},{"type":"Feature","properties":{"code":"42","nom":"Loire","ppsm":1413,"count":30109},"geometry":{"type":"Point","coordinates":[4.1648,45.7283]}},{"type":"Feature","properties":{"code":"45","nom":"Loiret","ppsm":1750,"count":25753},"geometry":{"type":"Point","coordinates":[2.3444,47.9122]}},{"type":"Feature","properties":{"code":"47","nom":"Lot-et-Garonne","ppsm":1250,"count":14250},"geometry":{"type":"Point","coordinates":[0.4604,44.3678]}},{"type":"Feature","properties":{"code":"55","nom":"Meuse","ppsm":953,"count":6446},"geometry":{"type":"Point","coordinates":[5.3818,48.9913]}},{"type":"Feature","properties":{"code":"61","nom":"Orne","ppsm":1087,"count":11363},"geometry":{"type":"Point","coordinates":[0.1276,48.623]}},{"type":"Feature","properties":{"code":"62","nom":"Pas-de-Calais","ppsm":1628,"count":47950},"geometry":{"type":"Point","coordinates":[2.2887,50.4926]}},{"type":"Feature","properties":{"code":"63","nom":"Puy-de-Dôme","ppsm":1800,"count":26867},"geometry":{"type":"Point","coordinates":[3.1403,45.7261]}},{"type":"Feature","properties":{"code":"67","nom":"Bas-Rhin","ppsm":null,"count":0},"geometry":{"type":"Point","coordinates":[7.5513,48.6716]}},{"type":"Feature","properties":{"code":"68","nom":"Haut-Rhin","ppsm":null,"count":0},"geometry":{"type":"Point","coordinates":[7.2741,47.8592]}},{"type":"Feature","properties":{"code":"76","nom":"Seine-Maritime","ppsm":2000,"count":50163},"geometry":{"type":"Point","coordinates":[1.0269,49.6547]}},{"type":"Feature","properties":{"code":"89","nom":"Yonne","ppsm":1243,"count":14155},"geometry":{"type":"Point","coordinates":[3.5634,47.8404]}},{"type":"Feature","properties":{"code":"93","nom":"Seine-Saint-Denis","ppsm":3977,"count":39354},"geometry":{"type":"Point","coordinates":[2.477,48.9176]}},{"type":"Feature","properties":{"code":"04","nom":"Alpes-de-Haute-Provence","ppsm":2167,"count":9406},"geometry":{"type":"Point","coordinates":[6.2447,44.1063]}},{"type":"Feature","properties":{"code":"05","nom":"Hautes-Alpes","ppsm":2713,"count":9663},"geometry":{"type":"Point","coordinates":[6.2645,44.6639]}},{"type":"Feature","properties":{"code":"07","nom":"Ardèche","ppsm":1738,"count":12775},"geometry":{"type":"Point","coordinates":[4.4256,44.7526]}},{"type":"Feature","properties":{"code":"08","nom":"Ardennes","ppsm":1111,"count":9406},"geometry":{"type":"Point","coordinates":[4.6413,49.6159]}},{"type":"Feature","properties":{"code":"09","nom":"Ariège","ppsm":1357,"count":7599},"geometry":{"type":"Point","coordinates":[1.5041,42.9211]}},{"type":"Feature","properties":{"code":"17","nom":"Charente-Maritime","ppsm":2690,"count":34677},"geometry":{"type":"Point","coordinates":[-0.6543,45.7656]}},{"type":"Feature","properties":{"code":"19","nom":"Corrèze","ppsm":1206,"count":10511},"geometry":{"type":"Point","coordinates":[1.8779,45.3574]}},{"type":"Feature","properties":{"code":"24","nom":"Dordogne","ppsm":1293,"count":19429},"geometry":{"type":"Point","coordinates":[0.741,45.105]}},{"type":"Feature","properties":{"code":"27","nom":"Eure","ppsm":1602,"count":22197},"geometry":{"type":"Point","coordinates":[0.9963,49.1137]}},{"type":"Feature","properties":{"code":"37","nom":"Indre-et-Loire","ppsm":2157,"count":24159},"geometry":{"type":"Point","coordinates":[0.6908,47.2586]}},{"type":"Feature","properties":{"code":"48","nom":"Lozère","ppsm":1370,"count":2773},"geometry":{"type":"Point","coordinates":[3.4996,44.5173]}},{"type":"Feature","properties":{"code":"58","nom":"Nièvre","ppsm":930,"count":10189},"geometry":{"type":"Point","coordinates":[3.5041,47.1156]}},{"type":"Feature","properties":{"code":"60","nom":"Oise","ppsm":2103,"count":26875},"geometry":{"type":"Point","coordinates":[2.4252,49.4101]}},{"type":"Feature","properties":{"code":"64","nom":"Pyrénées-Atlantiques","ppsm":2613,"count":29602},"geometry":{"type":"Point","coordinates":[-0.7578,43.2564]}},{"type":"Feature","properties":{"code":"69","nom":"Rhône","ppsm":3690,"count":65899},"geometry":{"type":"Point","coordinates":[4.6407,45.8712]}},{"type":"Feature","properties":{"code":"71","nom":"Saône-et-Loire","ppsm":1259,"count":21728},"geometry":{"type":"Point","coordinates":[4.5428,46.645]}},{"type":"Feature","properties":{"code":"75","nom":"Paris","ppsm":9800,"count":87139},"geometry":{"type":"Point","coordinates":[2.3423,48.8559]}},{"type":"Feature","properties":{"code":"78","nom":"Yvelines","ppsm":3837,"count":45208},"geometry":{"type":"Point","coordinates":[1.8414,48.8151]}},{"type":"Feature","properties":{"code":"81","nom":"Tarn","ppsm":1429,"count":13735},"geometry":{"type":"Point","coordinates":[2.1654,43.7858]}},{"type":"Feature","properties":{"code":"82","nom":"Tarn-et-Garonne","ppsm":1547,"count":9917},"geometry":{"type":"Point","coordinates":[1.2823,44.0862]}},{"type":"Feature","properties":{"code":"83","nom":"Var","ppsm":3600,"count":65496},"geometry":{"type":"Point","coordinates":[6.2442,43.4437]}},{"type":"Feature","properties":{"code":"85","nom":"Vendée","ppsm":2353,"count":34230},"geometry":{"type":"Point","coordinates":[-1.288,46.6726]}},{"type":"Feature","properties":{"code":"87","nom":"Haute-Vienne","ppsm":1281,"count":15748},"geometry":{"type":"Point","coordinates":[1.2347,45.8922]}},{"type":"Feature","properties":{"code":"88","nom":"Vosges","ppsm":1148,"count":13801},"geometry":{"type":"Point","coordinates":[6.38,48.1961]}},{"type":"Feature","properties":{"code":"92","nom":"Hauts-de-Seine","ppsm":6639,"count":55271},"geometry":{"type":"Point","coordinates":[2.2461,48.8464]}},{"type":"Feature","properties":{"code":"03","nom":"Allier","ppsm":1020,"count":15117},"geometry":{"type":"Point","coordinates":[3.1877,46.3936]}},{"type":"Feature","properties":{"code":"06","nom":"Alpes-Maritimes","ppsm":4671,"count":73291},"geometry":{"type":"Point","coordinates":[7.1162,43.9382]}},{"type":"Feature","properties":{"code":"11","nom":"Aude","ppsm":1784,"count":22738},"geometry":{"type":"Point","coordinates":[2.4142,43.1035]}},{"type":"Feature","properties":{"code":"2A","nom":"Corse-du-Sud","ppsm":3905,"count":5855},"geometry":{"type":"Point","coordinates":[8.9875,41.8641]}},{"type":"Feature","properties":{"code":"22","nom":"Côtes-d'Armor","ppsm":1752,"count":28132},"geometry":{"type":"Point","coordinates":[-2.8645,48.4407]}},{"type":"Feature","properties":{"code":"23","nom":"Creuse","ppsm":766,"count":5978},"geometry":{"type":"Point","coordinates":[2.0183,46.0906]}},{"type":"Feature","properties":{"code":"25","nom":"Doubs","ppsm":1923,"count":20926},"geometry":{"type":"Point","coordinates":[6.3631,47.166]}},{"type":"Feature","properties":{"code":"29","nom":"Finistère","ppsm":2010,"count":39357},"geometry":{"type":"Point","coordinates":[-4.0571,48.2606]}},{"type":"Feature","properties":{"code":"30","nom":"Gard","ppsm":2302,"count":31700},"geometry":{"type":"Point","coordinates":[4.1797,43.9939]}},{"type":"Feature","properties":{"code":"33","nom":"Gironde","ppsm":3341,"count":65281},"geometry":{"type":"Point","coordinates":[-0.583,44.839]}},{"type":"Feature","properties":{"code":"36","nom":"Indre","ppsm":932,"count":9629},"geometry":{"type":"Point","coordinates":[1.5763,46.7782]}},{"type":"Feature","properties":{"code":"38","nom":"Isère","ppsm":2586,"count":47479},"geometry":{"type":"Point","coordinates":[5.5742,45.2642]}},{"type":"Feature","properties":{"code":"51","nom":"Marne","ppsm":2039,"count":20023},"geometry":{"type":"Point","coordinates":[4.2385,48.9496]}},{"type":"Feature","properties":{"code":"52","nom":"Haute-Marne","ppsm":933,"count":5968},"geometry":{"type":"Point","coordinates":[5.2253,48.1107]}},{"type":"Feature","properties":{"code":"57","nom":"Moselle","ppsm":null,"count":0},"geometry":{"type":"Point","coordinates":[6.6613,49.0377]}},{"type":"Feature","properties":{"code":"65","nom":"Hautes-Pyrénées","ppsm":1601,"count":11863},"geometry":{"type":"Point","coordinates":[0.1664,43.0513]}},{"type":"Feature","properties":{"code":"66","nom":"Pyrénées-Orientales","ppsm":2333,"count":31260},"geometry":{"type":"Point","coordinates":[2.5207,42.5996]}},{"type":"Feature","properties":{"code":"73","nom":"Savoie","ppsm":3528,"count":24952},"geometry":{"type":"Point","coordinates":[6.4428,45.478]}},{"type":"Feature","properties":{"code":"74","nom":"Haute-Savoie","ppsm":4369,"count":43263},"geometry":{"type":"Point","coordinates":[6.4289,46.035]}},{"type":"Feature","properties":{"code":"77","nom":"Seine-et-Marne","ppsm":2981,"count":48505},"geometry":{"type":"Point","coordinates":[2.9336,48.6276]}},{"type":"Feature","properties":{"code":"84","nom":"Vaucluse","ppsm":2455,"count":22016},"geometry":{"type":"Point","coordinates":[5.1853,43.9941]}},{"type":"Feature","properties":{"code":"86","nom":"Vienne","ppsm":1375,"count":17520},"geometry":{"type":"Point","coordinates":[0.4595,46.565]}},{"type":"Feature","properties":{"code":"94","nom":"Val-de-Marne","ppsm":4833,"count":41944},"geometry":{"type":"Point","coordinates":[2.4695,48.7774]}},{"type":"Feature","properties":{"code":"01","nom":"Ain","ppsm":2414,"count":24445},"geometry":{"type":"Point","coordinates":[5.3483,46.0998]}},{"type":"Feature","properties":{"code":"12","nom":"Aveyron","ppsm":1426,"count":11498},"geometry":{"type":"Point","coordinates":[2.6782,44.281]}},{"type":"Feature","properties":{"code":"13","nom":"Bouches-du-Rhône","ppsm":3467,"count":77571},"geometry":{"type":"Point","coordinates":[5.0853,43.5432]}},{"type":"Feature","properties":{"code":"16","nom":"Charente","ppsm":1238,"count":14939},"geometry":{"type":"Point","coordinates":[0.2031,45.7188]}},{"type":"Feature","properties":{"code":"18","nom":"Cher","ppsm":1033,"count":13418},"geometry":{"type":"Point","coordinates":[2.4915,47.0658]}},{"type":"Feature","properties":{"code":"2B","nom":"Haute-Corse","ppsm":3065,"count":6316},"geometry":{"type":"Point","coordinates":[9.2061,42.3948]}},{"type":"Feature","properties":{"code":"21","nom":"Côte-d'Or","ppsm":2313,"count":23481},"geometry":{"type":"Point","coordinates":[4.7726,47.426]}},{"type":"Feature","properties":{"code":"26","nom":"Drôme","ppsm":2054,"count":19873},"geometry":{"type":"Point","coordinates":[5.1635,44.6794]}},{"type":"Feature","properties":{"code":"31","nom":"Haute-Garonne","ppsm":2774,"count":56119},"geometry":{"type":"Point","coordinates":[1.1751,43.3591]}},{"type":"Feature","properties":{"code":"32","nom":"Gers","ppsm":1357,"count":7777},"geometry":{"type":"Point","coordinates":[0.453,43.6931]}},{"type":"Feature","properties":{"code":"34","nom":"Hérault","ppsm":3123,"count":62608},"geometry":{"type":"Point","coordinates":[3.3688,43.5794]}},{"type":"Feature","properties":{"code":"43","nom":"Haute-Loire","ppsm":1250,"count":8384},"geometry":{"type":"Point","coordinates":[3.8059,45.1279]}},{"type":"Feature","properties":{"code":"44","nom":"Loire-Atlantique","ppsm":3036,"count":59090},"geometry":{"type":"Point","coordinates":[-1.6849,47.3612]}},{"type":"Feature","properties":{"code":"46","nom":"Lot","ppsm":1301,"count":7707},"geometry":{"type":"Point","coordinates":[1.6054,44.6246]}},{"type":"Feature","properties":{"code":"49","nom":"Maine-et-Loire","ppsm":2059,"count":29314},"geometry":{"type":"Point","coordinates":[-0.5646,47.3911]}},{"type":"Feature","properties":{"code":"50","nom":"Manche","ppsm":1636,"count":21339},"geometry":{"type":"Point","coordinates":[-1.3298,49.0819]}},{"type":"Feature","properties":{"code":"56","nom":"Morbihan","ppsm":2500,"count":33823},"geometry":{"type":"Point","coordinates":[-2.8047,47.8554]}},{"type":"Feature","properties":{"code":"59","nom":"Nord","ppsm":1998,"count":91408},"geometry":{"type":"Point","coordinates":[3.2158,50.4492]}},{"type":"Feature","properties":{"code":"70","nom":"Haute-Saône","ppsm":1000,"count":8139},"geometry":{"type":"Point","coordinates":[6.0867,47.641]}},{"type":"Feature","properties":{"code":"72","nom":"Sarthe","ppsm":1455,"count":22612},"geometry":{"type":"Point","coordinates":[0.2224,47.9946]}},{"type":"Feature","properties":{"code":"80","nom":"Somme","ppsm":1667,"count":21275},"geometry":{"type":"Point","coordinates":[2.2758,49.9582]}},{"type":"Feature","properties":{"code":"91","nom":"Essonne","ppsm":3152,"count":40012},"geometry":{"type":"Point","coordinates":[2.243,48.5224]}},{"type":"Feature","properties":{"code":"95","nom":"Val-d'Oise","ppsm":3409,"count":35776},"geometry":{"type":"Point","coordinates":[2.1304,49.0826]}},{"type":"Feature","properties":{"code":"41","nom":"Loir-et-Cher","ppsm":1321,"count":13177},"geometry":{"type":"Point","coordinates":[1.4279,47.6168]}},{"type":"Feature","properties":{"code":"53","nom":"Mayenne","ppsm":1400,"count":12808},"geometry":{"type":"Point","coordinates":[-0.6569,48.1476]}},{"type":"Feature","properties":{"code":"54","nom":"Meurthe-et-Moselle","ppsm":1809,"count":28387},"geometry":{"type":"Point","coordinates":[6.1625,48.7884]}},{"type":"Feature","properties":{"code":"79","nom":"Deux-Sèvres","ppsm":1247,"count":16194},"geometry":{"type":"Point","coordinates":[-0.3176,46.5565]}},{"type":"Feature","properties":{"code":"90","nom":"Territoire de Belfort","ppsm":1339,"count":4999},"geometry":{"type":"Point","coordinates":[6.9282,47.6323]}}]}