{"type":"FeatureCollection","features":[{"type":"Feature","properties":{"code":"11","nom":"Île-de-France","ppsm":4642,"count":393209},"geometry":{"type":"Polygon","coordinates":[[[1.9221,48.4576],[1.9064,48.4401],[1.8775,48.4406],[1.8364,48.4665],[1.8015,48.4661],[1.7786,48.5081],[1.7872,48.5537],[1.7092,48.578],[1.7149,48.6144],[1.6662,48.6137],[1.6432,48.6513],[1.6025,48.6638],[1.6118,48.6895],[1.5795,48.7018],[1.6264,48.7481],[1.5849,48.7633],[1.5757,48.7905],[1.5952,48.8397],[1.5462,48.8724],[1.5595,48.8821],[1.5386,48.9218],[1.5129,48.9226],[1.5015,48.9411],[1.4966,48.9693],[1.5155,48.9764],[1.4609,48.9864],[1.4788,48.9989],[1.4473,49.0535],[1.6233,49.0861],[1.6558,49.1302],[1.6757,49.2119],[1.7044,49.2322],[1.7297,49.2292],[1.7337,49.211],[1.7156,49.2031],[1.7552,49.1745],[1.7955,49.1853],[1.8852,49.1626],[1.9734,49.1839],[2.0045,49.1776],[2.0809,49.2098],[2.0969,49.1898],[2.1646,49.1797],[2.1643,49.166],[2.2186,49.1807],[2.2354,49.167],[2.223,49.1519],[2.2863,49.1603],[2.3109,49.1864],[2.3593,49.1473],[2.3709,49.1592],[2.4154,49.1518],[2.4409,49.1458],[2.4354,49.1339],[2.4992,49.1223],[2.4899,49.1064],[2.5311,49.0996],[2.533,49.1192],[2.5562,49.1186],[2.5582,49.0984],[2.5905,49.0797],[2.6333,49.1084],[2.691,49.0666],[2.7205,49.0749],[2.735,49.0605],[2.7871,49.0753],[2.8091,49.0975],[2.8557,49.0703],[2.9705,49.089],[2.988,49.0724],[3.0085,49.0915],[3.0484,49.0863],[3.0719,49.1176],[3.1652,49.0997],[3.1586,49.0805],[3.1902,49.0465],[3.161,49.0242],[3.2518,48.9724],[3.2678,48.9383],[3.3048,48.9488],[3.3303,48.9087],[3.3722,48.9217],[3.3805,48.8748],[3.4522,48.8563],[3.4454,48.8432],[3.4619,48.8378],[3.4852,48.8519],[3.4872,48.8152],[3.4042,48.8093],[3.4413,48.8009],[3.4422,48.7844],[3.4094,48.7838],[3.3987,48.7556],[3.4675,48.7352],[3.4643,48.7074],[3.477,48.6994],[3.4408,48.6631],[3.4604,48.653],[3.4531,48.634],[3.5032,48.6457],[3.5556,48.6203],[3.5039,48.6048],[3.5159,48.5898],[3.4655,48.5705],[3.4796,48.5447],[3.4592,48.5307],[3.4054,48.528],[3.4346,48.4903],[3.3884,48.4804],[3.4065,48.4525],[3.392,48.4243],[3.4221,48.4133],[3.4148,48.3903],[3.3833,48.3997],[3.3672,48.3943],[3.3652,48.3723],[3.2824,48.3775],[3.2544,48.365],[3.1399,48.3726],[3.1034,48.3495],[3.0495,48.3601],[3.0159,48.3079],[3.0476,48.2497],[3.0315,48.2489],[3.0052,48.2077],[2.9347,48.1788],[2.9363,48.1634],[2.868,48.1564],[2.8209,48.1297],[2.8009,48.1333],[2.8099,48.1613],[2.7989,48.1683],[2.7463,48.1638],[2.7552,48.1457],[2.7065,48.1248],[2.5381,48.1407],[2.4511,48.1235],[2.4443,48.1315],[2.4832,48.1645],[2.5168,48.1668],[2.5229,48.2005],[2.5062,48.2385],[2.4238,48.2603],[2.4208,48.2993],[2.4027,48.3207],[2.3698,48.3087],[2.3277,48.3331],[2.2954,48.3082],[2.2669,48.3147],[2.2452,48.2984],[2.2463,48.33],[2.2023,48.3446],[2.1814,48.3137],[2.1544,48.3159],[2.1637,48.2984],[2.1062,48.3076],[2.0815,48.2936],[1.9753,48.2872],[1.9592,48.3087],[1.9823,48.3283],[1.9734,48.353],[1.9868,48.3621],[1.9664,48.3816],[1.9766,48.3994],[1.9306,48.4041],[1.9429,48.4411],[1.9221,48.4576]]]}},{"type":"Feature","properties":{"code":"24","nom":"Centre-Val de Loire","ppsm":1540,"count":102409},"geometry":{"type":"Polygon","coordinates":[[[0.8148,48.6702],[0.8884,48.7189],[0.9212,48.7092],[1.0316,48.7306],[1.0591,48.7568],[1.1127,48.7519],[1.1214,48.7892],[1.2235,48.7581],[1.246,48.7697],[1.2545,48.7586],[1.3329,48.7626],[1.3744,48.7826],[1.3622,48.8342],[1.4654,48.8776],[1.448,48.9246],[1.5015,48.9411],[1.5129,48.9226],[1.5386,48.9218],[1.5595,48.8821],[1.5462,48.8724],[1.5952,48.8397],[1.5757,48.7905],[1.5849,48.7633],[1.6264,48.7481],[1.5795,48.7018],[1.6118,48.6895],[1.6025,48.6638],[1.6432,48.6513],[1.6662,48.6137],[1.7149,48.6144],[1.7092,48.578],[1.7872,48.5537],[1.7786,48.5081],[1.8015,48.4661],[1.8364,48.4665],[1.8775,48.4406],[1.9064,48.4401],[1.9221,48.4576],[1.9429,48.4411],[1.9306,48.4041],[1.9766,48.3994],[1.9664,48.3816],[1.9868,48.3621],[1.9734,48.353],[1.9823,48.3283],[1.9592,48.3087],[1.9753,48.2872],[2.0815,48.2936],[2.1062,48.3076],[2.1637,48.2984],[2.1544,48.3159],[2.1814,48.3137],[2.2023,48.3446],[2.2463,48.33],[2.2452,48.2984],[2.2669,48.3147],[2.2954,48.3082],[2.3277,48.3331],[2.3698,48.3087],[2.4027,48.3207],[2.4208,48.2993],[2.4238,48.2603],[2.5062,48.2385],[2.5229,48.2005],[2.5168,48.1668],[2.4832,48.1645],[2.4443,48.1315],[2.4511,48.1235],[2.5381,48.1407],[2.7065,48.1248],[2.7552,48.1457],[2.7463,48.1638],[2.7989,48.1683],[2.8099,48.1613],[2.8009,48.1333],[2.8209,48.1297],[2.868,48.1564],[2.9533,48.165],[3.0295,48.1332],[3.0159,48.1157],[3.0353,48.116],[3.0505,48.0723],[3.1243,48.0311],[3.1031,48.0241],[3.1246,48.006],[3.1284,47.971],[3.0501,47.9115],[3.0103,47.9047],[3.002,47.8691],[3.0338,47.8439],[3.0125,47.8344],[3.0238,47.7866],[2.8567,47.7609],[2.849,47.7168],[2.8842,47.7142],[2.9542,47.6458],[2.9363,47.6366],[2.938,47.5989],[2.9765,47.5694],[2.8452,47.5449],[2.8885,47.5094],[2.9289,47.4446],[2.9185,47.4055],[2.8735,47.3484],[2.8765,47.3219],[2.9834,47.2598],[2.9817,47.222],[3.0281,47.1291],[3.0187,47.0708],[3.0748,47.0298],[3.0629,46.9811],[3.0793,46.9551],[3.0503,46.9106],[3.0681,46.8777],[3.0594,46.8273],[3.0321,46.7949],[2.9599,46.8039],[2.953,46.791],[2.9081,46.7879],[2.8454,46.7429],[2.8448,46.7268],[2.8011,46.7337],[2.7585,46.7177],[2.7287,46.7483],[2.705,46.7394],[2.6778,46.7046],[2.6234,46.6887],[2.6246,46.6573],[2.605,46.6682],[2.5674,46.6523],[2.5966,46.6372],[2.5691,46.6095],[2.5816,46.5932],[2.6023,46.5952],[2.615,46.5533],[2.5367,46.5197],[2.5201,46.5309],[2.4991,46.5213],[2.4969,46.5337],[2.352,46.5122],[2.3242,46.4904],[2.3243,46.471],[2.3055,46.4754],[2.2858,46.4535],[2.281,46.4204],[2.1976,46.4283],[2.0889,46.4089],[1.9781,46.4398],[1.8384,46.4273],[1.7984,46.4548],[1.7549,46.4522],[1.7505,46.4056],[1.7277,46.389],[1.6836,46.4182],[1.6288,46.3882],[1.6093,46.4231],[1.5462,46.3935],[1.544,46.4169],[1.5223,46.4265],[1.4152,46.3472],[1.356,46.4001],[1.3031,46.371],[1.2164,46.3678],[1.2048,46.3877],[1.1841,46.3773],[1.2127,46.4322],[1.1834,46.4292],[1.186,46.4411],[1.1516,46.4492],[1.1355,46.4709],[1.153,46.473],[1.135,46.4953],[1.1459,46.5064],[1.0876,46.5382],[1.0206,46.5371],[1.0148,46.5678],[0.9159,46.5966],[0.8943,46.6257],[0.9174,46.6504],[0.9022,46.6792],[0.925,46.7],[0.901,46.7361],[0.8163,46.7878],[0.8093,46.8279],[0.7868,46.8405],[0.7965,46.849],[0.7688,46.8507],[0.7043,46.9033],[0.6926,46.9743],[0.5906,47.0067],[0.567,47.0023],[0.6012,46.9731],[0.5983,46.9568],[0.5061,46.9592],[0.4387,46.9296],[0.3665,46.9496],[0.3248,46.9307],[0.3007,46.9738],[0.307,47.0487],[0.2677,47.0439],[0.2617,47.0701],[0.18,47.0592],[0.1742,47.0713],[0.201,47.0913],[0.1815,47.1144],[0.1613,47.1008],[0.1237,47.1283],[0.0764,47.1239],[0.0784,47.1463],[0.0538,47.1637],[0.0666,47.1898],[0.0533,47.1972],[0.0725,47.2205],[0.079,47.2828],[0.148,47.3484],[0.1417,47.362],[0.183,47.3803],[0.1539,47.3987],[0.1814,47.4178],[0.1809,47.4534],[0.2201,47.502],[0.2249,47.5271],[0.1933,47.5391],[0.2345,47.578],[0.23,47.6084],[0.2593,47.6123],[0.379,47.5691],[0.4022,47.579],[0.3648,47.6202],[0.3811,47.6391],[0.4499,47.6193],[0.4761,47.648],[0.6148,47.6828],[0.5805,47.7123],[0.6268,47.7518],[0.6969,47.7642],[0.698,47.7889],[0.7746,47.8397],[0.7592,47.8592],[0.7599,47.8982],[0.79,47.9122],[0.8172,47.8924],[0.8121,47.9289],[0.8458,47.9414],[0.8243,47.9821],[0.8416,48.0297],[0.7975,48.0376],[0.8012,48.0715],[0.843,48.0726],[0.8448,48.0866],[0.8144,48.0988],[0.8412,48.1031],[0.8526,48.1336],[0.9138,48.1351],[0.9116,48.1489],[0.7956,48.188],[0.8305,48.2107],[0.7876,48.2613],[0.7934,48.293],[0.7622,48.3069],[0.7854,48.3404],[0.9149,48.3743],[0.9763,48.4391],[0.9357,48.4756],[0.9563,48.4823],[0.9416,48.4987],[0.9666,48.5227],[0.9226,48.5377],[0.9388,48.5506],[0.9264,48.5594],[0.8677,48.5735],[0.8466,48.6048],[0.8196,48.6099],[0.8314,48.6338],[0.8148,48.6702]]]}},{"type":"Feature","properties":{"code":"27","nom":"Bourgogne-Franche-Comté","ppsm":1470,"count":113460},"geometry":{"type":"Polygon","coordinates":[[[6.9405,47.4334],[6.9384,47.406],[6.9176,47.4055],[6.8854,47.3746],[6.8842,47.3526],[7.0162,47.3718],[7.0497,47.3607],[7.0568,47.3346],[7.0097,47.3244],[7.0161,47.3136],[6.9931,47.2955],[6.9429,47.2878],[6.955,47.2429],[6.8426,47.1721],[6.8583,47.1644],[6.8398,47.1509],[6.7073,47.083],[6.6916,47.0667],[6.7141,47.0491],[6.6997,47.039],[6.6187,46.992],[6.4967,46.9742],[6.4327,46.9286],[6.4646,46.8902],[6.4599,46.8511],[6.431,46.8124],[6.4587,46.7888],[6.4381,46.7618],[6.2705,46.6832],[6.1107,46.5763],[6.1564,46.5455],[6.0739,46.4639],[6.0858,46.441],[5.9868,46.3649],[5.9414,46.3094],[5.9259,46.3138],[5.9089,46.284],[5.8702,46.2653],[5.7252,46.2607],[5.7147,46.3088],[5.6529,46.3232],[5.642,46.342],[5.542,46.2702],[5.4731,46.2651],[5.4568,46.2745],[5.4669,46.3233],[5.4378,46.3151],[5.4279,46.3422],[5.4047,46.3103],[5.4043,46.3328],[5.363,46.3709],[5.377,46.3814],[5.3077,46.4168],[5.3195,46.4308],[5.3106,46.4468],[5.2151,46.4684],[5.2011,46.5082],[5.1668,46.5147],[5.0524,46.4849],[5.011,46.5103],[4.9491,46.5014],[4.94,46.5172],[4.8515,46.3563],[4.8534,46.3299],[4.7802,46.1767],[4.7244,46.1843],[4.7357,46.2119],[4.7206,46.2224],[4.7358,46.2342],[4.6796,46.2587],[4.7077,46.2696],[4.6931,46.3022],[4.6353,46.2993],[4.6186,46.2648],[4.5865,46.2687],[4.5578,46.2946],[4.5464,46.2739],[4.504,46.2671],[4.4885,46.288],[4.4272,46.3027],[4.4058,46.2961],[4.3894,46.2136],[4.3632,46.2005],[4.3648,46.1836],[4.3271,46.1848],[4.2825,46.1569],[4.252,46.1579],[4.2525,46.1879],[4.2247,46.178],[4.2079,46.1948],[4.1855,46.1902],[4.1884,46.1751],[4.1324,46.1778],[4.1041,46.1984],[3.9888,46.1698],[3.9725,46.2027],[3.8901,46.2145],[3.9088,46.2603],[3.8912,46.2852],[3.9428,46.2989],[3.9481,46.3198],[3.9974,46.3233],[3.9847,46.3297],[3.9916,46.3696],[3.9772,46.3992],[3.9881,46.4355],[4.0056,46.4435],[3.998,46.4655],[3.9566,46.4769],[3.9496,46.4925],[3.8649,46.4897],[3.8646,46.5097],[3.834,46.5311],[3.8018,46.5199],[3.7418,46.5395],[3.7324,46.6049],[3.7139,46.614],[3.7227,46.6276],[3.6379,46.7072],[3.6294,46.7495],[3.5911,46.7624],[3.5807,46.7527],[3.598,46.724],[3.5504,46.7159],[3.5544,46.6847],[3.53,46.6888],[3.4865,46.6538],[3.4573,46.6518],[3.4341,46.7119],[3.3878,46.7148],[3.3467,46.6844],[3.2698,46.7167],[3.1973,46.6799],[3.1298,46.7272],[3.0491,46.7581],[3.0321,46.7949],[3.0671,46.8478],[3.0503,46.9106],[3.0793,46.9551],[3.0629,46.9811],[3.0748,47.0298],[3.0187,47.0708],[3.0281,47.1291],[2.9817,47.222],[2.9834,47.2598],[2.8765,47.3219],[2.8735,47.3484],[2.9185,47.4055],[2.9289,47.4446],[2.8885,47.5094],[2.8452,47.5449],[2.9765,47.5694],[2.938,47.5989],[2.9363,47.6366],[2.9542,47.6458],[2.8842,47.7142],[2.8585,47.712],[2.8488,47.7259],[2.8567,47.7609],[3.0238,47.7866],[3.0125,47.8344],[3.0338,47.8439],[3.002,47.8691],[3.0103,47.9047],[3.0501,47.9115],[3.1284,47.971],[3.1246,48.006],[3.1031,48.0241],[3.1243,48.0311],[3.0505,48.0723],[3.0353,48.116],[3.0159,48.1157],[3.0295,48.1332],[2.9363,48.1634],[2.9347,48.1788],[3.0052,48.2077],[3.0315,48.2489],[3.0476,48.2497],[3.0159,48.3079],[3.0495,48.3601],[3.1034,48.3495],[3.1399,48.3726],[3.3652,48.3723],[3.3672,48.3943],[3.3833,48.3997],[3.4148,48.3903],[3.4275,48.36],[3.4526,48.3744],[3.4982,48.3691],[3.5451,48.3345],[3.5441,48.3197],[3.588,48.3008],[3.5778,48.2846],[3.6168,48.2713],[3.6243,48.2545],[3.6001,48.237],[3.6216,48.2257],[3.5752,48.1887],[3.5942,48.1789],[3.6319,48.1894],[3.6679,48.1392],[3.705,48.1443],[3.7223,48.1568],[3.7185,48.1754],[3.7519,48.1613],[3.7397,48.1328],[3.768,48.1338],[3.805,48.1025],[3.7986,48.0864],[3.8264,48.0636],[3.822,48.0439],[3.8706,48.0156],[3.87,48.0026],[3.8398,48.0039],[3.85,47.9838],[3.8783,47.9794],[3.8854,48.0003],[3.9147,47.9757],[3.894,47.9293],[4.0056,47.942],[4.0435,47.9281],[4.0613,47.9456],[4.1118,47.927],[4.1663,47.9598],[4.2019,47.9412],[4.1992,47.9699],[4.2128,47.9717],[4.2285,47.9692],[4.2221,47.9497],[4.2481,47.9293],[4.2934,47.9257],[4.309,47.9612],[4.5533,47.9677],[4.5552,47.9858],[4.5358,48.0012],[4.5827,48.0295],[4.7891,48.0078],[4.8092,47.9901],[4.7865,47.9642],[4.841,47.9608],[4.8661,47.9405],[4.834,47.9068],[4.857,47.8959],[4.8693,47.9174],[4.9019,47.9213],[4.9282,47.8711],[4.9541,47.8668],[4.9683,47.8319],[4.9941,47.8197],[4.9824,47.8004],[4.9183,47.7773],[4.9307,47.7613],[4.959,47.7619],[4.9707,47.7276],[4.9541,47.7015],[4.9923,47.6883],[5.0263,47.7095],[5.0328,47.6923],[5.0606,47.6948],[5.0436,47.6765],[5.1089,47.6497],[5.1793,47.6793],[5.1736,47.6526],[5.2392,47.6161],[5.2586,47.6222],[5.2396,47.5957],[5.2529,47.577],[5.3223,47.6124],[5.3548,47.5914],[5.4056,47.6478],[5.4063,47.6734],[5.4826,47.6846],[5.5298,47.6728],[5.5672,47.7052],[5.5967,47.6717],[5.6901,47.6848],[5.6848,47.7223],[5.7092,47.7448],[5.7051,47.7691],[5.6766,47.7792],[5.6903,47.8186],[5.7461,47.8236],[5.7441,47.8487],[5.7612,47.8593],[5.828,47.8519],[5.8214,47.8682],[5.8484,47.9043],[5.8865,47.9026],[5.8847,47.926],[5.9367,47.9789],[5.9595,47.9658],[5.9297,47.9387],[5.9537,47.937],[5.9708,47.9572],[6.0023,47.9561],[6.0412,48.0044],[6.1317,48.0237],[6.1561,48.0069],[6.1649,47.9761],[6.1509,47.9706],[6.168,47.9524],[6.1974,47.9518],[6.2052,47.932],[6.3662,47.9619],[6.4317,47.9438],[6.4786,47.8855],[6.5422,47.9026],[6.5683,47.9345],[6.6018,47.9444],[6.6455,47.904],[6.7848,47.8496],[6.8235,47.8131],[6.8462,47.8229],[6.8635,47.7852],[7.016,47.7432],[7.0374,47.7216],[7.0265,47.701],[7.0463,47.6715],[7.0392,47.6506],[7.0189,47.6507],[7.006,47.6024],[7.0863,47.5926],[7.1062,47.5514],[7.1328,47.5397],[7.1379,47.5106],[7.0793,47.4889],[7.0244,47.5042],[6.9831,47.4933],[6.999,47.4523],[6.9405,47.4334]]]}},{"type":"Feature","properties":{"code":"28","nom":"Normandie","ppsm":1875,"count":138761},"geometry":{"type":"Polygon","coordinates":[[[-1.1196,49.3556],[-1.0782,49.3885],[-0.9394,49.395],[-0.8512,49.3625],[-0.7588,49.35],[-0.3966,49.333],[-0.2257,49.2818],[-0.0872,49.2979],[0.004,49.3278],[0.1297,49.403],[0.2199,49.4268],[0.3406,49.4343],[0.3393,49.4499],[0.1212,49.4632],[0.0656,49.5126],[0.1896,49.7048],[0.3206,49.7416],[0.5729,49.8497],[0.7697,49.8721],[1.111,49.9391],[1.3797,50.065],[1.4465,50.0693],[1.4592,50.0625],[1.4565,50.0378],[1.594,49.9491],[1.6785,49.9181],[1.7125,49.8864],[1.7374,49.8082],[1.7845,49.7636],[1.7122,49.732],[1.7152,49.7128],[1.6896,49.6948],[1.7045,49.6809],[1.7506,49.6938],[1.7522,49.681],[1.7035,49.6452],[1.7216,49.622],[1.6952,49.5997],[1.7216,49.5888],[1.7272,49.5416],[1.7446,49.5396],[1.7255,49.4998],[1.7719,49.5128],[1.7902,49.5035],[1.7139,49.4092],[1.7401,49.4053],[1.7203,49.3948],[1.7594,49.3681],[1.7676,49.3159],[1.8027,49.2719],[1.7895,49.2479],[1.7547,49.27],[1.7105,49.2645],[1.6233,49.0861],[1.4473,49.0535],[1.4788,48.9989],[1.4609,48.9864],[1.4706,48.9753],[1.5155,48.9764],[1.4966,48.9693],[1.5015,48.9411],[1.448,48.9246],[1.4654,48.8776],[1.3622,48.8342],[1.3744,48.7826],[1.3329,48.7626],[1.2545,48.7586],[1.246,48.7697],[1.2235,48.7581],[1.1214,48.7892],[1.1127,48.7519],[1.0591,48.7568],[1.0316,48.7306],[0.9212,48.7092],[0.8884,48.7189],[0.8148,48.6702],[0.8314,48.6338],[0.8196,48.6099],[0.8466,48.6048],[0.8677,48.5735],[0.9264,48.5594],[0.9388,48.5506],[0.9226,48.5377],[0.9666,48.5227],[0.9416,48.4987],[0.9563,48.4823],[0.9357,48.4756],[0.9763,48.4391],[0.8834,48.3567],[0.7854,48.3404],[0.7602,48.2982],[0.7934,48.293],[0.7876,48.2613],[0.8305,48.2107],[0.7641,48.1816],[0.7236,48.1981],[0.6532,48.2637],[0.6332,48.2456],[0.536,48.2498],[0.4876,48.3078],[0.4805,48.2986],[0.3954,48.3205],[0.3739,48.387],[0.3807,48.4254],[0.3273,48.4711],[0.2629,48.483],[0.1813,48.465],[0.1513,48.4372],[0.1162,48.4356],[0.0992,48.4103],[0.0678,48.4061],[0.0625,48.3822],[0.021,48.3802],[-0.0026,48.3973],[-0.0507,48.3752],[-0.0519,48.4533],[-0.1487,48.4581],[-0.1721,48.5021],[-0.1446,48.5278],[-0.2426,48.568],[-0.2618,48.5479],[-0.2418,48.5364],[-0.2716,48.5074],[-0.3202,48.5229],[-0.3535,48.4839],[-0.3992,48.5102],[-0.4623,48.5127],[-0.654,48.4443],[-0.6637,48.4845],[-0.688,48.4694],[-0.7303,48.4727],[-0.7359,48.4611],[-0.7151,48.449],[-0.7573,48.4366],[-0.7745,48.4433],[-0.7779,48.4654],[-0.8132,48.4551],[-0.8461,48.4983],[-0.8962,48.4951],[-0.9564,48.5166],[-0.9723,48.4946],[-1.004,48.4892],[-1.0605,48.5153],[-1.1471,48.5175],[-1.2066,48.5422],[-1.2543,48.5433],[-1.2792,48.5092],[-1.3263,48.4987],[-1.3772,48.4583],[-1.4899,48.4894],[-1.5333,48.548],[-1.5189,48.5666],[-1.5711,48.6264],[-1.4772,48.6187],[-1.4046,48.6434],[-1.3574,48.6355],[-1.4009,48.6589],[-1.3885,48.6806],[-1.4453,48.655],[-1.5744,48.7519],[-1.5744,48.8217],[-1.6013,48.8365],[-1.5764,48.8662],[-1.5643,48.9216],[-1.5541,48.9001],[-1.5434,48.931],[-1.5621,48.941],[-1.5561,49.0247],[-1.5094,49.0269],[-1.5592,49.0383],[-1.5746,49.0029],[-1.5938,49.0225],[-1.6104,49.0929],[-1.5947,49.1319],[-1.5811,49.1317],[-1.5958,49.1428],[-1.6107,49.2145],[-1.5718,49.224],[-1.617,49.2316],[-1.6317,49.2142],[-1.6782,49.2801],[-1.6652,49.2868],[-1.6831,49.2876],[-1.7112,49.3251],[-1.6968,49.3317],[-1.7248,49.3275],[-1.7788,49.3717],[-1.807,49.3719],[-1.8464,49.4986],[-1.8865,49.5276],[-1.841,49.5717],[-1.8451,49.6191],[-1.8735,49.6576],[-1.9462,49.6743],[-1.9422,49.7256],[-1.8901,49.7072],[-1.8525,49.7169],[-1.8152,49.6889],[-1.6867,49.6731],[-1.6152,49.6435],[-1.4858,49.6693],[-1.4711,49.6967],[-1.3696,49.7069],[-1.2679,49.6953],[-1.2289,49.6079],[-1.2543,49.6127],[-1.2676,49.582],[-1.2962,49.5832],[-1.3064,49.5389],[-1.168,49.408],[-1.1775,49.3649],[-1.1196,49.3556]]]}},{"type":"Feature","properties":{"code":"32","nom":"Hauts-de-France","ppsm":1778,"count":205465},"geometry":{"type":"Polygon","coordinates":[[[4.1409,49.9788],[4.1971,49.9677],[4.1974,49.9547],[4.2331,49.9578],[4.2187,49.9207],[4.2541,49.904],[4.2531,49.8723],[4.2235,49.8338],[4.2148,49.8061],[4.227,49.7932],[4.2096,49.7818],[4.2501,49.7571],[4.2247,49.7272],[4.127,49.6779],[4.1148,49.6353],[4.0433,49.6361],[4.0253,49.6225],[4.0766,49.5711],[4.0488,49.5453],[4.0738,49.5416],[4.0758,49.5183],[4.0407,49.5085],[4.0424,49.4687],[4.0602,49.4472],[4.0377,49.4383],[4.0503,49.4123],[4.0355,49.3599],[3.9613,49.3773],[3.9244,49.4062],[3.8591,49.3814],[3.8522,49.3447],[3.8015,49.3589],[3.647,49.3152],[3.6383,49.3014],[3.6573,49.291],[3.6552,49.2628],[3.6764,49.2384],[3.6516,49.2214],[3.6839,49.1975],[3.6971,49.2055],[3.7044,49.1814],[3.7511,49.1777],[3.7488,49.1571],[3.7016,49.1431],[3.6223,49.1511],[3.6,49.1207],[3.6391,49.0813],[3.5877,49.0594],[3.5867,49.0358],[3.664,49.0373],[3.675,49.0117],[3.6399,49.0041],[3.6207,48.9659],[3.5916,48.9604],[3.6016,48.9441],[3.5744,48.939],[3.5698,48.9147],[3.5286,48.9121],[3.4619,48.8378],[3.4454,48.8432],[3.4522,48.8563],[3.3805,48.8748],[3.3722,48.9217],[3.3303,48.9087],[3.3048,48.9488],[3.2678,48.9383],[3.2518,48.9724],[3.1717,49.0141],[3.161,49.0242],[3.1902,49.0465],[3.1586,49.0805],[3.1652,49.0997],[3.0719,49.1176],[3.0484,49.0863],[3.0085,49.0915],[2.988,49.0724],[2.9705,49.089],[2.8557,49.0703],[2.8091,49.0975],[2.7871,49.0753],[2.735,49.0605],[2.7205,49.0749],[2.691,49.0666],[2.6333,49.1084],[2.5905,49.0797],[2.5582,49.0984],[2.5562,49.1186],[2.533,49.1192],[2.5311,49.0996],[2.4899,49.1064],[2.4992,49.1223],[2.4354,49.1339],[2.4409,49.1458],[2.4154,49.1518],[2.3709,49.1592],[2.3593,49.1473],[2.3109,49.1864],[2.2863,49.1603],[2.223,49.1519],[2.2354,49.167],[2.2186,49.1807],[2.1643,49.166],[2.1646,49.1797],[2.0969,49.1898],[2.0809,49.2098],[2.0045,49.1776],[1.9734,49.1839],[1.8852,49.1626],[1.7955,49.1853],[1.7421,49.1802],[1.7156,49.2031],[1.7337,49.211],[1.7297,49.2292],[1.699,49.2349],[1.7014,49.2525],[1.7547,49.27],[1.7895,49.2479],[1.8027,49.2719],[1.7676,49.3159],[1.7594,49.3681],[1.7203,49.3948],[1.7401,49.4053],[1.7139,49.4092],[1.7902,49.5035],[1.7719,49.5128],[1.7437,49.4953],[1.7192,49.5082],[1.7446,49.5396],[1.7272,49.5416],[1.7216,49.5888],[1.6952,49.5997],[1.7216,49.622],[1.7035,49.6452],[1.7522,49.681],[1.7506,49.6938],[1.7045,49.6809],[1.6896,49.6948],[1.7152,49.7128],[1.7122,49.732],[1.7845,49.7636],[1.7374,49.8082],[1.7125,49.8864],[1.6785,49.9181],[1.594,49.9491],[1.4565,50.0378],[1.4592,50.0625],[1.4465,50.0693],[1.3797,50.065],[1.4539,50.1103],[1.5124,50.2017],[1.5484,50.2152],[1.5962,50.1855],[1.6838,50.183],[1.6627,50.2136],[1.6225,50.2152],[1.5903,50.2559],[1.5493,50.2604],[1.5379,50.2827],[1.5558,50.3613],[1.6243,50.3663],[1.6415,50.3521],[1.5578,50.4047],[1.5854,50.5374],[1.6268,50.5214],[1.5766,50.5722],[1.5784,50.6403],[1.5607,50.6997],[1.5736,50.7162],[1.5627,50.725],[1.5905,50.7298],[1.6106,50.8038],[1.5806,50.8673],[1.6358,50.877],[1.7807,50.9549],[2.1097,51.0038],[2.1415,51.0221],[2.1794,51.0151],[2.1918,51.0347],[2.3478,51.0598],[2.3996,51.051],[2.543,51.0885],[2.574,51.0035],[2.6013,50.9913],[2.6327,50.946],[2.5902,50.9193],[2.6075,50.9124],[2.5996,50.8533],[2.635,50.8128],[2.669,50.8225],[2.7256,50.8086],[2.7957,50.7246],[2.8484,50.7229],[2.9109,50.6945],[2.9381,50.7443],[2.9582,50.7534],[3.0614,50.7805],[3.0887,50.7734],[3.1148,50.7942],[3.1508,50.7901],[3.1991,50.7347],[3.1912,50.7244],[3.2584,50.7006],[3.2624,50.6785],[3.2411,50.6578],[3.2775,50.593],[3.2865,50.5276],[3.3739,50.4918],[3.4501,50.5074],[3.474,50.5336],[3.5194,50.5229],[3.5008,50.4873],[3.5678,50.5006],[3.613,50.4925],[3.6642,50.4532],[3.6737,50.4042],[3.6583,50.3713],[3.7104,50.3032],[3.7317,50.3119],[3.7474,50.3509],[3.8528,50.3516],[3.9004,50.3276],[4.0274,50.3575],[4.0789,50.3098],[4.12,50.3001],[4.1363,50.2568],[4.1676,50.2597],[4.1512,50.2781],[4.1627,50.2889],[4.2032,50.2745],[4.2207,50.2522],[4.1508,50.2131],[4.1551,50.1668],[4.1269,50.135],[4.1999,50.1311],[4.1975,50.1092],[4.228,50.0664],[4.1622,50.049],[4.1364,50.0205],[4.1617,50.0009],[4.1409,49.9788]]]}},{"type":"Feature","properties":{"code":"44","nom":"Grand Est","ppsm":1487,"count":95560},"geometry":{"type":"Polygon","coordinates":[[[3.4148,48.3903],[3.4221,48.4133],[3.392,48.4243],[3.4065,48.4525],[3.3884,48.4804],[3.4346,48.4903],[3.4054,48.528],[3.4592,48.5307],[3.4796,48.5447],[3.4655,48.5705],[3.5159,48.5898],[3.5039,48.6048],[3.5556,48.6203],[3.5032,48.6457],[3.4531,48.634],[3.4604,48.653],[3.4408,48.6631],[3.477,48.6994],[3.4643,48.7074],[3.4675,48.7352],[3.3987,48.7556],[3.4094,48.7838],[3.4422,48.7844],[3.4413,48.8009],[3.4042,48.8093],[3.4872,48.8152],[3.4824,48.8649],[3.5286,48.9121],[3.5698,48.9147],[3.5744,48.939],[3.6016,48.9441],[3.5916,48.9604],[3.6207,48.9659],[3.6399,49.0041],[3.675,49.0117],[3.664,49.0373],[3.5867,49.0358],[3.5877,49.0594],[3.6391,49.0813],[3.6,49.1207],[3.6223,49.1511],[3.7016,49.1431],[3.7488,49.1571],[3.7511,49.1777],[3.7044,49.1814],[3.6971,49.2055],[3.6839,49.1975],[3.6516,49.2214],[3.6764,49.2384],[3.6552,49.2628],[3.6573,49.291],[3.6383,49.3014],[3.647,49.3152],[3.8015,49.3589],[3.8522,49.3447],[3.8591,49.3814],[3.9244,49.4062],[3.9613,49.3773],[4.0355,49.3599],[4.0503,49.4123],[4.0377,49.4383],[4.0602,49.4472],[4.0424,49.4687],[4.0407,49.5085],[4.0758,49.5183],[4.0738,49.5416],[4.0488,49.5453],[4.0766,49.5711],[4.0253,49.6225],[4.0433,49.6361],[4.1148,49.6353],[4.127,49.6779],[4.2247,49.7272],[4.2501,49.7571],[4.2096,49.7818],[4.227,49.7932],[4.2148,49.8061],[4.2235,49.8338],[4.2531,49.8723],[4.2541,49.904],[4.2187,49.9207],[4.2331,49.9578],[4.3337,49.9636],[4.4469,49.9375],[4.5104,49.9467],[4.5931,49.9855],[4.6889,49.9955],[4.693,50.0848],[4.8226,50.1683],[4.832,50.154],[4.895,50.1404],[4.8706,50.1246],[4.8685,50.0976],[4.8436,50.0934],[4.8379,50.0671],[4.8193,50.0659],[4.8404,50.0376],[4.7901,49.97],[4.7909,49.9584],[4.8502,49.9465],[4.8877,49.9063],[4.8517,49.8562],[4.8739,49.8208],[4.8554,49.7924],[4.9988,49.7993],[5.0089,49.7819],[5.0935,49.7637],[5.1231,49.7173],[5.1616,49.7148],[5.1662,49.6929],[5.2692,49.6961],[5.3328,49.6528],[5.3047,49.6294],[5.3117,49.6135],[5.3503,49.6309],[5.4269,49.5973],[5.4536,49.5649],[5.4416,49.5522],[5.4651,49.5389],[5.4476,49.5174],[5.4709,49.4972],[5.5561,49.5293],[5.6115,49.5065],[5.6368,49.545],[5.7389,49.5393],[5.7752,49.5626],[5.8192,49.5374],[5.837,49.5425],[5.8459,49.53],[5.8344,49.5263],[5.8625,49.5016],[5.9718,49.4913],[5.9787,49.4612],[6.0279,49.4484],[6.0556,49.4654],[6.1008,49.4529],[6.1021,49.4702],[6.1569,49.5044],[6.2564,49.51],[6.2966,49.4801],[6.3644,49.4595],[6.4301,49.4764],[6.5522,49.4233],[6.5405,49.4011],[6.6019,49.3668],[6.5658,49.3474],[6.6692,49.2806],[6.6603,49.261],[6.6905,49.2476],[6.6948,49.2159],[6.7197,49.2214],[6.7315,49.2061],[6.7114,49.1885],[6.7385,49.1637],[6.7846,49.1681],[6.8345,49.1515],[6.8609,49.1787],[6.8354,49.2113],[6.9354,49.2222],[6.9593,49.203],[7.0343,49.1897],[7.0276,49.1701],[7.0498,49.1145],[7.0889,49.1302],[7.0803,49.1488],[7.0978,49.155],[7.1133,49.1517],[7.1049,49.1387],[7.1567,49.1213],[7.1839,49.1307],[7.2012,49.1167],[7.2478,49.128],[7.2986,49.1175],[7.3298,49.1449],[7.3628,49.1452],[7.3651,49.1718],[7.4451,49.1843],[7.4407,49.1705],[7.4912,49.1698],[7.5062,49.154],[7.4922,49.1419],[7.539,49.0921],[7.6,49.0833],[7.6353,49.0542],[7.7565,49.0456],[7.8004,49.0641],[7.8688,49.0342],[7.9346,49.0578],[7.9749,49.0277],[8.0481,49.0142],[8.0914,48.9893],[8.2304,48.9656],[8.1958,48.9562],[8.1479,48.9038],[8.0963,48.8104],[8.0291,48.7865],[8.0147,48.7612],[7.9718,48.7576],[7.9631,48.7214],[7.8398,48.6414],[7.8042,48.5923],[7.8052,48.5136],[7.7682,48.4897],[7.7318,48.3929],[7.7399,48.3217],[7.696,48.304],[7.6678,48.2239],[7.5773,48.1204],[7.5685,48.0354],[7.6221,47.9723],[7.5567,47.8799],[7.5615,47.8387],[7.5313,47.7868],[7.5481,47.7396],[7.5126,47.6948],[7.5223,47.6623],[7.5928,47.6018],[7.5847,47.5773],[7.5034,47.542],[7.5014,47.5287],[7.5314,47.5283],[7.4869,47.4817],[7.4346,47.4979],[7.4227,47.4844],[7.4556,47.473],[7.3809,47.4319],[7.3017,47.4378],[7.2463,47.4222],[7.2358,47.4369],[7.1812,47.4415],[7.1967,47.4935],[7.1303,47.503],[7.1328,47.5397],[7.1062,47.5514],[7.0772,47.5981],[7.006,47.6024],[7.0189,47.6507],[7.0392,47.6506],[7.048,47.6823],[7.0265,47.701],[7.0374,47.7216],[7.016,47.7432],[6.8635,47.7852],[6.8462,47.8229],[6.8235,47.8131],[6.7848,47.8496],[6.6455,47.904],[6.6018,47.9444],[6.5683,47.9345],[6.5422,47.9026],[6.4786,47.8855],[6.4317,47.9438],[6.3662,47.9619],[6.2052,47.932],[6.1974,47.9518],[6.168,47.9524],[6.1509,47.9706],[6.1649,47.9761],[6.1561,48.0069],[6.1317,48.0237],[6.0412,48.0044],[6.0023,47.9561],[5.9708,47.9572],[5.9537,47.937],[5.9297,47.9387],[5.9595,47.9658],[5.9367,47.9789],[5.8847,47.926],[5.8865,47.9026],[5.8484,47.9043],[5.8214,47.8682],[5.828,47.8519],[5.7612,47.8593],[5.7441,47.8487],[5.7461,47.8236],[5.6903,47.8186],[5.6766,47.7792],[5.7051,47.7691],[5.7092,47.7448],[5.6848,47.7223],[5.6901,47.6848],[5.5967,47.6717],[5.5672,47.7052],[5.5298,47.6728],[5.4826,47.6846],[5.4063,47.6734],[5.4056,47.6478],[5.3548,47.5914],[5.3223,47.6124],[5.2529,47.577],[5.2396,47.5957],[5.2586,47.6222],[5.2392,47.6161],[5.1736,47.6526],[5.1793,47.6793],[5.1089,47.6497],[5.0436,47.6765],[5.0606,47.6948],[5.0328,47.6923],[5.0263,47.7095],[4.9923,47.6883],[4.9541,47.7015],[4.9707,47.7276],[4.959,47.7619],[4.9307,47.7613],[4.9183,47.7773],[4.9824,47.8004],[4.9941,47.8197],[4.9683,47.8319],[4.9541,47.8668],[4.9282,47.8711],[4.9019,47.9213],[4.8693,47.9174],[4.857,47.8959],[4.834,47.9068],[4.8661,47.9405],[4.841,47.9608],[4.7865,47.9642],[4.8092,47.9901],[4.7891,48.0078],[4.5827,48.0295],[4.5358,48.0012],[4.5552,47.9858],[4.5533,47.9677],[4.309,47.9612],[4.2934,47.9257],[4.2481,47.9293],[4.2221,47.9497],[4.2285,47.9692],[4.2128,47.9717],[4.1992,47.9699],[4.2019,47.9412],[4.1663,47.9598],[4.1118,47.927],[4.0613,47.9456],[4.0435,47.9281],[4.0056,47.942],[3.894,47.9293],[3.9147,47.9757],[3.8854,48.0003],[3.8783,47.9794],[3.85,47.9838],[3.8398,48.0039],[3.87,48.0026],[3.8706,48.0156],[3.822,48.0439],[3.8264,48.0636],[3.7986,48.0864],[3.805,48.1025],[3.768,48.1338],[3.7397,48.1328],[3.7519,48.1613],[3.7185,48.1754],[3.7223,48.1568],[3.705,48.1443],[3.6679,48.1392],[3.6319,48.1894],[3.5942,48.1789],[3.5752,48.1887],[3.6216,48.2257],[3.6001,48.237],[3.6243,48.2545],[3.6168,48.2713],[3.5778,48.2846],[3.588,48.3008],[3.5441,48.3197],[3.5451,48.3345],[3.4982,48.3691],[3.4526,48.3744],[3.4275,48.36],[3.4148,48.3903]]]}},{"type":"Feature","properties":{"code":"52","nom":"Pays de la Loire","ppsm":2264,"count":158054},"geometry":{"type":"MultiPolygon","coordinates":[[[[-2.3048,46.7094],[-2.2861,46.6957],[-2.3339,46.6863],[-2.3988,46.724],[-2.3715,46.7324],[-2.3048,46.7094]]],[[[-0.892,46.9758],[-0.8771,46.9685],[-0.8838,46.9504],[-0.8074,46.9198],[-0.8322,46.8845],[-0.7816,46.8428],[-0.7088,46.8211],[-0.7009,46.8086],[-0.7273,46.7676],[-0.6562,46.7008],[-0.6807,46.6868],[-0.6377,46.6635],[-0.6572,46.6346],[-0.6141,46.6204],[-0.6246,46.5774],[-0.6021,46.5333],[-0.6452,46.5086],[-0.6248,46.4964],[-0.6124,46.4587],[-0.6368,46.4323],[-0.6366,46.3956],[-0.6209,46.3905],[-0.6102,46.4137],[-0.5378,46.3865],[-0.5757,46.3565],[-0.6033,46.3615],[-0.6483,46.3171],[-0.6973,46.3251],[-0.7219,46.3024],[-0.8305,46.3415],[-0.8509,46.3172],[-0.8877,46.3263],[-0.9349,46.3129],[-0.9612,46.3234],[-0.9286,46.3711],[-0.9645,46.3654],[-0.9774,46.3511],[-1.0525,46.3425],[-1.0783,46.3169],[-1.2011,46.3163],[-1.2074,46.2666],[-1.2959,46.3239],[-1.2986,46.298],[-1.3667,46.3486],[-1.4659,46.3424],[-1.5151,46.4043],[-1.6271,46.4142],[-1.7771,46.4928],[-1.8123,46.4934],[-1.856,46.6086],[-1.9429,46.6927],[-1.9661,46.692],[-2.0003,46.7339],[-2.1445,46.8264],[-2.1538,46.8901],[-2.1189,46.8937],[-2.0448,46.9691],[-2.0274,47.0099],[-1.9804,47.0289],[-2.0535,47.0941],[-2.2478,47.134],[-2.1671,47.1662],[-2.17,47.2685],[-2.1874,47.2806],[-2.3016,47.2364],[-2.3698,47.2774],[-2.4475,47.2618],[-2.5443,47.2901],[-2.5138,47.2984],[-2.5029,47.3288],[-2.5212,47.3588],[-2.5589,47.3746],[-2.4727,47.4161],[-2.4347,47.4132],[-2.4585,47.4481],[-2.423,47.4771],[-2.3999,47.456],[-2.3129,47.4645],[-2.2965,47.5161],[-2.263,47.5129],[-2.2443,47.4936],[-2.1846,47.5119],[-2.1922,47.4966],[-2.1637,47.4905],[-2.156,47.522],[-2.0986,47.534],[-2.0899,47.6427],[-1.9744,47.6939],[-1.9538,47.6723],[-1.864,47.707],[-1.7134,47.6993],[-1.6548,47.7126],[-1.5934,47.776],[-1.4684,47.8059],[-1.4818,47.8319],[-1.3904,47.8283],[-1.3529,47.7977],[-1.2459,47.7767],[-1.2327,47.8202],[-1.2206,47.8204],[-1.2227,47.8526],[-1.1892,47.868],[-1.1966,47.8893],[-1.1762,47.8974],[-1.154,47.9658],[-1.1228,47.9867],[-1.071,47.9818],[-1.0169,48.0037],[-1.0331,48.0312],[-1.0233,48.0689],[-1.0496,48.0898],[-1.1001,48.2593],[-1.0821,48.2984],[-1.045,48.3277],[-1.0646,48.3683],[-1.0539,48.384],[-1.0828,48.4331],[-1.0654,48.4517],[-1.0783,48.4812],[-1.0605,48.5153],[-1.004,48.4892],[-0.9723,48.4946],[-0.9564,48.5166],[-0.8962,48.4951],[-0.8461,48.4983],[-0.8132,48.4551],[-0.7779,48.4654],[-0.7745,48.4433],[-0.7573,48.4366],[-0.7151,48.449],[-0.7359,48.4611],[-0.7303,48.4727],[-0.688,48.4694],[-0.6637,48.4845],[-0.654,48.4443],[-0.4623,48.5127],[-0.3992,48.5102],[-0.3535,48.4839],[-0.3202,48.5229],[-0.2716,48.5074],[-0.2418,48.5364],[-0.2618,48.5479],[-0.2426,48.568],[-0.1446,48.5278],[-0.1721,48.5021],[-0.1487,48.4581],[-0.0519,48.4533],[-0.0507,48.3752],[-0.0026,48.3973],[0.021,48.3802],[0.0625,48.3822],[0.0678,48.4061],[0.0992,48.4103],[0.1162,48.4356],[0.1513,48.4372],[0.1697,48.4618],[0.2959,48.4802],[0.364,48.4516],[0.3807,48.4254],[0.3826,48.3338],[0.4062,48.3146],[0.4876,48.3078],[0.536,48.2498],[0.6332,48.2456],[0.6532,48.2637],[0.7378,48.1891],[0.7977,48.1945],[0.8368,48.1674],[0.9116,48.1489],[0.9138,48.1351],[0.8526,48.1336],[0.8412,48.1031],[0.8144,48.0988],[0.8448,48.0866],[0.843,48.0726],[0.8012,48.0715],[0.7975,48.0376],[0.8416,48.0297],[0.8243,47.9821],[0.8458,47.9414],[0.8121,47.9289],[0.8172,47.8924],[0.79,47.9122],[0.7599,47.8982],[0.7684,47.8311],[0.698,47.7889],[0.6969,47.7642],[0.6268,47.7518],[0.5805,47.7123],[0.6148,47.6828],[0.4761,47.648],[0.4499,47.6193],[0.3811,47.6391],[0.3648,47.6202],[0.4022,47.579],[0.379,47.5691],[0.2593,47.6123],[0.23,47.6084],[0.2345,47.578],[0.1933,47.5391],[0.2249,47.5271],[0.2201,47.502],[0.1809,47.4534],[0.1814,47.4178],[0.1539,47.3987],[0.183,47.3803],[0.1417,47.362],[0.148,47.3484],[0.079,47.2828],[0.0725,47.2205],[0.0533,47.1972],[0.0631,47.1753],[0.0365,47.1604],[0.019,47.1758],[-0.0107,47.1575],[-0.0409,47.1129],[-0.0265,47.1058],[-0.0356,47.0863],[-0.0859,47.101],[-0.1021,47.0648],[-0.1284,47.0544],[-0.1785,47.0698],[-0.1413,47.1037],[-0.1848,47.1083],[-0.2061,47.0933],[-0.2415,47.1057],[-0.3963,47.0878],[-0.4093,47.0663],[-0.4643,47.0676],[-0.4763,47.0544],[-0.4855,47.0652],[-0.4627,47.0819],[-0.4953,47.0824],[-0.5595,47.0619],[-0.5422,47.0351],[-0.5955,46.998],[-0.6761,47.0001],[-0.6802,46.9877],[-0.7131,46.9861],[-0.7876,47.0051],[-0.8576,46.9694],[-0.892,46.9758]]],[[[-2.1981,46.9512],[-2.2232,46.9653],[-2.2644,46.9609],[-2.3011,46.989],[-2.2925,47.0126],[-2.3042,47.0251],[-2.2256,47.0169],[-2.2188,46.9917],[-2.2375,46.982],[-2.1572,46.95],[-2.1539,46.8958],[-2.1981,46.9512]]]]}},{"type":"Feature","properties":{"code":"53","nom":"Bretagne","ppsm":2237,"count":143495},"geometry":{"type":"MultiPolygon","coordinates":[[[[-2.1237,48.6044],[-2.1503,48.6271],[-2.1151,48.6406],[-2.0487,48.637],[-2.0551,48.6273],[-2.0303,48.623],[-2.0336,48.6095],[-1.9947,48.5784],[-2.0118,48.5715],[-1.9754,48.5437],[-1.9858,48.5108],[-1.948,48.5388],[-1.9689,48.5391],[-1.9612,48.5503],[-1.9813,48.5862],[-1.9542,48.579],[-2.011,48.6047],[-2.0024,48.6131],[-2.029,48.6469],[-1.9952,48.6601],[-1.985,48.6813],[-1.8561,48.7049],[-1.8371,48.6792],[-1.8717,48.6474],[-1.8221,48.61],[-1.7018,48.6072],[-1.5711,48.6264],[-1.5189,48.5666],[-1.5333,48.548],[-1.4899,48.4894],[-1.4493,48.4861],[-1.4291,48.4626],[-1.3464,48.4717],[-1.3263,48.4987],[-1.2792,48.5092],[-1.2543,48.5433],[-1.0702,48.5085],[-1.0783,48.4812],[-1.0654,48.4517],[-1.0828,48.4331],[-1.0539,48.384],[-1.0646,48.3683],[-1.045,48.3277],[-1.0821,48.2984],[-1.1001,48.2593],[-1.0496,48.0898],[-1.0233,48.0689],[-1.0338,48.0521],[-1.0213,47.9949],[-1.1228,47.9867],[-1.154,47.9658],[-1.1762,47.8974],[-1.1966,47.8893],[-1.1892,47.868],[-1.2227,47.8526],[-1.2206,47.8204],[-1.2327,47.8202],[-1.2459,47.7767],[-1.3529,47.7977],[-1.3904,47.8283],[-1.4818,47.8319],[-1.4684,47.8059],[-1.5934,47.776],[-1.6548,47.7126],[-1.7134,47.6993],[-1.864,47.707],[-1.9538,47.6723],[-1.9744,47.6939],[-2.0133,47.666],[-2.0431,47.6657],[-2.097,47.6314],[-2.085,47.6212],[-2.1037,47.5894],[-2.0986,47.534],[-2.156,47.522],[-2.1637,47.4905],[-2.1922,47.4966],[-2.1846,47.5119],[-2.2443,47.4936],[-2.263,47.5129],[-2.2965,47.5161],[-2.3239,47.4597],[-2.3999,47.456],[-2.423,47.4771],[-2.4804,47.442],[-2.4991,47.4575],[-2.489,47.468],[-2.5014,47.4905],[-2.4674,47.4826],[-2.4412,47.4962],[-2.5177,47.5264],[-2.6219,47.5046],[-2.5599,47.5511],[-2.5869,47.5635],[-2.5951,47.5339],[-2.6294,47.5495],[-2.626,47.5307],[-2.6508,47.538],[-2.6324,47.53],[-2.6363,47.5183],[-2.6643,47.5186],[-2.6813,47.4958],[-2.7155,47.5056],[-2.8202,47.4886],[-2.8495,47.4987],[-2.8716,47.5322],[-2.9128,47.5422],[-2.91,47.5528],[-2.8785,47.5638],[-2.8389,47.5437],[-2.8053,47.5547],[-2.7657,47.5363],[-2.7305,47.5425],[-2.7271,47.5653],[-2.69,47.5896],[-2.6924,47.6267],[-2.7158,47.6322],[-2.6956,47.611],[-2.7134,47.5947],[-2.7786,47.6192],[-2.7507,47.6219],[-2.7577,47.632],[-2.8512,47.619],[-2.8656,47.5973],[-2.8913,47.6003],[-2.8954,47.5815],[-2.9391,47.594],[-2.9472,47.6291],[-2.9766,47.6586],[-2.9552,47.5986],[-2.965,47.5887],[-2.9288,47.5547],[-2.9684,47.5572],[-2.9752,47.5761],[-3.0047,47.5665],[-3.0123,47.5802],[-3.0949,47.5647],[-3.1304,47.596],[-3.133,47.5329],[-3.0945,47.4824],[-3.1311,47.4733],[-3.1573,47.5278],[-3.1346,47.5488],[-3.1398,47.5796],[-3.2098,47.6407],[-3.1905,47.6825],[-3.1623,47.6801],[-3.1645,47.6946],[-3.1281,47.7056],[-3.126,47.7235],[-3.161,47.7354],[-3.1746,47.7231],[-3.1688,47.7041],[-3.201,47.6974],[-3.1904,47.6909],[-3.2189,47.6664],[-3.215,47.6452],[-3.2879,47.701],[-3.3639,47.7091],[-3.2979,47.7685],[-3.3515,47.7443],[-3.3871,47.7019],[-3.4528,47.6953],[-3.53,47.7742],[-3.5174,47.805],[-3.5383,47.836],[-3.523,47.8491],[-3.5397,47.8362],[-3.5212,47.7989],[-3.5386,47.7626],[-3.6808,47.7768],[-3.7218,47.8038],[-3.8457,47.7924],[-3.9025,47.8359],[-3.8953,47.8515],[-3.9115,47.8703],[-3.9523,47.895],[-3.99,47.8827],[-3.9771,47.8538],[-4.0416,47.846],[-4.0973,47.8619],[-4.1443,47.9108],[-4.1098,47.9364],[-4.1016,47.9716],[-4.1108,47.9364],[-4.1486,47.9118],[-4.1128,47.8642],[-4.1636,47.8492],[-4.1751,47.876],[-4.1956,47.8761],[-4.178,47.8345],[-4.1594,47.8318],[-4.1748,47.8077],[-4.2166,47.7931],[-4.374,47.7985],[-4.3793,47.8221],[-4.3498,47.8308],[-4.3477,47.849],[-4.379,47.9141],[-4.4246,47.9638],[-4.5369,48.0125],[-4.5648,47.9998],[-4.633,48.0294],[-4.732,48.0409],[-4.7125,48.0421],[-4.7163,48.0625],[-4.4102,48.106],[-4.2969,48.0922],[-4.2731,48.1542],[-4.2928,48.1574],[-4.3154,48.2016],[-4.489,48.2362],[-4.5541,48.1678],[-4.564,48.2322],[-4.5438,48.2487],[-4.6198,48.2639],[-4.6192,48.2777],[-4.5666,48.2863],[-4.5794,48.318],[-4.5344,48.3419],[-4.5563,48.2998],[-4.5358,48.2839],[-4.5077,48.3107],[-4.5026,48.2809],[-4.4238,48.2917],[-4.3845,48.2752],[-4.2717,48.2959],[-4.2849,48.2759],[-4.2459,48.2508],[-4.1867,48.2465],[-4.2794,48.2778],[-4.1928,48.2976],[-4.3312,48.3146],[-4.278,48.3449],[-4.2977,48.3559],[-4.3022,48.3438],[-4.3665,48.3448],[-4.3753,48.3263],[-4.4475,48.3257],[-4.4418,48.3536],[-4.4075,48.3805],[-4.282,48.4344],[-4.6087,48.3379],[-4.6806,48.3556],[-4.7076,48.3323],[-4.7552,48.3283],[-4.7723,48.3292],[-4.7808,48.3584],[-4.7609,48.3728],[-4.7933,48.4162],[-4.7591,48.4704],[-4.777,48.5031],[-4.7506,48.5434],[-4.6897,48.5716],[-4.6306,48.5777],[-4.592,48.557],[-4.5802,48.5622],[-4.6092,48.5754],[-4.6077,48.5965],[-4.5983,48.608],[-4.5908,48.594],[-4.5455,48.5978],[-4.5687,48.611],[-4.5395,48.6312],[-4.5018,48.6212],[-4.415,48.6379],[-4.4271,48.6523],[-4.3514,48.6761],[-4.2954,48.6604],[-4.3161,48.6402],[-4.2985,48.6326],[-4.2728,48.6496],[-4.1945,48.6522],[-4.2202,48.6561],[-4.1869,48.6865],[-4.0709,48.6847],[-4.0354,48.7139],[-4.0005,48.7116],[-3.9834,48.7263],[-3.9668,48.7196],[-3.9757,48.699],[-3.9495,48.6529],[-3.9212,48.6749],[-3.8911,48.6709],[-3.9062,48.6608],[-3.8977,48.6464],[-3.8567,48.6206],[-3.8455,48.627],[-3.8644,48.6703],[-3.8466,48.6731],[-3.8483,48.6959],[-3.8324,48.7119],[-3.8208,48.7014],[-3.8189,48.7152],[-3.6452,48.6907],[-3.6592,48.6592],[-3.623,48.6857],[-3.5813,48.67],[-3.5674,48.6829],[-3.5821,48.6888],[-3.5848,48.7171],[-3.5494,48.7457],[-3.585,48.7755],[-3.535,48.8027],[-3.5452,48.8115],[-3.5354,48.8242],[-3.4768,48.8366],[-3.4534,48.8157],[-3.4282,48.8165],[-3.4429,48.8032],[-3.4307,48.7972],[-3.3976,48.8007],[-3.3194,48.8383],[-3.2643,48.8342],[-3.2318,48.8674],[-3.211,48.8548],[-3.2082,48.8131],[-3.1679,48.8531],[-3.084,48.8657],[-3.0935,48.8588],[-3.0792,48.83],[-3.1214,48.7653],[-3.0996,48.7683],[-3.0704,48.8209],[-3.0136,48.8221],[-3.0061,48.8003],[-3.0436,48.7834],[-2.9286,48.7544],[-2.9417,48.7192],[-2.8413,48.6634],[-2.8196,48.5935],[-2.718,48.5554],[-2.7146,48.529],[-2.6848,48.498],[-2.6816,48.5311],[-2.6303,48.5261],[-2.5503,48.5987],[-2.4734,48.6225],[-2.468,48.6496],[-2.3963,48.6427],[-2.3268,48.6827],[-2.2873,48.668],[-2.3378,48.6201],[-2.3094,48.615],[-2.2591,48.645],[-2.2458,48.6154],[-2.2018,48.5838],[-2.1821,48.5992],[-2.1867,48.5813],[-2.1643,48.5789],[-2.1658,48.6042],[-2.1237,48.6044]]],[[[-3.0023,48.8363],[-3.0131,48.8564],[-2.9941,48.8643],[-3.0023,48.8363]]],[[[-3.5839,48.7941],[-3.5836,48.8048],[-3.5658,48.8077],[-3.5701,48.7972],[-3.5839,48.7941]]],[[[-5.0725,48.4827],[-5.0403,48.4651],[-5.1059,48.4363],[-5.0925,48.452],[-5.138,48.4484],[-5.0725,48.4827]]],[[[-3.9918,48.7364],[-4.0398,48.7465],[-4.0062,48.7521],[-3.9918,48.7364]]],[[[-2.8828,47.3426],[-2.864,47.3374],[-2.8852,47.3322],[-2.8828,47.3426]]],[[[-3.4218,47.62],[-3.4619,47.6203],[-3.5133,47.6509],[-3.4295,47.6423],[-3.4218,47.62]]],[[[-2.9481,47.3733],[-2.9705,47.3935],[-2.9497,47.3915],[-2.9481,47.3733]]],[[[-3.2354,47.3238],[-3.2636,47.3523],[-3.2447,47.3876],[-3.1559,47.3611],[-3.1396,47.3298],[-3.0634,47.315],[-3.0866,47.2831],[-3.1763,47.3004],[-3.2172,47.2935],[-3.2491,47.3161],[-3.2354,47.3238]]],[[[-2.8596,47.5599],[-2.8616,47.5683],[-2.8539,47.5941],[-2.8448,47.6013],[-2.8379,47.5919],[-2.8502,47.5866],[-2.8543,47.5751],[-2.8534,47.5675],[-2.8596,47.5599]]],[[[-2.8096,47.5783],[-2.8091,47.5923],[-2.7868,47.5954],[-2.8096,47.5783]]]]}},{"type":"Feature","properties":{"code":"75","nom":"Nouvelle-Aquitaine","ppsm":1931,"count":263933},"geometry":{"type":"MultiPolygon","coordinates":[[[[-1.0257,45.5747],[-0.9892,45.5813],[-1.0203,45.6215],[-1.0489,45.6203],[-1.2372,45.7059],[-1.2426,45.7816],[-1.1329,45.8074],[-1.1681,45.8451],[-1.1532,45.8624],[-1.121,45.8565],[-1.0812,45.8988],[-1.0769,45.9367],[-1.0944,45.9488],[-1.0651,45.9559],[-1.099,45.9905],[-1.0631,45.9944],[-1.0527,46.0112],[-1.1007,46.0938],[-1.1432,46.1088],[-1.1253,46.1109],[-1.1264,46.1243],[-1.1729,46.1393],[-1.1607,46.1555],[-1.2069,46.1458],[-1.242,46.1574],[-1.2066,46.1847],[-1.199,46.2132],[-1.1112,46.2613],[-1.1236,46.3218],[-1.0783,46.3169],[-1.0525,46.3425],[-0.9286,46.3711],[-0.9612,46.3234],[-0.8509,46.3172],[-0.8305,46.3415],[-0.7219,46.3024],[-0.6973,46.3251],[-0.6483,46.3171],[-0.6033,46.3615],[-0.5757,46.3565],[-0.5378,46.3865],[-0.6102,46.4137],[-0.6209,46.3905],[-0.6366,46.3956],[-0.6368,46.4323],[-0.6124,46.4587],[-0.6248,46.4964],[-0.6452,46.5086],[-0.6021,46.5333],[-0.6246,46.5774],[-0.6141,46.6204],[-0.6572,46.6346],[-0.6377,46.6635],[-0.6807,46.6868],[-0.6562,46.7008],[-0.7273,46.7676],[-0.7009,46.8086],[-0.7088,46.8211],[-0.7816,46.8428],[-0.8322,46.8845],[-0.8074,46.9198],[-0.8838,46.9504],[-0.8771,46.9685],[-0.892,46.9758],[-0.8576,46.9694],[-0.7876,47.0051],[-0.7131,46.9861],[-0.6802,46.9877],[-0.6761,47.0001],[-0.5955,46.998],[-0.5422,47.0351],[-0.5595,47.0619],[-0.4953,47.0824],[-0.4627,47.0819],[-0.4855,47.0652],[-0.4763,47.0544],[-0.4643,47.0676],[-0.4093,47.0663],[-0.3963,47.0878],[-0.2415,47.1057],[-0.2061,47.0933],[-0.1848,47.1083],[-0.1413,47.1037],[-0.1785,47.0698],[-0.1284,47.0544],[-0.1021,47.0648],[-0.0859,47.101],[-0.0356,47.0863],[-0.034,47.1273],[0.019,47.1758],[0.0784,47.1463],[0.0846,47.1184],[0.1237,47.1283],[0.1613,47.1008],[0.1815,47.1144],[0.201,47.0913],[0.1742,47.0713],[0.18,47.0592],[0.2617,47.0701],[0.2677,47.0439],[0.307,47.0487],[0.3007,46.9738],[0.3248,46.9307],[0.3665,46.9496],[0.4387,46.9296],[0.5061,46.9592],[0.5983,46.9568],[0.6012,46.9731],[0.567,47.0023],[0.5906,47.0067],[0.6926,46.9743],[0.7043,46.9033],[0.7688,46.8507],[0.7965,46.849],[0.7868,46.8405],[0.8093,46.8279],[0.8163,46.7878],[0.901,46.7361],[0.925,46.7],[0.9022,46.6792],[0.9174,46.6504],[0.8943,46.6257],[0.9099,46.6034],[0.942,46.5808],[1.0148,46.5678],[1.0206,46.5371],[1.0876,46.5382],[1.1459,46.5064],[1.135,46.4953],[1.153,46.473],[1.1355,46.4709],[1.1516,46.4492],[1.186,46.4411],[1.1834,46.4292],[1.2127,46.4322],[1.1841,46.3773],[1.2048,46.3877],[1.2164,46.3678],[1.3031,46.371],[1.356,46.4001],[1.4152,46.3472],[1.5223,46.4265],[1.544,46.4169],[1.5462,46.3935],[1.6093,46.4231],[1.6288,46.3882],[1.6836,46.4182],[1.7277,46.389],[1.7574,46.4236],[1.7476,46.45],[1.7984,46.4548],[1.8195,46.43],[1.9781,46.4398],[2.0889,46.4089],[2.1976,46.4283],[2.281,46.4204],[2.285,46.3859],[2.3371,46.3668],[2.3027,46.3544],[2.323,46.3293],[2.3705,46.3126],[2.3919,46.33],[2.4205,46.3101],[2.4213,46.2846],[2.443,46.295],[2.4789,46.2811],[2.4891,46.249],[2.5163,46.2394],[2.5286,46.1849],[2.5598,46.1734],[2.5519,46.0835],[2.5717,46.0487],[2.6025,46.0335],[2.5944,45.9894],[2.6108,45.9712],[2.5652,45.9566],[2.5415,45.9215],[2.555,45.9125],[2.4922,45.864],[2.4426,45.863],[2.4478,45.8458],[2.388,45.8274],[2.4414,45.7624],[2.4846,45.7485],[2.5269,45.6949],[2.5143,45.6395],[2.4834,45.6393],[2.4646,45.5944],[2.4909,45.5604],[2.5163,45.5534],[2.5204,45.5205],[2.4875,45.4188],[2.522,45.4022],[2.5227,45.3821],[2.4778,45.3704],[2.3551,45.415],[2.3683,45.3886],[2.3513,45.3486],[2.3594,45.3358],[2.3177,45.323],[2.1954,45.2209],[2.2012,45.1815],[2.2336,45.1672],[2.1788,45.1363],[2.1718,45.0815],[2.1457,45.0856],[2.0952,45.056],[2.1406,45.0059],[2.133,44.9855],[1.9854,44.9745],[1.951,44.9532],[1.9391,44.9732],[1.9082,44.9784],[1.8239,44.9277],[1.7849,44.9373],[1.7749,44.9237],[1.7506,44.955],[1.711,44.9673],[1.7027,44.9878],[1.63,45.0336],[1.5763,45.0407],[1.552,45.0285],[1.5357,45.0463],[1.4093,45.006],[1.4424,44.9165],[1.4135,44.9118],[1.4419,44.8776],[1.3614,44.8408],[1.3641,44.8116],[1.2996,44.7969],[1.2962,44.7778],[1.3228,44.7651],[1.316,44.7404],[1.3005,44.7431],[1.2878,44.7148],[1.2704,44.7224],[1.2246,44.6843],[1.1467,44.6703],[1.1538,44.6394],[1.0954,44.5902],[1.1032,44.5717],[1.0751,44.5773],[1.0132,44.5361],[0.9818,44.5439],[1.0162,44.5059],[1.009,44.48],[1.023,44.4754],[1.0247,44.443],[1.0575,44.4277],[1.0514,44.3921],[1.0641,44.3785],[1.0498,44.3626],[0.95,44.3598],[0.9414,44.3453],[0.9199,44.3841],[0.8982,44.3814],[0.8961,44.3462],[0.8696,44.3094],[0.9164,44.3022],[0.9499,44.2764],[0.9278,44.2674],[0.9292,44.2302],[0.9063,44.1903],[0.8563,44.189],[0.8536,44.175],[0.8903,44.1697],[0.8794,44.1296],[0.7886,44.1444],[0.7962,44.1151],[0.7529,44.1023],[0.7419,44.0652],[0.6666,44.0251],[0.598,44.0782],[0.539,44.0537],[0.4595,44.0552],[0.4424,44.0288],[0.3815,44.0064],[0.3165,44.0101],[0.3179,43.995],[0.2051,44.019],[0.1668,43.9968],[0.1591,43.9739],[0.1386,43.9748],[0.141,43.9947],[0.1264,44.0003],[0.076,43.9831],[0.0553,43.958],[0.0766,43.9165],[0.0592,43.8979],[-0.0136,43.9236],[0.0067,43.9537],[-0.0362,43.9837],[-0.0465,43.961],[-0.0983,43.9424],[-0.1023,43.9274],[-0.1259,43.9444],[-0.1656,43.9276],[-0.1791,43.9379],[-0.2276,43.911],[-0.2339,43.8911],[-0.191,43.8752],[-0.2089,43.8577],[-0.1881,43.8326],[-0.1925,43.8102],[-0.2271,43.8083],[-0.2079,43.7606],[-0.2189,43.7509],[-0.1941,43.737],[-0.2467,43.7107],[-0.2391,43.6939],[-0.2559,43.6798],[-0.2397,43.6712],[-0.2432,43.6545],[-0.2638,43.6359],[-0.2821,43.6431],[-0.2796,43.6182],[-0.2472,43.616],[-0.2546,43.5971],[-0.235,43.5834],[-0.1764,43.5964],[-0.1604,43.5806],[-0.0968,43.5824],[-0.095,43.5481],[-0.0644,43.5451],[-0.0401,43.5126],[-0.0493,43.4925],[-0.0178,43.4721],[-0.0658,43.4635],[-0.0538,43.4189],[-0.0665,43.4117],[-0.0428,43.4104],[-0.001,43.4444],[0.0096,43.4221],[-0.0053,43.3738],[0.0263,43.3414],[0.0103,43.3253],[-0.0249,43.3295],[-0.0461,43.3009],[-0.017,43.2704],[-0.0495,43.2172],[-0.0725,43.2244],[-0.0679,43.1771],[-0.1045,43.1667],[-0.1177,43.1803],[-0.1461,43.1282],[-0.191,43.1112],[-0.1896,43.052],[-0.2239,43.0337],[-0.2599,43.0383],[-0.2648,43.01],[-0.2877,43.0054],[-0.2794,42.9421],[-0.3271,42.9158],[-0.3075,42.8678],[-0.3234,42.8355],[-0.3475,42.8359],[-0.3926,42.7996],[-0.4397,42.7965],[-0.5097,42.8254],[-0.5512,42.7775],[-0.5706,42.7829],[-0.5689,42.8068],[-0.6008,42.8063],[-0.6036,42.8326],[-0.676,42.8821],[-0.7298,42.8966],[-0.7251,42.923],[-0.7564,42.9684],[-0.81,42.9514],[-0.9143,42.9636],[-0.9465,42.9541],[-1.0176,42.9944],[-1.0703,42.9977],[-1.1107,43.0205],[-1.1426,43.0102],[-1.1483,43.026],[-1.213,43.0515],[-1.2643,43.0446],[-1.3085,43.0687],[-1.2702,43.1186],[-1.332,43.1079],[-1.3548,43.0285],[-1.4352,43.045],[-1.4709,43.0917],[-1.4139,43.1292],[-1.416,43.1497],[-1.3838,43.1908],[-1.3828,43.2533],[-1.4132,43.2734],[-1.4389,43.2665],[-1.5319,43.2935],[-1.5647,43.2879],[-1.5751,43.2498],[-1.6089,43.2521],[-1.6304,43.2844],[-1.6238,43.3059],[-1.6658,43.3141],[-1.7297,43.2957],[-1.7374,43.3297],[-1.7877,43.3542],[-1.7909,43.3734],[-1.6868,43.3963],[-1.6698,43.388],[-1.6097,43.4267],[-1.4482,43.6423],[-1.3066,44.1716],[-1.2539,44.4676],[-1.2586,44.5471],[-1.2121,44.5995],[-1.2042,44.64],[-1.1812,44.6636],[-1.0808,44.6406],[-1.0054,44.648],[-1.0233,44.675],[-1.0581,44.689],[-1.0364,44.6936],[-1.1605,44.7747],[-1.223,44.7096],[-1.2521,44.6177],[-1.2617,44.6477],[-1.1623,45.2979],[-1.1546,45.4802],[-1.0912,45.5624],[-1.0257,45.5747]],[[-0.1022,43.3585],[-0.0901,43.3589],[-0.0868,43.3369],[-0.1085,43.3378],[-0.1114,43.3158],[-0.075,43.3071],[-0.0654,43.355],[-0.091,43.3732],[-0.1073,43.3707],[-0.1022,43.3585]],[[-0.1031,43.2428],[-0.0793,43.2717],[-0.1119,43.3104],[-0.1406,43.2719],[-0.1222,43.2439],[-0.1031,43.2428]]],[[[-1.4809,46.21],[-1.4582,46.2287],[-1.4129,46.2301],[-1.4439,46.2135],[-1.3639,46.2075],[-1.2568,46.161],[-1.3216,46.145],[-1.4616,46.2021],[-1.5059,46.1941],[-1.5353,46.2044],[-1.5615,46.2454],[-1.5006,46.2582],[-1.4745,46.2333],[-1.5127,46.2223],[-1.4809,46.21]]],[[[-1.2503,45.846],[-1.2662,45.8782],[-1.3839,45.9514],[-1.3891,46.0027],[-1.4134,46.0469],[-1.3713,46.0393],[-1.3128,45.993],[-1.236,45.9815],[-1.2338,45.9271],[-1.1884,45.8826],[-1.2077,45.8503],[-1.1956,45.8297],[-1.2174,45.813],[-1.2364,45.8045],[-1.2503,45.846]]]]}},{"type":"Feature","properties":{"code":"01","nom":"Guadeloupe","ppsm":3036,"count":5458},"geometry":{"type":"MultiPolygon","coordinates":[[[[-61.6336,15.8398],[-61.648,15.8471],[-61.6328,15.868],[-61.617,15.8585],[-61.6336,15.8398]]],[[[-61.5933,15.8525],[-61.605,15.8568],[-61.5838,15.8765],[-61.5684,15.8717],[-61.5933,15.8525]]],[[[-61.1199,16.1672],[-61.1284,16.1735],[-61.1079,16.1727],[-61.1199,16.1672]]],[[[-61.0097,16.3498],[-61.0021,16.334],[-61.0985,16.2943],[-61.0097,16.3498]]],[[[-61.5872,16.3449],[-61.5861,16.3528],[-61.5793,16.3465],[-61.5872,16.3449]]],[[[-61.3231,15.9496],[-61.3184,15.9744],[-61.276,16.0047],[-61.2321,15.9818],[-61.2011,15.9457],[-61.1972,15.916],[-61.2331,15.8803],[-61.2787,15.867],[-61.3295,15.8965],[-61.3372,15.9384],[-61.3231,15.9496]]],[[[-61.7823,16.1877],[-61.806,16.2745],[-61.8005,16.3163],[-61.7734,16.3495],[-61.7441,16.3615],[-61.713,16.3373],[-61.6088,16.3044],[-61.626,16.2825],[-61.6135,16.2676],[-61.5551,16.2847],[-61.5477,16.2233],[-61.5838,16.2334],[-61.59,16.1951],[-61.5611,16.1283],[-61.5704,16.1139],[-61.5555,16.053],[-61.6192,15.9755],[-61.7058,15.9491],[-61.7704,16.062],[-61.7823,16.1877]]],[[[-61.4935,16.3536],[-61.5388,16.4375],[-61.4653,16.5132],[-61.4114,16.4692],[-61.4047,16.3837],[-61.381,16.3458],[-61.2879,16.3218],[-61.2329,16.2669],[-61.1912,16.25],[-61.2543,16.2561],[-61.4507,16.2004],[-61.5046,16.2061],[-61.5295,16.2159],[-61.5514,16.2875],[-61.5289,16.3393],[-61.4935,16.3536]]]]}},{"type":"Feature","properties":{"code":"02","nom":"Martinique","ppsm":2623,"count":5219},"geometry":{"type":"Polygon","coordinates":[[[-61.204,14.8619],[-61.1436,14.8775],[-61.0431,14.8344],[-61.0019,14.8071],[-60.9568,14.7364],[-60.9322,14.7623],[-60.8757,14.7754],[-60.8719,14.7599],[-60.897,14.7587],[-60.893,14.737],[-60.9431,14.7434],[-60.9331,14.7077],[-60.9136,14.7156],[-60.9014,14.6958],[-60.943,14.672],[-60.93,14.6534],[-60.883,14.6655],[-60.906,14.6482],[-60.8978,14.62],[-60.8753,14.6203],[-60.8416,14.5594],[-60.8302,14.5696],[-60.8386,14.55],[-60.8242,14.5295],[-60.8364,14.514],[-60.811,14.4789],[-60.8347,14.4229],[-60.8486,14.4274],[-60.8405,14.4105],[-60.8693,14.3947],[-60.8932,14.4192],[-60.8661,14.4705],[-60.8977,14.4489],[-60.9101,14.4689],[-60.9731,14.4683],[-60.9814,14.4823],[-60.9927,14.4669],[-61.0325,14.4771],[-61.0547,14.4543],[-61.0817,14.4702],[-61.0866,14.5064],[-61.1004,14.5072],[-61.0845,14.535],[-61.0499,14.5599],[-61.0266,14.5354],[-60.9911,14.553],[-61.0243,14.5856],[-61.019,14.6113],[-61.0379,14.5935],[-61.0906,14.6],[-61.1584,14.6612],[-61.1842,14.7059],[-61.1773,14.7462],[-61.2289,14.8118],[-61.204,14.8619]]]}},{"type":"Feature","properties":{"code":"03","nom":"Guyane","ppsm":2580,"count":2484},"geometry":{"type":"MultiPolygon","coordinates":[[[[-53.8704,5.7449],[-53.8779,5.7369],[-53.9006,5.7415],[-53.899,5.7478],[-53.8704,5.7449]]],[[[-54.2629,5.2764],[-54.1841,5.3233],[-54.0188,5.5214],[-54.0037,5.5731],[-54.0119,5.6635],[-53.9683,5.7452],[-53.7992,5.7239],[-53.5926,5.6083],[-53.4692,5.5662],[-53.3089,5.5384],[-53.272,5.5612],[-53.0143,5.4553],[-53.0032,5.4387],[-52.9969,5.4597],[-52.9564,5.4555],[-52.3647,4.9207],[-52.3043,4.9508],[-52.1826,4.8205],[-52.0062,4.7018],[-51.916,4.6688],[-51.8624,4.6708],[-51.8326,4.6508],[-51.7846,4.5745],[-51.7523,4.4182],[-51.7118,4.388],[-51.6922,4.3951],[-51.7181,4.3571],[-51.7111,4.314],[-51.6263,4.1951],[-51.656,4.0539],[-51.7757,3.9764],[-51.7986,3.8869],[-51.8739,3.8031],[-51.9206,3.7801],[-51.9235,3.7226],[-51.9726,3.7054],[-51.9882,3.6277],[-52.0699,3.518],[-52.189,3.302],[-52.2336,3.2407],[-52.2597,3.2531],[-52.2925,3.2264],[-52.2993,3.1782],[-52.3305,3.1678],[-52.3516,3.1234],[-52.3259,3.0778],[-52.3951,2.9278],[-52.3793,2.9129],[-52.4198,2.8931],[-52.5293,2.6542],[-52.5552,2.6403],[-52.5276,2.581],[-52.5612,2.5503],[-52.5517,2.5208],[-52.5937,2.4779],[-52.6168,2.4756],[-52.6112,2.4555],[-52.6463,2.4321],[-52.6605,2.3739],[-52.8566,2.28],[-52.854,2.2636],[-52.8698,2.26],[-52.901,2.1986],[-52.9398,2.1798],[-52.9857,2.1686],[-53.06,2.1966],[-53.0803,2.2225],[-53.1339,2.2253],[-53.2261,2.2025],[-53.2447,2.2111],[-53.263,2.1891],[-53.272,2.2221],[-53.2267,2.2636],[-53.2568,2.2704],[-53.3331,2.3459],[-53.3563,2.3479],[-53.3721,2.313],[-53.4648,2.2522],[-53.5448,2.2531],[-53.6044,2.2807],[-53.657,2.2813],[-53.6537,2.2974],[-53.6691,2.3037],[-53.7396,2.3058],[-53.7477,2.3198],[-53.726,2.3388],[-53.7415,2.3736],[-53.766,2.3755],[-53.8346,2.3323],[-53.8132,2.3114],[-53.8827,2.3088],[-53.8852,2.2751],[-53.9054,2.2607],[-53.9151,2.2781],[-53.9336,2.2694],[-53.9409,2.2198],[-53.9904,2.2091],[-54.0173,2.1821],[-54.0644,2.1964],[-54.1121,2.1176],[-54.1593,2.1235],[-54.1904,2.1711],[-54.2241,2.1498],[-54.3418,2.1518],[-54.3638,2.2103],[-54.3978,2.1969],[-54.421,2.2001],[-54.4207,2.2136],[-54.4781,2.2162],[-54.5037,2.2544],[-54.5355,2.2605],[-54.5193,2.2893],[-54.5337,2.2925],[-54.5327,2.3169],[-54.6015,2.3366],[-54.5904,2.3519],[-54.51,2.3366],[-54.505,2.3911],[-54.4718,2.4355],[-54.4195,2.4368],[-54.3908,2.4684],[-54.3529,2.5186],[-54.3172,2.6268],[-54.2694,2.6851],[-54.2647,2.7231],[-54.2086,2.7766],[-54.2062,2.8286],[-54.1794,2.8585],[-54.1939,2.8872],[-54.1648,2.9735],[-54.1814,2.9837],[-54.1705,3.02],[-54.1907,3.0696],[-54.1743,3.0725],[-54.1737,3.1056],[-54.1862,3.1351],[-54.1985,3.1238],[-54.2138,3.1502],[-54.1363,3.266],[-54.0642,3.3127],[-54.0591,3.3784],[-54.0121,3.427],[-54.0093,3.5378],[-53.9806,3.6083],[-54.0032,3.6451],[-54.051,3.635],[-54.0503,3.6527],[-54.0828,3.6744],[-54.079,3.7065],[-54.1219,3.7927],[-54.1977,3.8055],[-54.1894,3.8418],[-54.2369,3.8605],[-54.2492,3.9088],[-54.29,3.9358],[-54.3181,4.0131],[-54.3576,4.0501],[-54.3254,4.1501],[-54.3872,4.1794],[-54.3957,4.2021],[-54.3859,4.3492],[-54.4115,4.3736],[-54.4407,4.3727],[-54.4324,4.4679],[-54.45,4.5259],[-54.4251,4.5562],[-54.4152,4.6065],[-54.4364,4.6363],[-54.4272,4.7149],[-54.4663,4.7398],[-54.4787,4.9035],[-54.4399,4.9526],[-54.4155,5.0847],[-54.3753,5.1079],[-54.2629,5.2764]]]]}},{"type":"Feature","properties":{"code":"04","nom":"La Réunion","ppsm":2703,"count":15542},"geometry":{"type":"Polygon","coordinates":[[[55.2542,-21.1097],[55.2212,-21.0781],[55.2171,-21.0365],[55.2748,-21.0032],[55.2893,-20.9232],[55.3251,-20.9296],[55.4211,-20.8744],[55.6404,-20.9133],[55.6946,-20.9631],[55.7022,-21.0163],[55.7387,-21.0715],[55.8344,-21.1602],[55.802,-21.2578],[55.8073,-21.3368],[55.7736,-21.3652],[55.609,-21.3869],[55.4595,-21.3411],[55.3907,-21.2922],[55.3408,-21.2808],[55.2941,-21.2304],[55.2867,-21.1606],[55.2542,-21.1097]]]}},{"type":"Feature","properties":{"code":"06","nom":"Mayotte","ppsm":null,"count":0},"geometry":{"type":"MultiPolygon","coordinates":[[[[45.041,-12.6469],[45.0339,-12.6542],[45.0299,-12.6531],[45.0302,-12.651],[45.0278,-12.6486],[45.0205,-12.6456],[45.0204,-12.643],[45.027,-12.6367],[45.0332,-12.64],[45.0357,-12.6429],[45.041,-12.6469]]],[[[45.2713,-12.7933],[45.2543,-12.7828],[45.2706,-12.786],[45.2848,-12.759],[45.2971,-12.7832],[45.2849,-12.8155],[45.2713,-12.7933]]],[[[45.0516,-12.7017],[45.1036,-12.6546],[45.0888,-12.6713],[45.1268,-12.7014],[45.1254,-12.7273],[45.1537,-12.7367],[45.1673,-12.719],[45.2359,-12.7527],[45.236,-12.7814],[45.1857,-12.8418],[45.2218,-12.8734],[45.1943,-12.9049],[45.2041,-12.9198],[45.1877,-12.9164],[45.1702,-12.9429],[45.1764,-12.964],[45.2036,-12.9757],[45.1754,-12.9944],[45.1608,-12.9743],[45.1481,-13.0001],[45.1244,-12.9814],[45.1087,-12.9933],[45.1083,-12.9572],[45.0829,-12.9613],[45.1043,-12.9331],[45.073,-12.8992],[45.0994,-12.8993],[45.1034,-12.9201],[45.129,-12.9349],[45.155,-12.9224],[45.0952,-12.8533],[45.1213,-12.8396],[45.1008,-12.8338],[45.1002,-12.7981],[45.1124,-12.7934],[45.0946,-12.7845],[45.1023,-12.7667],[45.0433,-12.7483],[45.058,-12.7281],[45.0431,-12.7215],[45.0516,-12.7017]]]]}},{"type":"Feature","properties":{"code":"76","nom":"Occitanie","ppsm":2243,"count":277294},"geometry":{"type":"MultiPolygon","coordinates":[[[[1.7861,42.5736],[1.7259,42.5904],[1.735,42.6172],[1.6015,42.628],[1.5493,42.6558],[1.4801,42.6514],[1.4683,42.6308],[1.4773,42.615],[1.4402,42.6035],[1.3896,42.6851],[1.3544,42.6995],[1.3569,42.7193],[1.2302,42.7276],[1.1728,42.7081],[1.0751,42.7853],[0.9831,42.7871],[0.9599,42.8056],[0.9273,42.7893],[0.8583,42.8257],[0.7084,42.8614],[0.659,42.8385],[0.6697,42.8021],[0.6445,42.7831],[0.6642,42.7717],[0.6474,42.7517],[0.679,42.7228],[0.6706,42.6899],[0.5973,42.7058],[0.4293,42.6907],[0.3596,42.7234],[0.2928,42.6749],[0.2599,42.7158],[0.1757,42.7365],[0.1113,42.7102],[0.0165,42.7018],[0.0024,42.6862],[-0.0598,42.6934],[-0.0688,42.7179],[-0.1107,42.725],[-0.1597,42.7974],[-0.1892,42.7878],[-0.3055,42.8412],[-0.3271,42.9158],[-0.2816,42.9336],[-0.2877,43.0054],[-0.2648,43.01],[-0.2599,43.0383],[-0.2239,43.0337],[-0.1896,43.052],[-0.191,43.1112],[-0.1461,43.1282],[-0.1177,43.1803],[-0.1045,43.1667],[-0.0679,43.1771],[-0.0725,43.2244],[-0.0495,43.2172],[-0.017,43.2704],[-0.0461,43.3009],[-0.0249,43.3295],[0.0103,43.3253],[0.0263,43.3414],[-0.0053,43.3738],[0.0096,43.4221],[-0.001,43.4444],[-0.0428,43.4104],[-0.0665,43.4117],[-0.0538,43.4189],[-0.0658,43.4635],[-0.0178,43.4721],[-0.0493,43.4925],[-0.0401,43.5126],[-0.0644,43.5451],[-0.095,43.5481],[-0.0968,43.5824],[-0.1604,43.5806],[-0.1764,43.5964],[-0.235,43.5834],[-0.2546,43.5971],[-0.2472,43.616],[-0.2796,43.6182],[-0.2821,43.6431],[-0.2638,43.6359],[-0.2432,43.6545],[-0.2397,43.6712],[-0.2559,43.6798],[-0.2391,43.6939],[-0.2467,43.7107],[-0.1941,43.737],[-0.2189,43.7509],[-0.2079,43.7606],[-0.2271,43.8083],[-0.1925,43.8102],[-0.1881,43.8326],[-0.2089,43.8577],[-0.191,43.8752],[-0.2339,43.8911],[-0.2276,43.911],[-0.1791,43.9379],[-0.1656,43.9276],[-0.1259,43.9444],[-0.1023,43.9274],[-0.0983,43.9424],[-0.0465,43.961],[-0.0362,43.9837],[0.0067,43.9537],[-0.0136,43.9236],[0.0592,43.8979],[0.0766,43.9165],[0.0553,43.958],[0.076,43.9831],[0.1264,44.0003],[0.141,43.9947],[0.1386,43.9748],[0.1591,43.9739],[0.1668,43.9968],[0.2051,44.019],[0.3179,43.995],[0.3165,44.0101],[0.3815,44.0064],[0.4424,44.0288],[0.4595,44.0552],[0.539,44.0537],[0.598,44.0782],[0.6666,44.0251],[0.7419,44.0652],[0.7529,44.1023],[0.7962,44.1151],[0.7886,44.1444],[0.8794,44.1296],[0.8903,44.1697],[0.8536,44.175],[0.8563,44.189],[0.9063,44.1903],[0.9292,44.2302],[0.9278,44.2674],[0.9499,44.2764],[0.9164,44.3022],[0.8696,44.3094],[0.8961,44.3462],[0.8982,44.3814],[0.9199,44.3841],[0.9414,44.3453],[0.95,44.3598],[1.0498,44.3626],[1.0641,44.3785],[1.0514,44.3921],[1.0575,44.4277],[1.0247,44.443],[1.023,44.4754],[1.009,44.48],[1.0162,44.5059],[0.9818,44.5439],[1.0132,44.5361],[1.0751,44.5773],[1.1032,44.5717],[1.0954,44.5902],[1.1538,44.6394],[1.1467,44.6703],[1.2246,44.6843],[1.2704,44.7224],[1.2878,44.7148],[1.3005,44.7431],[1.316,44.7404],[1.3228,44.7651],[1.2962,44.7778],[1.2996,44.7969],[1.3641,44.8116],[1.3614,44.8408],[1.4419,44.8776],[1.4135,44.9118],[1.4424,44.9165],[1.4093,45.006],[1.5357,45.0463],[1.552,45.0285],[1.5763,45.0407],[1.651,45.025],[1.7749,44.9237],[1.7849,44.9373],[1.8239,44.9277],[1.9082,44.9784],[1.9391,44.9732],[1.951,44.9532],[1.9854,44.9745],[2.0629,44.9765],[2.0786,44.9325],[2.1081,44.9106],[2.0837,44.8874],[2.1658,44.8129],[2.1716,44.79],[2.1494,44.7698],[2.1522,44.7367],[2.1301,44.6985],[2.1553,44.7002],[2.1792,44.6744],[2.1694,44.6381],[2.2075,44.6155],[2.2199,44.6236],[2.2084,44.6438],[2.291,44.6666],[2.3268,44.6697],[2.3485,44.6415],[2.4832,44.6503],[2.4989,44.687],[2.5561,44.7213],[2.5627,44.7758],[2.5994,44.7928],[2.6027,44.8432],[2.7383,44.9412],[2.7761,44.909],[2.7727,44.8555],[2.802,44.8736],[2.8597,44.8745],[2.8897,44.7884],[2.9202,44.7943],[2.9345,44.7792],[2.9172,44.7567],[2.9335,44.7501],[2.9233,44.7286],[2.9393,44.6778],[2.9817,44.6447],[3.016,44.7137],[3.0391,44.715],[3.0284,44.7326],[3.0457,44.7991],[3.0769,44.8244],[3.0715,44.8341],[3.0995,44.8336],[3.1055,44.8868],[3.1411,44.9033],[3.1823,44.8637],[3.2253,44.882],[3.2278,44.9099],[3.2497,44.9162],[3.2452,44.9348],[3.2595,44.9424],[3.286,44.9264],[3.3703,44.97],[3.4128,44.9448],[3.418,44.9008],[3.4788,44.8094],[3.5785,44.8257],[3.5943,44.8754],[3.6423,44.8784],[3.6705,44.8509],[3.6574,44.8361],[3.6664,44.8288],[3.7406,44.8387],[3.8033,44.7704],[3.8416,44.7721],[3.8366,44.7478],[3.8755,44.7406],[3.8615,44.712],[3.8845,44.6973],[3.8733,44.6782],[3.8947,44.6511],[3.9052,44.5927],[3.9285,44.57],[3.9452,44.5738],[3.9837,44.5102],[3.9875,44.4734],[4.0376,44.4457],[4.0355,44.4201],[4.0684,44.4051],[4.0425,44.3946],[4.0555,44.3656],[4.0369,44.3308],[4.0515,44.3173],[4.1267,44.3377],[4.1429,44.3134],[4.1777,44.3179],[4.1867,44.2997],[4.2588,44.2648],[4.2894,44.2932],[4.2884,44.3147],[4.3361,44.3395],[4.3942,44.3453],[4.3934,44.2936],[4.4405,44.2841],[4.4576,44.3416],[4.5035,44.3402],[4.5587,44.3024],[4.6381,44.283],[4.6748,44.2385],[4.6727,44.2168],[4.7018,44.2161],[4.7221,44.1874],[4.707,44.1137],[4.7196,44.0867],[4.7609,44.0863],[4.8211,44.0165],[4.8433,44.0099],[4.8421,43.9865],[4.816,43.9888],[4.8151,43.9676],[4.779,43.9379],[4.6419,43.8675],[4.6663,43.8448],[4.6424,43.8314],[4.6512,43.7823],[4.6136,43.7298],[4.6277,43.6905],[4.5398,43.7073],[4.4872,43.6992],[4.427,43.6207],[4.4752,43.6083],[4.4607,43.5893],[4.4255,43.5852],[4.4044,43.5744],[4.4094,43.5611],[4.3341,43.5355],[4.3095,43.5433],[4.3205,43.5255],[4.2381,43.4976],[4.2303,43.4602],[4.1377,43.4819],[4.1166,43.5087],[4.1391,43.5319],[4.1216,43.5471],[4.0112,43.5524],[3.8864,43.5069],[3.7967,43.441],[3.7249,43.4158],[3.723,43.4011],[3.6461,43.3848],[3.511,43.2733],[3.4303,43.2902],[3.3439,43.2704],[3.1683,43.1573],[3.0838,43.0553],[3.0428,42.9602],[3.0405,42.9297],[3.0606,42.9171],[3.0348,42.6602],[3.0496,42.5501],[3.1336,42.5129],[3.1302,42.4853],[3.153,42.4778],[3.1732,42.4349],[3.0854,42.4255],[3.0408,42.4731],[2.969,42.4658],[2.947,42.4818],[2.9245,42.4584],[2.8414,42.4585],[2.777,42.412],[2.7532,42.4254],[2.675,42.405],[2.6714,42.3875],[2.6556,42.3884],[2.6718,42.3412],[2.5778,42.3579],[2.5258,42.3336],[2.483,42.3396],[2.4288,42.3943],[2.2578,42.4384],[2.2011,42.4163],[2.1563,42.4234],[2.0836,42.3627],[2.0169,42.3487],[1.9717,42.3738],[1.9353,42.4536],[1.8854,42.4493],[1.8346,42.4818],[1.7299,42.4953],[1.7411,42.5571],[1.7861,42.5736]],[[1.9574,42.4616],[2.0127,42.4483],[1.9788,42.4948],[1.9574,42.4616]]],[[[-0.1031,43.2428],[-0.1222,43.2439],[-0.1406,43.2719],[-0.1119,43.3104],[-0.0793,43.2717],[-0.1031,43.2428]]],[[[-0.1022,43.3585],[-0.1073,43.3707],[-0.091,43.3732],[-0.0654,43.355],[-0.075,43.3071],[-0.1114,43.3158],[-0.1085,43.3378],[-0.0868,43.3369],[-0.0901,43.3589],[-0.1022,43.3585]]]]}},{"type":"Feature","properties":{"code":"84","nom":"Auvergne-Rhône-Alpes","ppsm":2556,"count":325066},"geometry":{"type":"Polygon","coordinates":[[[3.3613,44.9714],[3.3545,44.9548],[3.286,44.9264],[3.2595,44.9424],[3.2452,44.9348],[3.2497,44.9162],[3.2278,44.9099],[3.2253,44.882],[3.1823,44.8637],[3.1411,44.9033],[3.1055,44.8868],[3.0995,44.8336],[3.0715,44.8341],[3.0769,44.8244],[3.0457,44.7991],[3.0284,44.7326],[3.0391,44.715],[3.016,44.7137],[2.9817,44.6447],[2.9393,44.6778],[2.9233,44.7286],[2.9335,44.7501],[2.9172,44.7567],[2.9345,44.7792],[2.9202,44.7943],[2.8897,44.7884],[2.8597,44.8745],[2.802,44.8736],[2.7727,44.8555],[2.7761,44.909],[2.7383,44.9412],[2.7064,44.9072],[2.6813,44.9074],[2.6562,44.8724],[2.6239,44.8669],[2.6027,44.8432],[2.5994,44.7928],[2.5627,44.7758],[2.5561,44.7213],[2.4989,44.687],[2.4901,44.6568],[2.468,44.6429],[2.3485,44.6415],[2.3268,44.6697],[2.291,44.6666],[2.2084,44.6438],[2.2199,44.6236],[2.2075,44.6155],[2.1694,44.6381],[2.1792,44.6744],[2.1553,44.7002],[2.1301,44.6985],[2.1522,44.7367],[2.1494,44.7698],[2.1716,44.79],[2.1658,44.8129],[2.0837,44.8874],[2.1081,44.9106],[2.0786,44.9325],[2.0629,44.9765],[2.1382,44.9928],[2.0952,45.056],[2.1457,45.0856],[2.1718,45.0815],[2.1788,45.1363],[2.2336,45.1672],[2.2012,45.1815],[2.1954,45.2209],[2.3177,45.323],[2.3594,45.3358],[2.3513,45.3486],[2.3683,45.3886],[2.3551,45.415],[2.4778,45.3704],[2.5227,45.3821],[2.522,45.4022],[2.4875,45.4188],[2.5204,45.5205],[2.5163,45.5534],[2.4909,45.5604],[2.4646,45.5944],[2.4834,45.6393],[2.5143,45.6395],[2.5269,45.6949],[2.4846,45.7485],[2.4414,45.7624],[2.388,45.8274],[2.4478,45.8458],[2.4426,45.863],[2.4922,45.864],[2.555,45.9125],[2.5415,45.9215],[2.5652,45.9566],[2.6108,45.9712],[2.5944,45.9894],[2.6025,46.0335],[2.5717,46.0487],[2.5519,46.0835],[2.5598,46.1734],[2.5286,46.1849],[2.5163,46.2394],[2.4891,46.249],[2.4789,46.2811],[2.443,46.295],[2.4213,46.2846],[2.4205,46.3101],[2.3919,46.33],[2.3705,46.3126],[2.323,46.3293],[2.3027,46.3544],[2.3371,46.3668],[2.285,46.3859],[2.2858,46.4535],[2.3055,46.4754],[2.3243,46.471],[2.3242,46.4904],[2.3683,46.5184],[2.4969,46.5337],[2.4991,46.5213],[2.5201,46.5309],[2.5367,46.5197],[2.615,46.5533],[2.6023,46.5952],[2.5816,46.5932],[2.5691,46.6095],[2.5966,46.6372],[2.5674,46.6523],[2.605,46.6682],[2.6246,46.6573],[2.6234,46.6887],[2.6778,46.7046],[2.7287,46.7483],[2.7585,46.7177],[2.8011,46.7337],[2.8448,46.7268],[2.8454,46.7429],[2.9081,46.7879],[2.953,46.791],[2.9599,46.8039],[3.0175,46.7999],[3.0611,46.7498],[3.1298,46.7272],[3.1973,46.6799],[3.2698,46.7167],[3.3467,46.6844],[3.3878,46.7148],[3.4341,46.7119],[3.4573,46.6518],[3.4865,46.6538],[3.53,46.6888],[3.5465,46.6783],[3.5504,46.7159],[3.598,46.724],[3.5807,46.7527],[3.6201,46.7541],[3.6379,46.7072],[3.7227,46.6276],[3.7139,46.614],[3.7324,46.6049],[3.7418,46.5395],[3.8018,46.5199],[3.834,46.5311],[3.8646,46.5097],[3.8649,46.4897],[3.9496,46.4925],[3.9566,46.4769],[3.998,46.4655],[4.0056,46.4435],[3.9881,46.4355],[3.9772,46.3992],[3.9916,46.3696],[3.9847,46.3297],[3.9974,46.3233],[3.9481,46.3198],[3.9428,46.2989],[3.8912,46.2852],[3.9088,46.2603],[3.8901,46.2145],[3.9725,46.2027],[3.9888,46.1698],[4.1041,46.1984],[4.1324,46.1778],[4.1884,46.1751],[4.1855,46.1902],[4.2079,46.1948],[4.2247,46.178],[4.2525,46.1879],[4.252,46.1579],[4.2825,46.1569],[4.3271,46.1848],[4.3648,46.1836],[4.3632,46.2005],[4.3894,46.2136],[4.4058,46.2961],[4.4272,46.3027],[4.4885,46.288],[4.504,46.2671],[4.5464,46.2739],[4.5578,46.2946],[4.5865,46.2687],[4.6186,46.2648],[4.6353,46.2993],[4.6931,46.3022],[4.7077,46.2696],[4.6796,46.2587],[4.7358,46.2342],[4.7206,46.2224],[4.7357,46.2119],[4.7244,46.1843],[4.7802,46.1767],[4.8534,46.3299],[4.8515,46.3563],[4.94,46.5172],[4.9491,46.5014],[5.011,46.5103],[5.0524,46.4849],[5.1668,46.5147],[5.2011,46.5082],[5.2151,46.4684],[5.3106,46.4468],[5.3195,46.4308],[5.3077,46.4168],[5.377,46.3814],[5.363,46.3709],[5.4043,46.3328],[5.4047,46.3103],[5.4279,46.3422],[5.4378,46.3151],[5.4669,46.3233],[5.4568,46.2745],[5.4731,46.2651],[5.542,46.2702],[5.642,46.342],[5.6529,46.3232],[5.7147,46.3088],[5.7252,46.2607],[5.8702,46.2653],[5.9089,46.284],[5.9259,46.3138],[5.9414,46.3094],[6.0552,46.4148],[6.1614,46.3756],[6.1697,46.3679],[6.1026,46.2851],[6.1242,46.251],[6.1018,46.2375],[6.0331,46.238],[5.9718,46.2115],[5.9637,46.197],[5.9953,46.183],[5.9561,46.1321],[6.052,46.1514],[6.1449,46.1448],[6.2321,46.2055],[6.2957,46.2261],[6.3085,46.2551],[6.2676,46.2478],[6.2378,46.2773],[6.2799,46.3511],[6.3152,46.3688],[6.3447,46.37],[6.39,46.3402],[6.509,46.404],[6.7229,46.4076],[6.8048,46.3936],[6.7706,46.3549],[6.8645,46.283],[6.8037,46.2043],[6.7985,46.1361],[6.8984,46.1226],[6.8726,46.052],[6.8883,46.0431],[6.9374,46.0646],[7.0183,45.9842],[7.0094,45.9698],[7.0376,45.9543],[7.0439,45.9221],[7.0031,45.8978],[6.9917,45.8682],[6.9396,45.8467],[6.8822,45.8495],[6.8698,45.8256],[6.8181,45.835],[6.804,45.8158],[6.8112,45.7307],[6.8478,45.6894],[6.9025,45.6809],[6.9172,45.6507],[7.0007,45.6399],[6.9778,45.5899],[6.9954,45.5756],[7.0003,45.5044],[7.0521,45.4962],[7.0542,45.4722],[7.0998,45.4694],[7.1135,45.4342],[7.1843,45.4075],[7.1347,45.3312],[7.1107,45.3265],[7.1376,45.2557],[7.0673,45.2101],[7.0428,45.2253],[6.9688,45.2081],[6.9431,45.1709],[6.8916,45.167],[6.8944,45.1374],[6.8499,45.1272],[6.7679,45.1597],[6.7393,45.1368],[6.6801,45.1401],[6.63,45.1093],[6.5765,45.1231],[6.5567,45.1041],[6.5104,45.109],[6.4813,45.0941],[6.4862,45.0561],[6.4535,45.0518],[6.3651,45.0713],[6.3629,45.1045],[6.3345,45.1228],[6.3019,45.109],[6.2606,45.1268],[6.2294,45.1087],[6.2401,45.0677],[6.2201,45.0654],[6.2039,45.0125],[6.2518,44.9967],[6.3182,45.0039],[6.3229,44.953],[6.3588,44.9413],[6.3554,44.8548],[6.3363,44.8484],[6.2882,44.874],[6.2505,44.8527],[6.1362,44.8641],[6.0563,44.8159],[6.0159,44.8355],[5.9495,44.8045],[5.9801,44.7812],[5.9525,44.7621],[5.8795,44.747],[5.8271,44.7597],[5.8015,44.7068],[5.8295,44.6924],[5.7906,44.6533],[5.7539,44.6627],[5.726,44.6394],[5.6417,44.6511],[5.6496,44.6179],[5.5973,44.5433],[5.6645,44.5019],[5.6298,44.5012],[5.6036,44.4655],[5.4569,44.4962],[5.4644,44.4479],[5.4968,44.4385],[5.4765,44.4197],[5.4185,44.4249],[5.443,44.3912],[5.4344,44.3696],[5.463,44.3671],[5.4931,44.3372],[5.5135,44.3475],[5.5491,44.3304],[5.6269,44.3348],[5.6079,44.3067],[5.6378,44.2997],[5.6468,44.2671],[5.6866,44.2669],[5.6726,44.2457],[5.6864,44.1972],[5.6516,44.1896],[5.6437,44.1726],[5.6827,44.1632],[5.6786,44.1461],[5.6311,44.1506],[5.6396,44.1676],[5.6021,44.1915],[5.5762,44.188],[5.5644,44.1709],[5.583,44.1576],[5.5048,44.1163],[5.4547,44.1192],[5.4358,44.1522],[5.3832,44.1553],[5.3845,44.201],[5.354,44.2134],[5.3037,44.206],[5.2565,44.2301],[5.2405,44.2308],[5.2381,44.2132],[5.1549,44.2309],[5.1475,44.2695],[5.1664,44.3149],[5.1079,44.2804],[5.0765,44.2841],[5.0606,44.3081],[4.9355,44.2643],[4.8738,44.2593],[4.8267,44.2283],[4.8141,44.2323],[4.7991,44.3035],[4.7623,44.3254],[4.6506,44.3298],[4.6492,44.2704],[4.5587,44.3024],[4.5035,44.3402],[4.4576,44.3416],[4.4405,44.2841],[4.399,44.2889],[4.4032,44.3339],[4.3865,44.3466],[4.2884,44.3147],[4.2894,44.2932],[4.2588,44.2648],[4.1867,44.2997],[4.1777,44.3179],[4.1429,44.3134],[4.1267,44.3377],[4.0515,44.3173],[4.0369,44.3308],[4.0555,44.3656],[4.0425,44.3946],[4.0684,44.4051],[4.0355,44.4201],[4.0376,44.4457],[3.9875,44.4734],[3.9837,44.5102],[3.9452,44.5738],[3.9285,44.57],[3.9052,44.5927],[3.8947,44.6511],[3.8733,44.6782],[3.8845,44.6973],[3.8615,44.712],[3.8755,44.7406],[3.8366,44.7478],[3.8416,44.7721],[3.8033,44.7704],[3.7406,44.8387],[3.6664,44.8288],[3.6574,44.8361],[3.6705,44.8509],[3.6423,44.8784],[3.5943,44.8754],[3.5785,44.8257],[3.4788,44.8094],[3.418,44.9008],[3.4046,44.9564],[3.3613,44.9714]],[[4.8881,44.3317],[4.8895,44.3042],[4.9873,44.2932],[5.027,44.3628],[5.0709,44.3832],[5.0158,44.3928],[5.0188,44.416],[4.9704,44.4314],[4.9185,44.4078],[4.9066,44.3741],[4.8754,44.3514],[4.8881,44.3317]]]}},{"type":"Feature","properties":{"code":"93","nom":"Provence-Alpes-Côte d'Azur","ppsm":3612,"count":257443},"geometry":{"type":"MultiPolygon","coordinates":[[[[6.9483,44.6548],[6.9668,44.6253],[6.9384,44.6037],[6.9335,44.576],[6.854,44.5291],[6.882,44.4773],[6.9446,44.4321],[6.8929,44.4208],[6.8874,44.3611],[6.9224,44.3483],[6.9565,44.2986],[6.9934,44.2809],[7.0081,44.2364],[7.1889,44.1978],[7.2628,44.148],[7.3442,44.1452],[7.3679,44.1164],[7.427,44.1129],[7.4354,44.1294],[7.6146,44.1497],[7.6366,44.1771],[7.6846,44.174],[7.6666,44.1308],[7.7169,44.0818],[7.7141,44.0654],[7.7,44.0408],[7.665,44.0307],[7.6702,43.9985],[7.6486,43.9741],[7.5671,43.9437],[7.5592,43.8973],[7.5012,43.8748],[7.4986,43.8462],[7.5285,43.7905],[7.4759,43.7508],[7.4372,43.7516],[7.4065,43.7196],[7.3585,43.7219],[7.3296,43.7019],[7.3264,43.6741],[7.3147,43.7065],[7.2972,43.6861],[7.2419,43.6885],[7.2065,43.6456],[7.1945,43.6579],[7.1511,43.6493],[7.1265,43.6053],[7.1385,43.5456],[7.1192,43.5445],[7.1013,43.5707],[7.0404,43.5416],[6.9718,43.5455],[6.9384,43.5164],[6.9548,43.5047],[6.918,43.4477],[6.8918,43.4286],[6.857,43.4305],[6.855,43.4114],[6.7897,43.4083],[6.7634,43.4245],[6.7398,43.4129],[6.7165,43.3475],[6.6816,43.341],[6.666,43.3182],[6.5839,43.2773],[6.5935,43.2623],[6.6621,43.2649],[6.6773,43.2788],[6.6973,43.2655],[6.6636,43.238],[6.677,43.1972],[6.6237,43.1653],[6.5596,43.1886],[6.4935,43.1502],[6.3876,43.1449],[6.3598,43.1199],[6.3683,43.0899],[6.3325,43.0911],[6.2749,43.1207],[6.2008,43.1158],[6.1598,43.0885],[6.1479,43.027],[6.0918,43.0368],[6.1282,43.0427],[6.114,43.0837],[6.0215,43.0783],[6.0235,43.0948],[6.005,43.1038],[5.9258,43.104],[5.9343,43.1186],[5.8868,43.1035],[5.9091,43.1005],[5.8948,43.0817],[5.9377,43.0846],[5.951,43.0768],[5.9439,43.0664],[5.8871,43.0772],[5.8575,43.0466],[5.7941,43.0688],[5.807,43.1157],[5.7745,43.1169],[5.7713,43.1389],[5.6949,43.1436],[5.6846,43.1801],[5.6383,43.1892],[5.6009,43.1625],[5.5369,43.2145],[5.5003,43.1968],[5.3456,43.2125],[5.376,43.2552],[5.3457,43.2824],[5.3644,43.3121],[5.311,43.3609],[5.2213,43.3284],[5.0539,43.3243],[5.019,43.3429],[5.0243,43.3556],[4.9876,43.3918],[5.0011,43.3982],[4.9677,43.4261],[4.9314,43.4332],[4.8866,43.4129],[4.8674,43.4323],[4.8773,43.4105],[4.8668,43.4047],[4.8244,43.4244],[4.8615,43.4008],[4.8359,43.398],[4.8737,43.3608],[4.9022,43.371],[4.833,43.3299],[4.7834,43.3472],[4.5858,43.3601],[4.5556,43.3828],[4.5877,43.4007],[4.5881,43.4227],[4.5347,43.4516],[4.2303,43.4602],[4.2381,43.4976],[4.3205,43.5255],[4.3095,43.5433],[4.3341,43.5355],[4.4094,43.5611],[4.4044,43.5744],[4.4255,43.5852],[4.4607,43.5893],[4.4752,43.6083],[4.427,43.6207],[4.4872,43.6992],[4.5398,43.7073],[4.6277,43.6905],[4.6136,43.7298],[4.6512,43.7823],[4.6424,43.8314],[4.6663,43.8448],[4.6419,43.8675],[4.779,43.9379],[4.8151,43.9676],[4.816,43.9888],[4.8421,43.9865],[4.8433,44.0099],[4.8211,44.0165],[4.788,44.0651],[4.7549,44.0883],[4.7301,44.079],[4.7075,44.1037],[4.7221,44.1874],[4.7018,44.2161],[4.6727,44.2168],[4.6748,44.2385],[4.6492,44.2704],[4.6506,44.3298],[4.7825,44.3156],[4.8267,44.2283],[4.8738,44.2593],[4.9355,44.2643],[5.0606,44.3081],[5.0765,44.2841],[5.1079,44.2804],[5.1664,44.3149],[5.1475,44.2695],[5.1549,44.2309],[5.2381,44.2132],[5.2405,44.2308],[5.2565,44.2301],[5.3037,44.206],[5.354,44.2134],[5.3845,44.201],[5.3832,44.1553],[5.4358,44.1522],[5.4547,44.1192],[5.533,44.1301],[5.583,44.1576],[5.5644,44.1709],[5.5762,44.188],[5.6021,44.1915],[5.6396,44.1676],[5.6311,44.1506],[5.6786,44.1461],[5.6827,44.1632],[5.6437,44.1726],[5.6516,44.1896],[5.6864,44.1972],[5.6726,44.2457],[5.6866,44.2669],[5.6468,44.2671],[5.6378,44.2997],[5.6079,44.3067],[5.6269,44.3348],[5.5491,44.3304],[5.5135,44.3475],[5.4931,44.3372],[5.463,44.3671],[5.4344,44.3696],[5.443,44.3912],[5.4185,44.4249],[5.4765,44.4197],[5.4968,44.4385],[5.4644,44.4479],[5.4569,44.4962],[5.6036,44.4655],[5.6298,44.5012],[5.6645,44.5019],[5.5973,44.5433],[5.6496,44.6179],[5.6417,44.6511],[5.726,44.6394],[5.7539,44.6627],[5.7906,44.6533],[5.8295,44.6924],[5.8015,44.7068],[5.8271,44.7597],[5.8795,44.747],[5.9525,44.7621],[5.9801,44.7812],[5.9495,44.8045],[6.0159,44.8355],[6.0563,44.8159],[6.1362,44.8641],[6.2505,44.8527],[6.2882,44.874],[6.3363,44.8484],[6.3554,44.8548],[6.3588,44.9413],[6.3229,44.953],[6.3182,45.0039],[6.2518,44.9967],[6.2039,45.0125],[6.2201,45.0654],[6.2401,45.0677],[6.2294,45.1087],[6.2606,45.1268],[6.3019,45.109],[6.3345,45.1228],[6.3629,45.1045],[6.3651,45.0713],[6.4535,45.0518],[6.4862,45.0561],[6.4813,45.0941],[6.5104,45.109],[6.5297,45.0986],[6.5765,45.1231],[6.6155,45.1215],[6.6621,45.0716],[6.6739,45.0196],[6.7455,45.0126],[6.7512,44.9976],[6.7376,44.9915],[6.7649,44.9597],[6.7498,44.9074],[6.8599,44.8529],[6.9138,44.8454],[6.9337,44.862],[7.0218,44.8215],[6.9996,44.7894],[7.0771,44.6809],[6.9871,44.6901],[6.9483,44.6548]],[[5.0178,43.4693],[5.0519,43.4636],[5.0704,43.4002],[5.1373,43.4002],[5.2301,43.4651],[5.2028,43.4912],[5.1497,43.457],[5.1087,43.5255],[5.0464,43.5221],[5.022,43.5562],[4.9985,43.4981],[5.0009,43.4741],[5.0178,43.4693]]],[[[6.4341,43.0133],[6.4702,43.0452],[6.5113,43.0468],[6.4617,43.0139],[6.4341,43.0133]]],[[[6.3971,42.9928],[6.3697,43.0012],[6.4207,43.0137],[6.3971,42.9928]]],[[[6.2441,43.02],[6.2505,42.9994],[6.2087,42.9834],[6.1645,42.9978],[6.2441,43.02]]],[[[7.0671,43.5136],[7.0361,43.5175],[7.0322,43.5234],[7.0501,43.5225],[7.0709,43.5174],[7.0671,43.5136]]],[[[4.8881,44.3317],[4.8754,44.3514],[4.9066,44.3741],[4.9185,44.4078],[4.9704,44.4314],[5.0188,44.416],[5.0158,44.3928],[5.0709,44.3832],[5.027,44.3628],[4.9873,44.2932],[4.8895,44.3042],[4.8881,44.3317]]]]}},{"type":"Feature","properties":{"code":"94","nom":"Corse","ppsm":3373,"count":12171},"geometry":{"type":"MultiPolygon","coordinates":[[[[9.271,41.365],[9.2657,41.3622],[9.2559,41.3688],[9.2602,41.3737],[9.2737,41.3692],[9.271,41.365]]],[[[9.4023,41.8587],[9.3998,41.6928],[9.3723,41.6788],[9.3875,41.6574],[9.3476,41.6366],[9.3464,41.6175],[9.3082,41.6285],[9.2883,41.6091],[9.2957,41.5833],[9.3215,41.6048],[9.3686,41.5969],[9.3409,41.5592],[9.2731,41.5302],[9.2839,41.5205],[9.2689,41.5016],[9.2877,41.4948],[9.2777,41.465],[9.224,41.4425],[9.2281,41.4091],[9.2651,41.4283],[9.2592,41.4134],[9.2197,41.3682],[9.0938,41.3938],[9.1207,41.4376],[9.0743,41.4429],[9.0703,41.4757],[9.0383,41.4596],[8.9928,41.4854],[8.8846,41.5051],[8.8778,41.5238],[8.8451,41.518],[8.8512,41.5409],[8.7885,41.5577],[8.802,41.5725],[8.7772,41.5928],[8.7931,41.6296],[8.8695,41.6461],[8.9145,41.6897],[8.773,41.7119],[8.7845,41.7317],[8.7725,41.7415],[8.7172,41.7228],[8.6976,41.7413],[8.6586,41.7418],[8.7301,41.7759],[8.7212,41.7978],[8.7713,41.8112],[8.7821,41.8337],[8.7678,41.8459],[8.7906,41.8555],[8.7812,41.8807],[8.8031,41.8914],[8.7858,41.9203],[8.7451,41.9332],[8.7214,41.9093],[8.6149,41.9023],[8.6208,41.9395],[8.5959,41.9661],[8.6461,41.9681],[8.6689,41.9824],[8.6564,42.0093],[8.747,42.0502],[8.7199,42.0635],[8.7,42.1125],[8.6605,42.1036],[8.61,42.1345],[8.5825,42.1293],[8.594,42.1432],[8.5775,42.1566],[8.5885,42.1714],[8.5654,42.1773],[8.5829,42.1785],[8.5735,42.2258],[8.5401,42.235],[8.6891,42.2635],[8.6606,42.3021],[8.5974,42.3161],[8.6264,42.3402],[8.5915,42.3528],[8.5533,42.333],[8.5559,42.3647],[8.5432,42.367],[8.5479,42.3794],[8.5667,42.3707],[8.6088,42.3864],[8.6084,42.4168],[8.6552,42.4157],[8.6482,42.4424],[8.6673,42.4449],[8.6798,42.4681],[8.6499,42.4782],[8.6665,42.5152],[8.7186,42.5282],[8.711,42.5766],[8.7243,42.5841],[8.727,42.5616],[8.7878,42.5582],[8.8235,42.6062],[8.865,42.608],[8.9181,42.6369],[9.0104,42.6404],[9.0593,42.6601],[9.0591,42.6946],[9.1246,42.7316],[9.2176,42.7342],[9.2544,42.7185],[9.2844,42.6763],[9.3142,42.689],[9.3445,42.7378],[9.3426,42.7948],[9.311,42.8347],[9.3402,42.8655],[9.3222,42.8996],[9.356,42.927],[9.3409,42.9945],[9.4218,43.0117],[9.4636,42.9864],[9.4519,42.9644],[9.4924,42.8051],[9.4462,42.6736],[9.5332,42.5459],[9.5434,42.4285],[9.5334,42.3663],[9.5592,42.2717],[9.55,42.1042],[9.4126,41.9525],[9.4023,41.8587]]]]}}]}