{"type":"FeatureCollection","features":[{"type":"Feature","properties":{"code":"11","nom":"Île-de-France","ppsm":4642,"count":393209},"geometry":{"type":"Point","coordinates":[2.504,48.7093]}},{"type":"Feature","properties":{"code":"24","nom":"Centre-Val de Loire","ppsm":1540,"count":102409},"geometry":{"type":"Point","coordinates":[1.6844,47.4849]}},{"type":"Feature","properties":{"code":"27","nom":"Bourgogne-Franche-Comté","ppsm":1470,"count":113460},"geometry":{"type":"Point","coordinates":[4.8066,47.2345]}},{"type":"Feature","properties":{"code":"28","nom":"Normandie","ppsm":1875,"count":138761},"geometry":{"type":"Point","coordinates":[0.1102,49.1198]}},{"type":"Feature","properties":{"code":"32","nom":"Hauts-de-France","ppsm":1778,"count":205465},"geometry":{"type":"Point","coordinates":[2.7722,49.9686]}},{"type":"Feature","properties":{"code":"44","nom":"Grand Est","ppsm":1487,"count":95560},"geometry":{"type":"Point","coordinates":[5.6126,48.689]}},{"type":"Feature","properties":{"code":"52","nom":"Pays de la Loire","ppsm":2264,"count":158054},"geometry":{"type":"Point","coordinates":[-0.8139,47.4792]}},{"type":"Feature","properties":{"code":"53","nom":"Bretagne","ppsm":2237,"count":143495},"geometry":{"type":"Point","coordinates":[-2.8393,48.1812]}},{"type":"Feature","properties":{"code":"75","nom":"Nouvelle-Aquitaine","ppsm":1931,"count":263933},"geometry":{"type":"Point","coordinates":[0.2119,45.2032]}},{"type":"Feature","properties":{"code":"01","nom":"Guadeloupe","ppsm":3036,"count":5458},"geometry":{"type":"Point","coordinates":[-61.6803,16.1595]}},{"type":"Feature","properties":{"code":"02","nom":"Martinique","ppsm":2623,"count":5219},"geometry":{"type":"Point","coordinates":[-61.0173,14.6517]}},{"type":"Feature","properties":{"code":"03","nom":"Guyane","ppsm":2580,"count":2484},"geometry":{"type":"Point","coordinates":[-53.2351,3.9226]}},{"type":"Feature","properties":{"code":"04","nom":"La Réunion","ppsm":2703,"count":15542},"geometry":{"type":"Point","coordinates":[55.5324,-21.1346]}},{"type":"Feature","properties":{"code":"06","nom":"Mayotte","ppsm":null,"count":0},"geometry":{"type":"Point","coordinates":[45.1446,-12.8237]}},{"type":"Feature","properties":{"code":"76","nom":"Occitanie","ppsm":2243,"count":277294},"geometry":{"type":"Point","coordinates":[2.1466,43.7026]}},{"type":"Feature","properties":{"code":"84","nom":"Auvergne-Rhône-Alpes","ppsm":2556,"count":325066},"geometry":{"type":"Point","coordinates":[4.5374,45.5127]}},{"type":"Feature","properties":{"code":"93","nom":"Provence-Alpes-Côte d'Azur","ppsm":3612,"count":257443},"geometry":{"type":"Point","coordinates":[6.0613,43.9549]}},{"type":"Feature","properties":{"code":"94","nom":"Corse","ppsm":3373,"count":12171},"geometry":{"type":"Point","coordinates":[9.1063,42.1518]}}]}